{
"type": "FeatureCollection",
"name": "Localité",
"crs": { "type": "name", "properties": { "name": "urn:ogc:def:crs:OGC:1.3:CRS84" } },
"features": [
{ "type": "Feature", "properties": { "OBJECTID": 12, "CODE": 4600040, "TYPELOCAL": 3, "NOM": "Oussouye", "SERV_ECOLE": 1, "SERV_POSTE": 1, "SERV_DOUAN": 1, "SERV_GENDA": 1, "SERV_HOPIT": 0, "SERV_INFR_": 1, "SERV_MUSUL": 1, "SERV_CHRET": 1, "SERV_CHAT_": 1, "SERV_PT_EA": 0, "SERV_ANT_H": 1, "SERV_EOLIE": 0, "SERV_PUITS": 0, "THEME": "LA", "PAYS": "SN", "IDUU": "9ee946bc-1a80-4f61-8689-c441f3aa9613" }, "geometry": { "type": "Point", "coordinates": [ -16.544465850068189, 12.486771347640545 ] } },
{ "type": "Feature", "properties": { "OBJECTID": 15, "CODE": 4600040, "TYPELOCAL": 3, "NOM": "Bignona", "SERV_ECOLE": 1, "SERV_POSTE": 1, "SERV_DOUAN": 1, "SERV_GENDA": 1, "SERV_HOPIT": 0, "SERV_INFR_": 1, "SERV_MUSUL": 0, "SERV_CHRET": 0, "SERV_CHAT_": 1, "SERV_PT_EA": 0, "SERV_ANT_H": 1, "SERV_EOLIE": 0, "SERV_PUITS": 0, "THEME": "LA", "PAYS": "SN", "IDUU": "2e02c277-c80c-4ac0-9c17-fc6775ecfe43" }, "geometry": { "type": "Point", "coordinates": [ -16.237238526094234, 12.803644450474478 ] } },
{ "type": "Feature", "properties": { "OBJECTID": 34, "CODE": 4600050, "TYPELOCAL": 4, "NOM": "Cabrousse", "SERV_ECOLE": 1, "SERV_POSTE": 0, "SERV_DOUAN": 0, "SERV_GENDA": 0, "SERV_HOPIT": 0, "SERV_INFR_": 1, "SERV_MUSUL": 1, "SERV_CHRET": 1, "SERV_CHAT_": 0, "SERV_PT_EA": 0, "SERV_ANT_H": 0, "SERV_EOLIE": 0, "SERV_PUITS": 0, "THEME": "LA", "PAYS": "SN", "IDUU": "bc8ed39b-07e5-4a14-a04d-e2e487d3d7af" }, "geometry": { "type": "Point", "coordinates": [ -16.716122496388675, 12.355041671902098 ] } },
{ "type": "Feature", "properties": { "OBJECTID": 36, "CODE": 4600050, "TYPELOCAL": 4, "NOM": "Niassia", "SERV_ECOLE": 1, "SERV_POSTE": 0, "SERV_DOUAN": 0, "SERV_GENDA": 0, "SERV_HOPIT": 0, "SERV_INFR_": 1, "SERV_MUSUL": 0, "SERV_CHRET": 1, "SERV_CHAT_": 1, "SERV_PT_EA": 0, "SERV_ANT_H": 1, "SERV_EOLIE": 0, "SERV_PUITS": 0, "THEME": "LA", "PAYS": "SN", "IDUU": "ab856854-338a-4123-a323-1106d1f55e90" }, "geometry": { "type": "Point", "coordinates": [ -16.372833499967374, 12.474428152574738 ] } },
{ "type": "Feature", "properties": { "OBJECTID": 37, "CODE": 4600050, "TYPELOCAL": 4, "NOM": "Loudia Wolof", "SERV_ECOLE": 1, "SERV_POSTE": 0, "SERV_DOUAN": 0, "SERV_GENDA": 0, "SERV_HOPIT": 0, "SERV_INFR_": 1, "SERV_MUSUL": 1, "SERV_CHRET": 0, "SERV_CHAT_": 0, "SERV_PT_EA": 0, "SERV_ANT_H": 1, "SERV_EOLIE": 0, "SERV_PUITS": 0, "THEME": "LA", "PAYS": "SN", "IDUU": "3390db31-0b97-440d-92fc-0b0bfc470c0a" }, "geometry": { "type": "Point", "coordinates": [ -16.594888605869425, 12.514980475168734 ] } },
{ "type": "Feature", "properties": { "OBJECTID": 39, "CODE": 4600050, "TYPELOCAL": 4, "NOM": "Niaguis", "SERV_ECOLE": 1, "SERV_POSTE": 0, "SERV_DOUAN": 0, "SERV_GENDA": 0, "SERV_HOPIT": 0, "SERV_INFR_": 1, "SERV_MUSUL": 1, "SERV_CHRET": 1, "SERV_CHAT_": 1, "SERV_PT_EA": 0, "SERV_ANT_H": 1, "SERV_EOLIE": 0, "SERV_PUITS": 0, "THEME": "LA", "PAYS": "SN", "IDUU": "d7ee5415-9f03-4aac-bdb1-53bb377f9e60" }, "geometry": { "type": "Point", "coordinates": [ -16.168215098410734, 12.568779337528618 ] } },
{ "type": "Feature", "properties": { "OBJECTID": 43, "CODE": 4600050, "TYPELOCAL": 4, "NOM": "Tendouk", "SERV_ECOLE": 1, "SERV_POSTE": 0, "SERV_DOUAN": 0, "SERV_GENDA": 0, "SERV_HOPIT": 0, "SERV_INFR_": 1, "SERV_MUSUL": 1, "SERV_CHRET": 1, "SERV_CHAT_": 1, "SERV_PT_EA": 0, "SERV_ANT_H": 1, "SERV_EOLIE": 0, "SERV_PUITS": 0, "THEME": "LA", "PAYS": "SN", "IDUU": "75fdbfc6-581c-4816-82d0-d5a081cfc51a" }, "geometry": { "type": "Point", "coordinates": [ -16.461391566299536, 12.724361704189068 ] } },
{ "type": "Feature", "properties": { "OBJECTID": 47, "CODE": 4600050, "TYPELOCAL": 4, "NOM": "Tanghori", "SERV_ECOLE": 1, "SERV_POSTE": 0, "SERV_DOUAN": 0, "SERV_GENDA": 0, "SERV_HOPIT": 0, "SERV_INFR_": 1, "SERV_MUSUL": 1, "SERV_CHRET": 0, "SERV_CHAT_": 1, "SERV_PT_EA": 0, "SERV_ANT_H": 0, "SERV_EOLIE": 0, "SERV_PUITS": 0, "THEME": "LA", "PAYS": "SN", "IDUU": "46f7dd81-6d84-4ff4-a9c5-2dfc245a5237" }, "geometry": { "type": "Point", "coordinates": [ -16.205509810363239, 12.807326616720783 ] } },
{ "type": "Feature", "properties": { "OBJECTID": 52, "CODE": 4600050, "TYPELOCAL": 4, "NOM": "Sindian", "SERV_ECOLE": 1, "SERV_POSTE": 0, "SERV_DOUAN": 0, "SERV_GENDA": 0, "SERV_HOPIT": 0, "SERV_INFR_": 1, "SERV_MUSUL": 1, "SERV_CHRET": 0, "SERV_CHAT_": 1, "SERV_PT_EA": 0, "SERV_ANT_H": 1, "SERV_EOLIE": 0, "SERV_PUITS": 0, "THEME": "LA", "PAYS": "SN", "IDUU": "c2ff2516-db8b-428d-92bc-d99bcb874524" }, "geometry": { "type": "Point", "coordinates": [ -16.185648960414728, 12.962452560748556 ] } },
{ "type": "Feature", "properties": { "OBJECTID": 55, "CODE": 4600060, "TYPELOCAL": 6, "NOM": "Diouloulou", "SERV_ECOLE": 1, "SERV_POSTE": 1, "SERV_DOUAN": 0, "SERV_GENDA": 1, "SERV_HOPIT": 1, "SERV_INFR_": 0, "SERV_MUSUL": 1, "SERV_CHRET": 1, "SERV_CHAT_": 1, "SERV_PT_EA": 0, "SERV_ANT_H": 1, "SERV_EOLIE": 0, "SERV_PUITS": 0, "THEME": "LA", "PAYS": "SN", "IDUU": "8b179bed-40f2-4647-8036-68921365c3d4" }, "geometry": { "type": "Point", "coordinates": [ -16.597101909598802, 13.050640450689301 ] } },
{ "type": "Feature", "properties": { "OBJECTID": 127, "CODE": 4600060, "TYPELOCAL": 6, "NOM": "Djembéring (Djiwal)", "SERV_ECOLE": 1, "SERV_POSTE": 0, "SERV_DOUAN": 0, "SERV_GENDA": 0, "SERV_HOPIT": 0, "SERV_INFR_": 1, "SERV_MUSUL": 1, "SERV_CHRET": 1, "SERV_CHAT_": 1, "SERV_PT_EA": 0, "SERV_ANT_H": 1, "SERV_EOLIE": 0, "SERV_PUITS": 0, "THEME": "LA", "PAYS": "SN", "IDUU": "a44027e8-f28b-4e6a-b253-8ed022bf50b3" }, "geometry": { "type": "Point", "coordinates": [ -16.778350470254164, 12.468770515550192 ] } },
{ "type": "Feature", "properties": { "OBJECTID": 129, "CODE": 4600060, "TYPELOCAL": 6, "NOM": "Boutoupa Camarakounda", "SERV_ECOLE": 1, "SERV_POSTE": 0, "SERV_DOUAN": 0, "SERV_GENDA": 0, "SERV_HOPIT": 0, "SERV_INFR_": 1, "SERV_MUSUL": 1, "SERV_CHRET": 1, "SERV_CHAT_": 0, "SERV_PT_EA": 0, "SERV_ANT_H": 0, "SERV_EOLIE": 0, "SERV_PUITS": 0, "THEME": "LA", "PAYS": "SN", "IDUU": "f1577fef-6749-4911-aea1-61f93e39b83f" }, "geometry": { "type": "Point", "coordinates": [ -16.079648322971014, 12.510660868358491 ] } },
{ "type": "Feature", "properties": { "OBJECTID": 131, "CODE": 4600060, "TYPELOCAL": 6, "NOM": "Mlomp", "SERV_ECOLE": 1, "SERV_POSTE": 0, "SERV_DOUAN": 0, "SERV_GENDA": 0, "SERV_HOPIT": 0, "SERV_INFR_": 1, "SERV_MUSUL": 1, "SERV_CHRET": 1, "SERV_CHAT_": 1, "SERV_PT_EA": 0, "SERV_ANT_H": 1, "SERV_EOLIE": 0, "SERV_PUITS": 0, "THEME": "LA", "PAYS": "SN", "IDUU": "27831237-0424-493d-8292-3b164b68b5e3" }, "geometry": { "type": "Point", "coordinates": [ -16.58098913238355, 12.557712734841971 ] } },
{ "type": "Feature", "properties": { "OBJECTID": 135, "CODE": 4600060, "TYPELOCAL": 6, "NOM": "Adéane", "SERV_ECOLE": 1, "SERV_POSTE": 0, "SERV_DOUAN": 0, "SERV_GENDA": 0, "SERV_HOPIT": 0, "SERV_INFR_": 1, "SERV_MUSUL": 1, "SERV_CHRET": 0, "SERV_CHAT_": 1, "SERV_PT_EA": 0, "SERV_ANT_H": 0, "SERV_EOLIE": 0, "SERV_PUITS": 0, "THEME": "LA", "PAYS": "SN", "IDUU": "32a05bd9-4a57-44a9-aafc-7ebec7b55360" }, "geometry": { "type": "Point", "coordinates": [ -16.018500840796996, 12.628251532444136 ] } },
{ "type": "Feature", "properties": { "OBJECTID": 136, "CODE": 4600060, "TYPELOCAL": 6, "NOM": "Coubalan", "SERV_ECOLE": 1, "SERV_POSTE": 0, "SERV_DOUAN": 0, "SERV_GENDA": 0, "SERV_HOPIT": 0, "SERV_INFR_": 1, "SERV_MUSUL": 1, "SERV_CHRET": 1, "SERV_CHAT_": 1, "SERV_PT_EA": 0, "SERV_ANT_H": 1, "SERV_EOLIE": 0, "SERV_PUITS": 0, "THEME": "LA", "PAYS": "SN", "IDUU": "f26ecc71-8000-4a70-88e2-036d6b1cc91b" }, "geometry": { "type": "Point", "coordinates": [ -16.169967062800524, 12.664735656775106 ] } },
{ "type": "Feature", "properties": { "OBJECTID": 138, "CODE": 4600060, "TYPELOCAL": 6, "NOM": "Mangagoulak", "SERV_ECOLE": 1, "SERV_POSTE": 0, "SERV_DOUAN": 0, "SERV_GENDA": 0, "SERV_HOPIT": 0, "SERV_INFR_": 1, "SERV_MUSUL": 1, "SERV_CHRET": 1, "SERV_CHAT_": 1, "SERV_PT_EA": 0, "SERV_ANT_H": 0, "SERV_EOLIE": 0, "SERV_PUITS": 0, "THEME": "LA", "PAYS": "SN", "IDUU": "8e7311e8-8da1-4483-a179-e5f5d0bb8d15" }, "geometry": { "type": "Point", "coordinates": [ -16.44278708805599, 12.691258618732347 ] } },
{ "type": "Feature", "properties": { "OBJECTID": 141, "CODE": 4600060, "TYPELOCAL": 6, "NOM": "Ouonk", "SERV_ECOLE": 1, "SERV_POSTE": 0, "SERV_DOUAN": 0, "SERV_GENDA": 0, "SERV_HOPIT": 0, "SERV_INFR_": 1, "SERV_MUSUL": 1, "SERV_CHRET": 0, "SERV_CHAT_": 1, "SERV_PT_EA": 0, "SERV_ANT_H": 1, "SERV_EOLIE": 0, "SERV_PUITS": 0, "THEME": "LA", "PAYS": "SN", "IDUU": "03b96ca1-a380-48da-889e-6d695513bfa9" }, "geometry": { "type": "Point", "coordinates": [ -16.05760894299134, 12.708189377009921 ] } },
{ "type": "Feature", "properties": { "OBJECTID": 143, "CODE": 4600060, "TYPELOCAL": 6, "NOM": "Niamone", "SERV_ECOLE": 1, "SERV_POSTE": 0, "SERV_DOUAN": 0, "SERV_GENDA": 0, "SERV_HOPIT": 0, "SERV_INFR_": 1, "SERV_MUSUL": 0, "SERV_CHRET": 0, "SERV_CHAT_": 1, "SERV_PT_EA": 0, "SERV_ANT_H": 1, "SERV_EOLIE": 0, "SERV_PUITS": 0, "THEME": "LA", "PAYS": "SN", "IDUU": "af8160f1-158d-4b2b-864e-6b09d5409d2c" }, "geometry": { "type": "Point", "coordinates": [ -16.332921493375668, 12.739422965558312 ] } },
{ "type": "Feature", "properties": { "OBJECTID": 145, "CODE": 4600060, "TYPELOCAL": 6, "NOM": "Balinghor", "SERV_ECOLE": 1, "SERV_POSTE": 0, "SERV_DOUAN": 0, "SERV_GENDA": 0, "SERV_HOPIT": 0, "SERV_INFR_": 1, "SERV_MUSUL": 1, "SERV_CHRET": 0, "SERV_CHAT_": 1, "SERV_PT_EA": 0, "SERV_ANT_H": 1, "SERV_EOLIE": 0, "SERV_PUITS": 0, "THEME": "LA", "PAYS": "SN", "IDUU": "848dfb42-6751-4eaf-89c2-578cb6a24c5a" }, "geometry": { "type": "Point", "coordinates": [ -16.352307948681943, 12.777557285892266 ] } },
{ "type": "Feature", "properties": { "OBJECTID": 150, "CODE": 4600060, "TYPELOCAL": 6, "NOM": "Diégoun", "SERV_ECOLE": 1, "SERV_POSTE": 0, "SERV_DOUAN": 0, "SERV_GENDA": 0, "SERV_HOPIT": 0, "SERV_INFR_": 1, "SERV_MUSUL": 1, "SERV_CHRET": 0, "SERV_CHAT_": 1, "SERV_PT_EA": 0, "SERV_ANT_H": 1, "SERV_EOLIE": 0, "SERV_PUITS": 0, "THEME": "LA", "PAYS": "SN", "IDUU": "6c6b20d7-f85a-47aa-a836-14f0e93a7e56" }, "geometry": { "type": "Point", "coordinates": [ -16.368521756007649, 12.82239601188509 ] } },
{ "type": "Feature", "properties": { "OBJECTID": 152, "CODE": 4600060, "TYPELOCAL": 6, "NOM": "Mlomp", "SERV_ECOLE": 1, "SERV_POSTE": 0, "SERV_DOUAN": 0, "SERV_GENDA": 0, "SERV_HOPIT": 0, "SERV_INFR_": 1, "SERV_MUSUL": 1, "SERV_CHRET": 0, "SERV_CHAT_": 1, "SERV_PT_EA": 0, "SERV_ANT_H": 1, "SERV_EOLIE": 0, "SERV_PUITS": 0, "THEME": "LA", "PAYS": "SN", "IDUU": "01f84369-8593-4043-bcb4-808871bcfd5a" }, "geometry": { "type": "Point", "coordinates": [ -16.52426726210631, 12.828635949051575 ] } },
{ "type": "Feature", "properties": { "OBJECTID": 156, "CODE": 4600060, "TYPELOCAL": 6, "NOM": "Kartiak", "SERV_ECOLE": 1, "SERV_POSTE": 0, "SERV_DOUAN": 0, "SERV_GENDA": 0, "SERV_HOPIT": 0, "SERV_INFR_": 1, "SERV_MUSUL": 1, "SERV_CHRET": 1, "SERV_CHAT_": 1, "SERV_PT_EA": 1, "SERV_ANT_H": 0, "SERV_EOLIE": 0, "SERV_PUITS": 0, "THEME": "LA", "PAYS": "SN", "IDUU": "08108b99-48a6-4c9f-af9e-8267da53a6c9" }, "geometry": { "type": "Point", "coordinates": [ -16.499027381350604, 12.864715133378258 ] } },
{ "type": "Feature", "properties": { "OBJECTID": 159, "CODE": 4600060, "TYPELOCAL": 6, "NOM": "Kafountine", "SERV_ECOLE": 1, "SERV_POSTE": 0, "SERV_DOUAN": 1, "SERV_GENDA": 0, "SERV_HOPIT": 0, "SERV_INFR_": 1, "SERV_MUSUL": 1, "SERV_CHRET": 1, "SERV_CHAT_": 1, "SERV_PT_EA": 0, "SERV_ANT_H": 1, "SERV_EOLIE": 0, "SERV_PUITS": 0, "THEME": "LA", "PAYS": "SN", "IDUU": "9a57116e-fb25-40a7-b8a2-1adb435ade39" }, "geometry": { "type": "Point", "coordinates": [ -16.735907579389576, 12.927205114831946 ] } },
{ "type": "Feature", "properties": { "OBJECTID": 160, "CODE": 4600060, "TYPELOCAL": 6, "NOM": "Djinaki", "SERV_ECOLE": 1, "SERV_POSTE": 0, "SERV_DOUAN": 0, "SERV_GENDA": 0, "SERV_HOPIT": 0, "SERV_INFR_": 1, "SERV_MUSUL": 1, "SERV_CHRET": 0, "SERV_CHAT_": 0, "SERV_PT_EA": 0, "SERV_ANT_H": 1, "SERV_EOLIE": 0, "SERV_PUITS": 0, "THEME": "LA", "PAYS": "SN", "IDUU": "32efcac0-cf02-47d7-814d-35bd4a5b5b30" }, "geometry": { "type": "Point", "coordinates": [ -16.458135678404194, 12.945683097795103 ] } },
{ "type": "Feature", "properties": { "OBJECTID": 161, "CODE": 4600060, "TYPELOCAL": 6, "NOM": "Suèl", "SERV_ECOLE": 1, "SERV_POSTE": 0, "SERV_DOUAN": 0, "SERV_GENDA": 0, "SERV_HOPIT": 0, "SERV_INFR_": 1, "SERV_MUSUL": 0, "SERV_CHRET": 0, "SERV_CHAT_": 1, "SERV_PT_EA": 0, "SERV_ANT_H": 0, "SERV_EOLIE": 0, "SERV_PUITS": 0, "THEME": "LA", "PAYS": "SN", "IDUU": "08239aa5-2ef5-4d6f-b10e-acb1b28ed8a7" }, "geometry": { "type": "Point", "coordinates": [ -16.28331865560763, 12.952108065728522 ] } },
{ "type": "Feature", "properties": { "OBJECTID": 166, "CODE": 4600060, "TYPELOCAL": 6, "NOM": "Djibidione", "SERV_ECOLE": 1, "SERV_POSTE": 0, "SERV_DOUAN": 0, "SERV_GENDA": 0, "SERV_HOPIT": 0, "SERV_INFR_": 1, "SERV_MUSUL": 1, "SERV_CHRET": 1, "SERV_CHAT_": 0, "SERV_PT_EA": 0, "SERV_ANT_H": 0, "SERV_EOLIE": 0, "SERV_PUITS": 0, "THEME": "LA", "PAYS": "SN", "IDUU": "f7ccc44f-3327-49dc-8d22-4ef733552024" }, "geometry": { "type": "Point", "coordinates": [ -16.262112848992135, 13.062336729088257 ] } },
{ "type": "Feature", "properties": { "OBJECTID": 347, "CODE": 4600060, "TYPELOCAL": 6, "NOM": "Tionk Essil", "SERV_ECOLE": 1, "SERV_POSTE": 0, "SERV_DOUAN": 0, "SERV_GENDA": 0, "SERV_HOPIT": 0, "SERV_INFR_": 1, "SERV_MUSUL": 1, "SERV_CHRET": 0, "SERV_CHAT_": 1, "SERV_PT_EA": 0, "SERV_ANT_H": 1, "SERV_EOLIE": 0, "SERV_PUITS": 0, "THEME": "LA", "PAYS": "SN", "IDUU": "5dae79fa-0cf3-48eb-a36d-25cd3bfa294d" }, "geometry": { "type": "Point", "coordinates": [ -16.50530268173102, 12.784250252032647 ] } },
{ "type": "Feature", "properties": { "OBJECTID": 381, "CODE": 4600080, "TYPELOCAL": 7, "NOM": "Youtou", "SERV_ECOLE": 1, "SERV_POSTE": 0, "SERV_DOUAN": 0, "SERV_GENDA": 0, "SERV_HOPIT": 0, "SERV_INFR_": 1, "SERV_MUSUL": 0, "SERV_CHRET": 0, "SERV_CHAT_": 0, "SERV_PT_EA": 0, "SERV_ANT_H": 0, "SERV_EOLIE": 0, "SERV_PUITS": 0, "THEME": "LA", "PAYS": "SN", "IDUU": "a4b3e8a5-1ad8-4698-8146-5b2a87a1daca" }, "geometry": { "type": "Point", "coordinates": [ -16.484304311067095, 12.384329757876047 ] } },
{ "type": "Feature", "properties": { "OBJECTID": 382, "CODE": 4600080, "TYPELOCAL": 7, "NOM": "Cap Skiring", "SERV_ECOLE": 1, "SERV_POSTE": 1, "SERV_DOUAN": 0, "SERV_GENDA": 0, "SERV_HOPIT": 1, "SERV_INFR_": 0, "SERV_MUSUL": 0, "SERV_CHRET": 0, "SERV_CHAT_": 0, "SERV_PT_EA": 0, "SERV_ANT_H": 1, "SERV_EOLIE": 0, "SERV_PUITS": 0, "THEME": "LA", "PAYS": "SN", "IDUU": "6ca1bf9b-b605-4c38-91d6-c8232da29c34" }, "geometry": { "type": "Point", "coordinates": [ -16.738758620290213, 12.389645274731746 ] } },
{ "type": "Feature", "properties": { "OBJECTID": 385, "CODE": 4600080, "TYPELOCAL": 7, "NOM": "Diakèn Wolof", "SERV_ECOLE": 1, "SERV_POSTE": 0, "SERV_DOUAN": 0, "SERV_GENDA": 0, "SERV_HOPIT": 0, "SERV_INFR_": 1, "SERV_MUSUL": 0, "SERV_CHRET": 0, "SERV_CHAT_": 0, "SERV_PT_EA": 0, "SERV_ANT_H": 0, "SERV_EOLIE": 0, "SERV_PUITS": 0, "THEME": "LA", "PAYS": "SN", "IDUU": "5d5eaa99-b445-4caf-9701-360bdbbc4ca3" }, "geometry": { "type": "Point", "coordinates": [ -16.634888246634763, 12.454120096827884 ] } },
{ "type": "Feature", "properties": { "OBJECTID": 386, "CODE": 4600080, "TYPELOCAL": 7, "NOM": "Elinkine", "SERV_ECOLE": 1, "SERV_POSTE": 0, "SERV_DOUAN": 1, "SERV_GENDA": 0, "SERV_HOPIT": 0, "SERV_INFR_": 1, "SERV_MUSUL": 0, "SERV_CHRET": 0, "SERV_CHAT_": 0, "SERV_PT_EA": 0, "SERV_ANT_H": 1, "SERV_EOLIE": 0, "SERV_PUITS": 0, "THEME": "LA", "PAYS": "SN", "IDUU": "ef3425eb-e84a-4de3-9f8d-3888922c06fd" }, "geometry": { "type": "Point", "coordinates": [ -16.662685764318557, 12.505991474259742 ] } },
{ "type": "Feature", "properties": { "OBJECTID": 389, "CODE": 4600080, "TYPELOCAL": 7, "NOM": "Baghagua", "SERV_ECOLE": 1, "SERV_POSTE": 0, "SERV_DOUAN": 0, "SERV_GENDA": 0, "SERV_HOPIT": 0, "SERV_INFR_": 1, "SERV_MUSUL": 0, "SERV_CHRET": 1, "SERV_CHAT_": 1, "SERV_PT_EA": 0, "SERV_ANT_H": 1, "SERV_EOLIE": 0, "SERV_PUITS": 0, "THEME": "LA", "PAYS": "SN", "IDUU": "188e9c8d-a331-483f-80a5-8ffb6df6a812" }, "geometry": { "type": "Point", "coordinates": [ -16.054345927184734, 12.606602372430103 ] } },
{ "type": "Feature", "properties": { "OBJECTID": 391, "CODE": 4600080, "TYPELOCAL": 7, "NOM": "Affiniam", "SERV_ECOLE": 1, "SERV_POSTE": 0, "SERV_DOUAN": 0, "SERV_GENDA": 1, "SERV_HOPIT": 0, "SERV_INFR_": 1, "SERV_MUSUL": 0, "SERV_CHRET": 0, "SERV_CHAT_": 0, "SERV_PT_EA": 0, "SERV_ANT_H": 0, "SERV_EOLIE": 0, "SERV_PUITS": 0, "THEME": "LA", "PAYS": "SN", "IDUU": "6343f568-bee9-4b62-b8fb-3111fc77b015" }, "geometry": { "type": "Point", "coordinates": [ -16.36170483563064, 12.651709138552576 ] } },
{ "type": "Feature", "properties": { "OBJECTID": 392, "CODE": 4600080, "TYPELOCAL": 7, "NOM": "Tobor Balingor", "SERV_ECOLE": 0, "SERV_POSTE": 0, "SERV_DOUAN": 0, "SERV_GENDA": 0, "SERV_HOPIT": 0, "SERV_INFR_": 0, "SERV_MUSUL": 0, "SERV_CHRET": 0, "SERV_CHAT_": 0, "SERV_PT_EA": 0, "SERV_ANT_H": 0, "SERV_EOLIE": 0, "SERV_PUITS": 0, "THEME": "LA", "PAYS": "SN", "IDUU": "4e06ef48-1ecb-4488-9d1a-76ee32448d4e" }, "geometry": { "type": "Point", "coordinates": [ -16.261800282636347, 12.662417452086721 ] } },
{ "type": "Feature", "properties": { "OBJECTID": 393, "CODE": 4600080, "TYPELOCAL": 7, "NOM": "Coubanao", "SERV_ECOLE": 1, "SERV_POSTE": 0, "SERV_DOUAN": 0, "SERV_GENDA": 0, "SERV_HOPIT": 0, "SERV_INFR_": 1, "SERV_MUSUL": 0, "SERV_CHRET": 0, "SERV_CHAT_": 0, "SERV_PT_EA": 0, "SERV_ANT_H": 0, "SERV_EOLIE": 0, "SERV_PUITS": 0, "THEME": "LA", "PAYS": "SN", "IDUU": "8dc19ff9-791e-4d9b-84a4-903e91c6c31d" }, "geometry": { "type": "Point", "coordinates": [ -16.089266506657491, 12.672483188169783 ] } },
{ "type": "Feature", "properties": { "OBJECTID": 394, "CODE": 4600080, "TYPELOCAL": 7, "NOM": "Elana", "SERV_ECOLE": 1, "SERV_POSTE": 0, "SERV_DOUAN": 0, "SERV_GENDA": 0, "SERV_HOPIT": 0, "SERV_INFR_": 0, "SERV_MUSUL": 0, "SERV_CHRET": 1, "SERV_CHAT_": 0, "SERV_PT_EA": 0, "SERV_ANT_H": 0, "SERV_EOLIE": 0, "SERV_PUITS": 0, "THEME": "LA", "PAYS": "SN", "IDUU": "713c1689-d6cf-4134-97ba-f936e8c705d1" }, "geometry": { "type": "Point", "coordinates": [ -16.43522124369947, 12.678625041025835 ] } },
{ "type": "Feature", "properties": { "OBJECTID": 396, "CODE": 4600080, "TYPELOCAL": 7, "NOM": "Hilol", "SERV_ECOLE": 1, "SERV_POSTE": 0, "SERV_DOUAN": 0, "SERV_GENDA": 0, "SERV_HOPIT": 0, "SERV_INFR_": 1, "SERV_MUSUL": 0, "SERV_CHRET": 0, "SERV_CHAT_": 0, "SERV_PT_EA": 0, "SERV_ANT_H": 0, "SERV_EOLIE": 0, "SERV_PUITS": 0, "THEME": "LA", "PAYS": "SN", "IDUU": "7a5536be-1720-4304-ab8d-c028c6c81e5d" }, "geometry": { "type": "Point", "coordinates": [ -16.673851713456497, 12.811825947535914 ] } },
{ "type": "Feature", "properties": { "OBJECTID": 397, "CODE": 4600080, "TYPELOCAL": 7, "NOM": "Kagnobon", "SERV_ECOLE": 1, "SERV_POSTE": 0, "SERV_DOUAN": 0, "SERV_GENDA": 0, "SERV_HOPIT": 0, "SERV_INFR_": 1, "SERV_MUSUL": 1, "SERV_CHRET": 0, "SERV_CHAT_": 0, "SERV_PT_EA": 0, "SERV_ANT_H": 1, "SERV_EOLIE": 0, "SERV_PUITS": 0, "THEME": "LA", "PAYS": "SN", "IDUU": "94b8a8c3-0911-4162-87a8-71013c20c790" }, "geometry": { "type": "Point", "coordinates": [ -16.417638849911402, 12.84298286162991 ] } },
{ "type": "Feature", "properties": { "OBJECTID": 401, "CODE": 4600080, "TYPELOCAL": 7, "NOM": "Kagnarou", "SERV_ECOLE": 1, "SERV_POSTE": 0, "SERV_DOUAN": 0, "SERV_GENDA": 0, "SERV_HOPIT": 0, "SERV_INFR_": 1, "SERV_MUSUL": 1, "SERV_CHRET": 0, "SERV_CHAT_": 0, "SERV_PT_EA": 0, "SERV_ANT_H": 0, "SERV_EOLIE": 0, "SERV_PUITS": 0, "THEME": "LA", "PAYS": "SN", "IDUU": "7c922b39-2f13-49ab-9dd6-d94e2ee4e2b8" }, "geometry": { "type": "Point", "coordinates": [ -16.224903602329245, 12.93097133587214 ] } },
{ "type": "Feature", "properties": { "OBJECTID": 404, "CODE": 4600080, "TYPELOCAL": 7, "NOM": "Kabiline", "SERV_ECOLE": 1, "SERV_POSTE": 0, "SERV_DOUAN": 0, "SERV_GENDA": 0, "SERV_HOPIT": 0, "SERV_INFR_": 0, "SERV_MUSUL": 0, "SERV_CHRET": 0, "SERV_CHAT_": 0, "SERV_PT_EA": 0, "SERV_ANT_H": 0, "SERV_EOLIE": 0, "SERV_PUITS": 0, "THEME": "LA", "PAYS": "SN", "IDUU": "95cfcd27-9314-4fd9-a8b6-ab23e4ac458c" }, "geometry": { "type": "Point", "coordinates": [ -16.554664476278891, 12.966874921240775 ] } },
{ "type": "Feature", "properties": { "OBJECTID": 405, "CODE": 4600080, "TYPELOCAL": 7, "NOM": "Dianah", "SERV_ECOLE": 1, "SERV_POSTE": 0, "SERV_DOUAN": 0, "SERV_GENDA": 0, "SERV_HOPIT": 0, "SERV_INFR_": 1, "SERV_MUSUL": 1, "SERV_CHRET": 1, "SERV_CHAT_": 0, "SERV_PT_EA": 0, "SERV_ANT_H": 0, "SERV_EOLIE": 0, "SERV_PUITS": 0, "THEME": "LA", "PAYS": "SN", "IDUU": "84523b98-53cc-4cde-a2d5-cb3005fb9a1f" }, "geometry": { "type": "Point", "coordinates": [ -16.714247000188376, 12.976322033595984 ] } },
{ "type": "Feature", "properties": { "OBJECTID": 406, "CODE": 4600080, "TYPELOCAL": 7, "NOM": "Diakoye Banga", "SERV_ECOLE": 1, "SERV_POSTE": 0, "SERV_DOUAN": 0, "SERV_GENDA": 0, "SERV_HOPIT": 0, "SERV_INFR_": 1, "SERV_MUSUL": 1, "SERV_CHRET": 0, "SERV_CHAT_": 0, "SERV_PT_EA": 0, "SERV_ANT_H": 0, "SERV_EOLIE": 0, "SERV_PUITS": 0, "THEME": "LA", "PAYS": "SN", "IDUU": "c0e7784c-f4fa-4883-96c3-47db0e13dcdb" }, "geometry": { "type": "Point", "coordinates": [ -16.215386384934948, 12.996399618594481 ] } },
{ "type": "Feature", "properties": { "OBJECTID": 407, "CODE": 4600080, "TYPELOCAL": 7, "NOM": "Abéné", "SERV_ECOLE": 1, "SERV_POSTE": 0, "SERV_DOUAN": 0, "SERV_GENDA": 0, "SERV_HOPIT": 0, "SERV_INFR_": 1, "SERV_MUSUL": 1, "SERV_CHRET": 1, "SERV_CHAT_": 1, "SERV_PT_EA": 0, "SERV_ANT_H": 0, "SERV_EOLIE": 0, "SERV_PUITS": 0, "THEME": "LA", "PAYS": "SN", "IDUU": "b221a373-40e4-4387-93b3-e0d567374d5a" }, "geometry": { "type": "Point", "coordinates": [ -16.720902226730171, 12.997827144616455 ] } },
{ "type": "Feature", "properties": { "OBJECTID": 409, "CODE": 4600080, "TYPELOCAL": 7, "NOM": "Kabadio", "SERV_ECOLE": 1, "SERV_POSTE": 0, "SERV_DOUAN": 0, "SERV_GENDA": 0, "SERV_HOPIT": 0, "SERV_INFR_": 1, "SERV_MUSUL": 0, "SERV_CHRET": 0, "SERV_CHAT_": 0, "SERV_PT_EA": 0, "SERV_ANT_H": 0, "SERV_EOLIE": 0, "SERV_PUITS": 0, "THEME": "LA", "PAYS": "SN", "IDUU": "366508c9-4704-43c9-80e9-cd87b9a9001e" }, "geometry": { "type": "Point", "coordinates": [ -16.707942825960714, 13.035623701018224 ] } },
{ "type": "Feature", "properties": { "OBJECTID": 411, "CODE": 4600080, "TYPELOCAL": 7, "NOM": "Dar Silam Chérif", "SERV_ECOLE": 1, "SERV_POSTE": 0, "SERV_DOUAN": 0, "SERV_GENDA": 0, "SERV_HOPIT": 0, "SERV_INFR_": 1, "SERV_MUSUL": 1, "SERV_CHRET": 0, "SERV_CHAT_": 0, "SERV_PT_EA": 0, "SERV_ANT_H": 0, "SERV_EOLIE": 0, "SERV_PUITS": 0, "THEME": "LA", "PAYS": "SN", "IDUU": "eb83d8a1-1a25-4ed3-b26b-15ed05e7f161" }, "geometry": { "type": "Point", "coordinates": [ -16.53713183145285, 13.07878277163648 ] } },
{ "type": "Feature", "properties": { "OBJECTID": 413, "CODE": 4600080, "TYPELOCAL": 7, "NOM": "Séléti", "SERV_ECOLE": 1, "SERV_POSTE": 0, "SERV_DOUAN": 1, "SERV_GENDA": 0, "SERV_HOPIT": 0, "SERV_INFR_": 1, "SERV_MUSUL": 0, "SERV_CHRET": 0, "SERV_CHAT_": 0, "SERV_PT_EA": 0, "SERV_ANT_H": 1, "SERV_EOLIE": 0, "SERV_PUITS": 0, "THEME": "LA", "PAYS": "SN", "IDUU": "96078a47-96d4-4ad8-8f96-4a0ade55d973" }, "geometry": { "type": "Point", "coordinates": [ -16.576930484128237, 13.146655769971861 ] } },
{ "type": "Feature", "properties": { "OBJECTID": 486, "CODE": 4600090, "TYPELOCAL": 8, "NOM": "Essaout", "SERV_ECOLE": 1, "SERV_POSTE": 0, "SERV_DOUAN": 0, "SERV_GENDA": 0, "SERV_HOPIT": 0, "SERV_INFR_": 0, "SERV_MUSUL": 0, "SERV_CHRET": 0, "SERV_CHAT_": 0, "SERV_PT_EA": 0, "SERV_ANT_H": 0, "SERV_EOLIE": 0, "SERV_PUITS": 0, "THEME": "LA", "PAYS": "SN", "IDUU": "982cd032-886f-442b-aa30-5aa55c25a7dc" }, "geometry": { "type": "Point", "coordinates": [ -16.627012976003272, 12.411029823630804 ] } },
{ "type": "Feature", "properties": { "OBJECTID": 488, "CODE": 4600090, "TYPELOCAL": 8, "NOM": "Mpak", "SERV_ECOLE": 0, "SERV_POSTE": 0, "SERV_DOUAN": 1, "SERV_GENDA": 1, "SERV_HOPIT": 0, "SERV_INFR_": 1, "SERV_MUSUL": 0, "SERV_CHRET": 0, "SERV_CHAT_": 0, "SERV_PT_EA": 0, "SERV_ANT_H": 0, "SERV_EOLIE": 0, "SERV_PUITS": 0, "THEME": "LA", "PAYS": "SN", "IDUU": "14cb7610-4745-47f8-a1eb-3a74eb78f8be" }, "geometry": { "type": "Point", "coordinates": [ -16.229890209823232, 12.453753121941221 ] } },
{ "type": "Feature", "properties": { "OBJECTID": 489, "CODE": 4600090, "TYPELOCAL": 8, "NOM": "Ayoum", "SERV_ECOLE": 0, "SERV_POSTE": 0, "SERV_DOUAN": 0, "SERV_GENDA": 0, "SERV_HOPIT": 0, "SERV_INFR_": 0, "SERV_MUSUL": 0, "SERV_CHRET": 0, "SERV_CHAT_": 0, "SERV_PT_EA": 0, "SERV_ANT_H": 0, "SERV_EOLIE": 0, "SERV_PUITS": 0, "THEME": "LA", "PAYS": "SN", "IDUU": "a89923a9-5482-44be-a2ca-cf46c40197bb" }, "geometry": { "type": "Point", "coordinates": [ -16.52821394878319, 12.453017663362882 ] } },
{ "type": "Feature", "properties": { "OBJECTID": 491, "CODE": 4600090, "TYPELOCAL": 8, "NOM": "Dioèr", "SERV_ECOLE": 1, "SERV_POSTE": 0, "SERV_DOUAN": 0, "SERV_GENDA": 0, "SERV_HOPIT": 0, "SERV_INFR_": 0, "SERV_MUSUL": 0, "SERV_CHRET": 1, "SERV_CHAT_": 0, "SERV_PT_EA": 0, "SERV_ANT_H": 0, "SERV_EOLIE": 0, "SERV_PUITS": 0, "THEME": "LA", "PAYS": "SN", "IDUU": "544e83aa-c1d1-413a-8456-3e661d06af7b" }, "geometry": { "type": "Point", "coordinates": [ -16.421629947183291, 12.462458984924803 ] } },
{ "type": "Feature", "properties": { "OBJECTID": 499, "CODE": 4600090, "TYPELOCAL": 8, "NOM": "Kamebeul", "SERV_ECOLE": 1, "SERV_POSTE": 0, "SERV_DOUAN": 0, "SERV_GENDA": 0, "SERV_HOPIT": 0, "SERV_INFR_": 0, "SERV_MUSUL": 1, "SERV_CHRET": 0, "SERV_CHAT_": 0, "SERV_PT_EA": 0, "SERV_ANT_H": 0, "SERV_EOLIE": 0, "SERV_PUITS": 0, "THEME": "LA", "PAYS": "SN", "IDUU": "e37e8293-3980-40c6-8588-f9251f767ca8" }, "geometry": { "type": "Point", "coordinates": [ -16.433942552728539, 12.503211693035944 ] } },
{ "type": "Feature", "properties": { "OBJECTID": 505, "CODE": 4600090, "TYPELOCAL": 8, "NOM": "Sèlèky", "SERV_ECOLE": 1, "SERV_POSTE": 0, "SERV_DOUAN": 0, "SERV_GENDA": 0, "SERV_HOPIT": 0, "SERV_INFR_": 1, "SERV_MUSUL": 0, "SERV_CHRET": 0, "SERV_CHAT_": 0, "SERV_PT_EA": 0, "SERV_ANT_H": 0, "SERV_EOLIE": 0, "SERV_PUITS": 0, "THEME": "LA", "PAYS": "SN", "IDUU": "e28b4d12-aade-456d-ab62-e2e1a326553f" }, "geometry": { "type": "Point", "coordinates": [ -16.463609357203357, 12.524974955483062 ] } },
{ "type": "Feature", "properties": { "OBJECTID": 508, "CODE": 4600090, "TYPELOCAL": 8, "NOM": "Brin", "SERV_ECOLE": 0, "SERV_POSTE": 0, "SERV_DOUAN": 0, "SERV_GENDA": 0, "SERV_HOPIT": 0, "SERV_INFR_": 0, "SERV_MUSUL": 0, "SERV_CHRET": 0, "SERV_CHAT_": 1, "SERV_PT_EA": 0, "SERV_ANT_H": 1, "SERV_EOLIE": 0, "SERV_PUITS": 0, "THEME": "LA", "PAYS": "SN", "IDUU": "69283897-a1f7-43bb-8241-3357d206db92" }, "geometry": { "type": "Point", "coordinates": [ -16.355221201661635, 12.53736843730262 ] } },
{ "type": "Feature", "properties": { "OBJECTID": 509, "CODE": 4600090, "TYPELOCAL": 8, "NOM": "Nikine", "SERV_ECOLE": 0, "SERV_POSTE": 0, "SERV_DOUAN": 0, "SERV_GENDA": 0, "SERV_HOPIT": 0, "SERV_INFR_": 0, "SERV_MUSUL": 0, "SERV_CHRET": 0, "SERV_CHAT_": 0, "SERV_PT_EA": 0, "SERV_ANT_H": 0, "SERV_EOLIE": 0, "SERV_PUITS": 0, "THEME": "LA", "PAYS": "SN", "IDUU": "75dfab15-d2a9-4a76-80ba-58a7e9aa1d46" }, "geometry": { "type": "Point", "coordinates": [ -16.754163937871432, 12.537716992237641 ] } },
{ "type": "Feature", "properties": { "OBJECTID": 519, "CODE": 4600090, "TYPELOCAL": 8, "NOM": "Diogué", "SERV_ECOLE": 1, "SERV_POSTE": 0, "SERV_DOUAN": 0, "SERV_GENDA": 0, "SERV_HOPIT": 0, "SERV_INFR_": 1, "SERV_MUSUL": 1, "SERV_CHRET": 0, "SERV_CHAT_": 0, "SERV_PT_EA": 0, "SERV_ANT_H": 0, "SERV_EOLIE": 0, "SERV_PUITS": 0, "THEME": "LA", "PAYS": "SN", "IDUU": "e17ded9f-9e1e-4c06-a995-4a62317b4a2f" }, "geometry": { "type": "Point", "coordinates": [ -16.751618384574382, 12.597943460107224 ] } },
{ "type": "Feature", "properties": { "OBJECTID": 521, "CODE": 4600090, "TYPELOCAL": 8, "NOM": "Pointe St-Georges", "SERV_ECOLE": 0, "SERV_POSTE": 0, "SERV_DOUAN": 0, "SERV_GENDA": 0, "SERV_HOPIT": 0, "SERV_INFR_": 0, "SERV_MUSUL": 0, "SERV_CHRET": 0, "SERV_CHAT_": 0, "SERV_PT_EA": 0, "SERV_ANT_H": 0, "SERV_EOLIE": 0, "SERV_PUITS": 0, "THEME": "LA", "PAYS": "SN", "IDUU": "3211f866-0ccd-4256-9c80-a71ca1423840" }, "geometry": { "type": "Point", "coordinates": [ -16.559654251453534, 12.631703025633172 ] } },
{ "type": "Feature", "properties": { "OBJECTID": 539, "CODE": 4600090, "TYPELOCAL": 8, "NOM": "Bagaya", "SERV_ECOLE": 1, "SERV_POSTE": 0, "SERV_DOUAN": 0, "SERV_GENDA": 0, "SERV_HOPIT": 0, "SERV_INFR_": 1, "SERV_MUSUL": 1, "SERV_CHRET": 0, "SERV_CHAT_": 0, "SERV_PT_EA": 0, "SERV_ANT_H": 0, "SERV_EOLIE": 0, "SERV_PUITS": 0, "THEME": "LA", "PAYS": "SN", "IDUU": "0cac08b1-9e50-45b8-b42e-ec368c1b9db6" }, "geometry": { "type": "Point", "coordinates": [ -16.396669824967994, 12.729131615479341 ] } },
{ "type": "Feature", "properties": { "OBJECTID": 552, "CODE": 4600090, "TYPELOCAL": 8, "NOM": "Ndiéba", "SERV_ECOLE": 1, "SERV_POSTE": 0, "SERV_DOUAN": 0, "SERV_GENDA": 0, "SERV_HOPIT": 0, "SERV_INFR_": 0, "SERV_MUSUL": 1, "SERV_CHRET": 0, "SERV_CHAT_": 0, "SERV_PT_EA": 0, "SERV_ANT_H": 0, "SERV_EOLIE": 0, "SERV_PUITS": 0, "THEME": "LA", "PAYS": "SN", "IDUU": "1c7db44d-1f2b-492c-af3c-5b7aed4fd068" }, "geometry": { "type": "Point", "coordinates": [ -16.022361708706391, 12.842802749317222 ] } },
{ "type": "Feature", "properties": { "OBJECTID": 554, "CODE": 4600090, "TYPELOCAL": 8, "NOM": "Tiobon", "SERV_ECOLE": 1, "SERV_POSTE": 0, "SERV_DOUAN": 0, "SERV_GENDA": 0, "SERV_HOPIT": 0, "SERV_INFR_": 1, "SERV_MUSUL": 1, "SERV_CHRET": 1, "SERV_CHAT_": 0, "SERV_PT_EA": 0, "SERV_ANT_H": 0, "SERV_EOLIE": 0, "SERV_PUITS": 0, "THEME": "LA", "PAYS": "SN", "IDUU": "6141c44a-ea5e-4c4d-bac3-5db5a3e1ca0b" }, "geometry": { "type": "Point", "coordinates": [ -16.549119078929973, 12.856731109256708 ] } },
{ "type": "Feature", "properties": { "OBJECTID": 559, "CODE": 4600090, "TYPELOCAL": 8, "NOM": "Djilonguéya", "SERV_ECOLE": 0, "SERV_POSTE": 0, "SERV_DOUAN": 0, "SERV_GENDA": 0, "SERV_HOPIT": 0, "SERV_INFR_": 0, "SERV_MUSUL": 0, "SERV_CHRET": 0, "SERV_CHAT_": 0, "SERV_PT_EA": 0, "SERV_ANT_H": 0, "SERV_EOLIE": 0, "SERV_PUITS": 0, "THEME": "LA", "PAYS": "SN", "IDUU": "14a806c0-3ffc-4fc1-a8c8-6394c15589e6" }, "geometry": { "type": "Point", "coordinates": [ -15.983140188137392, 12.872428120198029 ] } },
{ "type": "Feature", "properties": { "OBJECTID": 569, "CODE": 4600090, "TYPELOCAL": 8, "NOM": "Badiana", "SERV_ECOLE": 1, "SERV_POSTE": 0, "SERV_DOUAN": 0, "SERV_GENDA": 0, "SERV_HOPIT": 0, "SERV_INFR_": 1, "SERV_MUSUL": 1, "SERV_CHRET": 0, "SERV_CHAT_": 0, "SERV_PT_EA": 0, "SERV_ANT_H": 0, "SERV_EOLIE": 0, "SERV_PUITS": 0, "THEME": "LA", "PAYS": "SN", "IDUU": "35eea5e7-700e-4db4-9bba-2e07aa31d327" }, "geometry": { "type": "Point", "coordinates": [ -16.435680249613537, 12.919365167170978 ] } },
{ "type": "Feature", "properties": { "OBJECTID": 574, "CODE": 4600090, "TYPELOCAL": 8, "NOM": "Silinkine", "SERV_ECOLE": 1, "SERV_POSTE": 0, "SERV_DOUAN": 0, "SERV_GENDA": 0, "SERV_HOPIT": 0, "SERV_INFR_": 1, "SERV_MUSUL": 1, "SERV_CHRET": 0, "SERV_CHAT_": 0, "SERV_PT_EA": 0, "SERV_ANT_H": 0, "SERV_EOLIE": 0, "SERV_PUITS": 0, "THEME": "LA", "PAYS": "SN", "IDUU": "2a69dc39-a425-4f5a-94d6-9ba8ee872257" }, "geometry": { "type": "Point", "coordinates": [ -16.000041586663219, 12.948909777540983 ] } },
{ "type": "Feature", "properties": { "OBJECTID": 582, "CODE": 4600090, "TYPELOCAL": 8, "NOM": "Balandine", "SERV_ECOLE": 1, "SERV_POSTE": 0, "SERV_DOUAN": 0, "SERV_GENDA": 0, "SERV_HOPIT": 0, "SERV_INFR_": 1, "SERV_MUSUL": 0, "SERV_CHRET": 1, "SERV_CHAT_": 0, "SERV_PT_EA": 0, "SERV_ANT_H": 0, "SERV_EOLIE": 0, "SERV_PUITS": 0, "THEME": "LA", "PAYS": "SN", "IDUU": "62a1ea79-77e6-4822-9f9d-172f8ab0f6d4" }, "geometry": { "type": "Point", "coordinates": [ -16.305119167483792, 13.010537720619611 ] } },
{ "type": "Feature", "properties": { "OBJECTID": 584, "CODE": 4600090, "TYPELOCAL": 8, "NOM": "Birkamanding 1", "SERV_ECOLE": 1, "SERV_POSTE": 0, "SERV_DOUAN": 0, "SERV_GENDA": 0, "SERV_HOPIT": 0, "SERV_INFR_": 1, "SERV_MUSUL": 0, "SERV_CHRET": 0, "SERV_CHAT_": 0, "SERV_PT_EA": 0, "SERV_ANT_H": 0, "SERV_EOLIE": 0, "SERV_PUITS": 0, "THEME": "LA", "PAYS": "SN", "IDUU": "66e4fe24-7448-4ff5-9086-04b95a1c6c97" }, "geometry": { "type": "Point", "coordinates": [ -16.444084637952173, 13.019926529977051 ] } },
{ "type": "Feature", "properties": { "OBJECTID": 587, "CODE": 4600050, "TYPELOCAL": 4, "NOM": "Kataba1 (Badjikounda)", "SERV_ECOLE": 1, "SERV_POSTE": 0, "SERV_DOUAN": 0, "SERV_GENDA": 0, "SERV_HOPIT": 0, "SERV_INFR_": 1, "SERV_MUSUL": 1, "SERV_CHRET": 0, "SERV_CHAT_": 0, "SERV_PT_EA": 0, "SERV_ANT_H": 0, "SERV_EOLIE": 0, "SERV_PUITS": 0, "THEME": "LA", "PAYS": "SN", "IDUU": "96652e3a-7b53-4bcf-b55c-6d3976b5dcfb" }, "geometry": { "type": "Point", "coordinates": [ -16.575084023138263, 13.025880363924511 ] } },
{ "type": "Feature", "properties": { "OBJECTID": 592, "CODE": 4600090, "TYPELOCAL": 8, "NOM": "Niafarang", "SERV_ECOLE": 0, "SERV_POSTE": 0, "SERV_DOUAN": 0, "SERV_GENDA": 0, "SERV_HOPIT": 0, "SERV_INFR_": 0, "SERV_MUSUL": 0, "SERV_CHRET": 0, "SERV_CHAT_": 0, "SERV_PT_EA": 0, "SERV_ANT_H": 0, "SERV_EOLIE": 0, "SERV_PUITS": 0, "THEME": "LA", "PAYS": "SN", "IDUU": "1bb70bb3-c054-43eb-9fe4-cee22366ecdd" }, "geometry": { "type": "Point", "coordinates": [ -16.728949716264033, 13.044405783654948 ] } },
{ "type": "Feature", "properties": { "OBJECTID": 606, "CODE": 4600090, "TYPELOCAL": 8, "NOM": "Diokadou", "SERV_ECOLE": 1, "SERV_POSTE": 0, "SERV_DOUAN": 0, "SERV_GENDA": 0, "SERV_HOPIT": 0, "SERV_INFR_": 1, "SERV_MUSUL": 0, "SERV_CHRET": 0, "SERV_CHAT_": 0, "SERV_PT_EA": 0, "SERV_ANT_H": 0, "SERV_EOLIE": 0, "SERV_PUITS": 0, "THEME": "LA", "PAYS": "SN", "IDUU": "ec32b610-f641-4e3c-a128-90d51d7e0047" }, "geometry": { "type": "Point", "coordinates": [ -16.113629568197918, 13.132463661515114 ] } },
{ "type": "Feature", "properties": { "OBJECTID": 607, "CODE": 4600090, "TYPELOCAL": 8, "NOM": "Diaboudior Tangal", "SERV_ECOLE": 0, "SERV_POSTE": 0, "SERV_DOUAN": 0, "SERV_GENDA": 0, "SERV_HOPIT": 0, "SERV_INFR_": 0, "SERV_MUSUL": 0, "SERV_CHRET": 0, "SERV_CHAT_": 0, "SERV_PT_EA": 0, "SERV_ANT_H": 0, "SERV_EOLIE": 0, "SERV_PUITS": 0, "THEME": "LA", "PAYS": "SN", "IDUU": "e26a7b80-d6a1-4eaa-9ad3-2ad3cc5aa319" }, "geometry": { "type": "Point", "coordinates": [ -16.184915428487578, 13.133655046107783 ] } },
{ "type": "Feature", "properties": { "OBJECTID": 609, "CODE": 4600090, "TYPELOCAL": 8, "NOM": "Dombondir", "SERV_ECOLE": 1, "SERV_POSTE": 0, "SERV_DOUAN": 0, "SERV_GENDA": 0, "SERV_HOPIT": 0, "SERV_INFR_": 1, "SERV_MUSUL": 1, "SERV_CHRET": 0, "SERV_CHAT_": 0, "SERV_PT_EA": 0, "SERV_ANT_H": 0, "SERV_EOLIE": 0, "SERV_PUITS": 0, "THEME": "LA", "PAYS": "SN", "IDUU": "b0c6a7f3-2734-4bc8-b944-ae38a6c49dfa" }, "geometry": { "type": "Point", "coordinates": [ -16.6930138148232, 13.136471417318717 ] } },
{ "type": "Feature", "properties": { "OBJECTID": 610, "CODE": 4600090, "TYPELOCAL": 8, "NOM": "Kandiadiou", "SERV_ECOLE": 1, "SERV_POSTE": 0, "SERV_DOUAN": 1, "SERV_GENDA": 0, "SERV_HOPIT": 0, "SERV_INFR_": 0, "SERV_MUSUL": 0, "SERV_CHRET": 0, "SERV_CHAT_": 0, "SERV_PT_EA": 0, "SERV_ANT_H": 0, "SERV_EOLIE": 0, "SERV_PUITS": 0, "THEME": "LA", "PAYS": "SN", "IDUU": "a8dd5167-ec91-4446-8bde-1630c192366d" }, "geometry": { "type": "Point", "coordinates": [ -16.036102331737531, 13.141232126190419 ] } },
{ "type": "Feature", "properties": { "OBJECTID": 612, "CODE": 4600090, "TYPELOCAL": 8, "NOM": "Tambacounda", "SERV_ECOLE": 1, "SERV_POSTE": 0, "SERV_DOUAN": 0, "SERV_GENDA": 0, "SERV_HOPIT": 0, "SERV_INFR_": 0, "SERV_MUSUL": 0, "SERV_CHRET": 0, "SERV_CHAT_": 0, "SERV_PT_EA": 0, "SERV_ANT_H": 0, "SERV_EOLIE": 0, "SERV_PUITS": 0, "THEME": "LA", "PAYS": "SN", "IDUU": "c7d05f2a-78fa-4a6e-8a53-bb1cd7658257" }, "geometry": { "type": "Point", "coordinates": [ -16.529376588828921, 13.141483193588536 ] } },
{ "type": "Feature", "properties": { "OBJECTID": 947, "CODE": 4600110, "TYPELOCAL": 10, "NOM": "Djiromaït", "SERV_ECOLE": 1, "SERV_POSTE": 0, "SERV_DOUAN": 0, "SERV_GENDA": 0, "SERV_HOPIT": 0, "SERV_INFR_": 0, "SERV_MUSUL": 0, "SERV_CHRET": 0, "SERV_CHAT_": 0, "SERV_PT_EA": 0, "SERV_ANT_H": 0, "SERV_EOLIE": 0, "SERV_PUITS": 0, "THEME": "LA", "PAYS": "SN", "IDUU": "0ac06293-1bd0-44d1-a5d1-2bffd0dd86ef" }, "geometry": { "type": "Point", "coordinates": [ -16.533825352808293, 12.552842823209843 ] } },
{ "type": "Feature", "properties": { "OBJECTID": 948, "CODE": 4600110, "TYPELOCAL": 10, "NOM": "Karabane", "SERV_ECOLE": 1, "SERV_POSTE": 0, "SERV_DOUAN": 0, "SERV_GENDA": 0, "SERV_HOPIT": 0, "SERV_INFR_": 1, "SERV_MUSUL": 0, "SERV_CHRET": 0, "SERV_CHAT_": 0, "SERV_PT_EA": 0, "SERV_ANT_H": 0, "SERV_EOLIE": 0, "SERV_PUITS": 0, "THEME": "LA", "PAYS": "SN", "IDUU": "cf01f26e-5f51-4563-96be-e3c22d5ab928" }, "geometry": { "type": "Point", "coordinates": [ -16.702964451121133, 12.557942204105665 ] } },
{ "type": "Feature", "properties": { "OBJECTID": 1071, "CODE": 4600030, "TYPELOCAL": 2, "NOM": "Ziguinchor", "SERV_ECOLE": 1, "SERV_POSTE": 1, "SERV_DOUAN": 1, "SERV_GENDA": 1, "SERV_HOPIT": 1, "SERV_INFR_": 1, "SERV_MUSUL": 1, "SERV_CHRET": 1, "SERV_CHAT_": 1, "SERV_PT_EA": 0, "SERV_ANT_H": 1, "SERV_EOLIE": 0, "SERV_PUITS": 0, "THEME": "LA", "PAYS": "SN", "IDUU": "85ca77b1-9ba5-428e-a957-8be5932c5738" }, "geometry": { "type": "Point", "coordinates": [ -16.26364916174138, 12.581401558250446 ] } },
{ "type": "Feature", "properties": { "OBJECTID": 1076, "CODE": 4600060, "TYPELOCAL": 6, "NOM": "Santiaba Mandjak", "SERV_ECOLE": 1, "SERV_POSTE": 0, "SERV_DOUAN": 0, "SERV_GENDA": 0, "SERV_HOPIT": 0, "SERV_INFR_": 0, "SERV_MUSUL": 0, "SERV_CHRET": 0, "SERV_CHAT_": 0, "SERV_PT_EA": 0, "SERV_ANT_H": 0, "SERV_EOLIE": 0, "SERV_PUITS": 0, "THEME": "LA", "PAYS": "SN", "IDUU": "0f1c6be7-38b3-4dcb-bcc4-4ce9010ab9f7" }, "geometry": { "type": "Point", "coordinates": [ -16.558654015901205, 12.374412300736829 ] } },
{ "type": "Feature", "properties": { "OBJECTID": 1077, "CODE": 4600060, "TYPELOCAL": 6, "NOM": "Oukout", "SERV_ECOLE": 1, "SERV_POSTE": 0, "SERV_DOUAN": 0, "SERV_GENDA": 0, "SERV_HOPIT": 0, "SERV_INFR_": 1, "SERV_MUSUL": 0, "SERV_CHRET": 0, "SERV_CHAT_": 1, "SERV_PT_EA": 0, "SERV_ANT_H": 0, "SERV_EOLIE": 0, "SERV_PUITS": 0, "THEME": "LA", "PAYS": "SN", "IDUU": "ecd2f27e-931b-46a8-bbba-561d9a907dc6" }, "geometry": { "type": "Point", "coordinates": [ -16.555489950419826, 12.477957224376905 ] } },
{ "type": "Feature", "properties": { "OBJECTID": 1078, "CODE": 4600060, "TYPELOCAL": 6, "NOM": "Enampor", "SERV_ECOLE": 1, "SERV_POSTE": 0, "SERV_DOUAN": 0, "SERV_GENDA": 0, "SERV_HOPIT": 0, "SERV_INFR_": 1, "SERV_MUSUL": 1, "SERV_CHRET": 1, "SERV_CHAT_": 0, "SERV_PT_EA": 0, "SERV_ANT_H": 1, "SERV_EOLIE": 0, "SERV_PUITS": 0, "THEME": "LA", "PAYS": "SN", "IDUU": "02d28efb-0e81-4663-8970-1e5a1821c7a6" }, "geometry": { "type": "Point", "coordinates": [ -16.447362886322139, 12.515733202459245 ] } },
{ "type": "Feature", "properties": { "OBJECTID": 1081, "CODE": 4600060, "TYPELOCAL": 6, "NOM": "Oulampane", "SERV_ECOLE": 0, "SERV_POSTE": 0, "SERV_DOUAN": 0, "SERV_GENDA": 0, "SERV_HOPIT": 0, "SERV_INFR_": 0, "SERV_MUSUL": 0, "SERV_CHRET": 0, "SERV_CHAT_": 0, "SERV_PT_EA": 0, "SERV_ANT_H": 0, "SERV_EOLIE": 0, "SERV_PUITS": 0, "THEME": "LA", "PAYS": "SN", "IDUU": "63b599c5-51c1-453e-a3da-b75da6601b79" }, "geometry": { "type": "Point", "coordinates": [ -15.994124009137801, 12.960695424817294 ] } }
]
}
