{
"type": "FeatureCollection",
"name": "Route",
"crs": { "type": "name", "properties": { "name": "urn:ogc:def:crs:OGC:1.3:CRS84" } },
"features": [
{ "type": "Feature", "properties": { "Code": "N4", "Parcours": "CF N3 (Diourbel) - Gossas - Kaolack - Nioro du Rip - Keur Ayib (frontière Gambie) - Sénoba (frontière Gambie) -  Bignona -  Zinguinchor (CF N6) - Mpack (Frontière Guinée Bissau)", "X_deb": 423790.03947100003, "Y_deb": 1441392.11457, "X_fin": 367476.44153200003, "Y_fin": 1620756.3982299999, "Lineaire": 310.22554944799998 }, "geometry": { "type": "MultiLineString", "coordinates": [ [ [ -16.051656299999966, 12.890008500000034 ], [ -16.058963899999959, 12.886738 ], [ -16.059775099999975, 12.886374900000012 ], [ -16.067174599999962, 12.8831075 ], [ -16.072184099999983, 12.880859800000028 ], [ -16.072736599999967, 12.880595699999988 ], [ -16.073246799999975, 12.8803321 ], [ -16.07372369999997, 12.880059600000012 ], [ -16.074628099999973, 12.879538300000023 ], [ -16.075107099999958, 12.87920460000001 ], [ -16.075527699999974, 12.8788788 ], [ -16.075929, 12.878563 ], [ -16.076374699999977, 12.8781143 ], [ -16.076777599999971, 12.87770430000001 ], [ -16.077290499999975, 12.877158300000019 ], [ -16.07768529999996, 12.876720099999989 ], [ -16.07813, 12.876132800000027 ], [ -16.078445399999964, 12.875682 ], [ -16.078763, 12.8751852 ], [ -16.079036, 12.8746754 ], [ -16.079320899999964, 12.87411740000001 ], [ -16.079620199999983, 12.8734741 ], [ -16.079836399999973, 12.872959 ], [ -16.081618, 12.8676977 ], [ -16.082006399999969, 12.866537800000025 ], [ -16.082544399999971, 12.8652381 ], [ -16.082960699999965, 12.864433200000043 ], [ -16.083505099999979, 12.8635259 ], [ -16.084143, 12.862673900000011 ], [ -16.084688, 12.8620275 ], [ -16.085381599999973, 12.8613555 ], [ -16.086146599999967, 12.860678800000017 ], [ -16.087037099999975, 12.860050700000015 ], [ -16.087818199999962, 12.859552900000036 ], [ -16.088453299999973, 12.85913120000003 ], [ -16.08915229999997, 12.858785 ], [ -16.08998, 12.8584393 ], [ -16.091274399999968, 12.8580335 ], [ -16.092197099999971, 12.857799699999982 ], [ -16.093051799999969, 12.8576722 ], [ -16.094822, 12.857583300000018 ], [ -16.097054699999962, 12.857554 ], [ -16.10233329999998, 12.8575143 ], [ -16.108775899999962, 12.8573448 ], [ -16.117907299999981, 12.85697980000001 ], [ -16.124058099999967, 12.8567936 ], [ -16.125424899999953, 12.856679600000016 ], [ -16.12661909999996, 12.856497600000013 ], [ -16.128202599999963, 12.8560949 ], [ -16.129771199999954, 12.855434800000024 ], [ -16.130918099999963, 12.8547999 ], [ -16.132205599999971, 12.853930700000017 ], [ -16.133777299999959, 12.852780100000027 ], [ -16.137512099999952, 12.8502268 ], [ -16.139699699999976, 12.848635800000018 ], [ -16.14036949999997, 12.8481419 ], [ -16.143582, 12.845862200000013 ], [ -16.146056499999965, 12.8441316 ], [ -16.148767399999969, 12.8421986 ], [ -16.149496099999954, 12.8416772 ], [ -16.150652299999969, 12.8408693 ], [ -16.153222399999965, 12.8390441 ], [ -16.155018499999976, 12.8377857 ], [ -16.156475699999962, 12.8367582 ], [ -16.158569699999969, 12.8352761 ], [ -16.159941199999974, 12.834301100000031 ], [ -16.163536299999954, 12.8317489 ], [ -16.167005199999963, 12.829297900000023 ], [ -16.169052899999954, 12.8278367 ], [ -16.169462399999965, 12.8276124 ], [ -16.169925, 12.827303799999983 ], [ -16.17037829999996, 12.8269795 ], [ -16.17078, 12.826672200000026 ], [ -16.172092299999971, 12.825739900000023 ], [ -16.172874099999973, 12.825197 ], [ -16.173432, 12.824802899999986 ], [ -16.173989, 12.824399800000014 ] ], [ [ -16.003147699999971, 12.957269 ], [ -16.004073599999984, 12.9566021 ], [ -16.004563599999983, 12.956203599999986 ], [ -16.005121199999969, 12.955675 ], [ -16.005863699999978, 12.9548717 ], [ -16.00639529999998, 12.954211100000018 ], [ -16.006910599999983, 12.9534717 ], [ -16.007387099999978, 12.952686300000021 ], [ -16.007850199999968, 12.951846 ], [ -16.008157099999973, 12.951099900000026 ], [ -16.008533299999982, 12.9501014 ], [ -16.008762299999972, 12.9493193 ], [ -16.008921, 12.9484305 ], [ -16.0090712, 12.947097400000013 ], [ -16.009428299999968, 12.928430900000027 ], [ -16.009639799999967, 12.918922799999979 ], [ -16.00970689999998, 12.91666810000004 ], [ -16.009830399999981, 12.9156422 ], [ -16.009989499999982, 12.9145215 ], [ -16.010108299999974, 12.9139669 ], [ -16.010254199999959, 12.913295600000025 ], [ -16.010411899999983, 12.9128814 ], [ -16.010626499999972, 12.9123251 ], [ -16.010899, 12.911757300000021 ], [ -16.011300299999967, 12.911012700000022 ], [ -16.01176869999998, 12.910260500000012 ], [ -16.012287299999972, 12.909527700000019 ], [ -16.012922, 12.9088393 ], [ -16.013542599999969, 12.908128500000034 ], [ -16.014311699999968, 12.907381400000018 ], [ -16.014922299999977, 12.9068903 ], [ -16.015854499999978, 12.906233500000019 ], [ -16.016650699999968, 12.905782800000013 ], [ -16.017803099999966, 12.9051919 ], [ -16.043411199999973, 12.8937024 ], [ -16.045706599999978, 12.8926761 ], [ -16.047551699999978, 12.891846 ], [ -16.049080099999976, 12.8911495 ], [ -16.04930119999997, 12.8910546 ], [ -16.051501299999977, 12.8900783 ] ], [ [ -16.211568899999964, 12.8040797 ], [ -16.212568199999954, 12.8036543 ], [ -16.213315099999964, 12.8033311 ], [ -16.214038399999961, 12.803018100000022 ], [ -16.215733799999963, 12.802292 ], [ -16.216504599999954, 12.801951800000019 ], [ -16.216824299999953, 12.801813200000012 ], [ -16.217159299999963, 12.8016735 ], [ -16.217555699999963, 12.8015002 ], [ -16.217992799999955, 12.801308400000023 ], [ -16.218053599999955, 12.801281700000017 ], [ -16.218348, 12.801153500000035 ], [ -16.218689299999962, 12.801009700000032 ], [ -16.218939299999967, 12.800901600000017 ], [ -16.219308699999964, 12.800742700000024 ], [ -16.219697499999963, 12.800567800000024 ], [ -16.220086799999955, 12.8004074 ], [ -16.220387499999951, 12.800278300000027 ], [ -16.220722799999951, 12.800135 ], [ -16.220825299999955, 12.800092200000037 ], [ -16.221411899999953, 12.799841 ], [ -16.221467499999946, 12.7998154 ], [ -16.221560799999949, 12.799778500000016 ], [ -16.222086, 12.7995523 ], [ -16.222115299999963, 12.799539700000011 ], [ -16.222740699999953, 12.7992684 ], [ -16.222864, 12.799212900000011 ], [ -16.223528499999954, 12.79892 ], [ -16.224158499999959, 12.7986518 ], [ -16.224259899999968, 12.798608700000035 ], [ -16.224929899999964, 12.7983178 ], [ -16.225295199999973, 12.798164100000015 ], [ -16.225658399999944, 12.7980069 ], [ -16.225999299999959, 12.7978554 ], [ -16.226290699999968, 12.79773140000002 ], [ -16.226943099999957, 12.7974629 ], [ -16.22731879999996, 12.797288 ], [ -16.22797029999996, 12.797005 ], [ -16.228554799999952, 12.7967527 ], [ -16.228965, 12.7965773 ], [ -16.229561, 12.796323600000019 ], [ -16.229634799999957, 12.796292200000023 ], [ -16.229967599999945, 12.796150700000013 ], [ -16.230311599999961, 12.7960306 ], [ -16.230435599999961, 12.795977200000015 ], [ -16.230953199999973, 12.7957541 ], [ -16.231568099999965, 12.795489300000035 ], [ -16.231728499999946, 12.7954198 ], [ -16.232108799999963, 12.795254900000016 ], [ -16.232215, 12.7952088 ], [ -16.232687399999957, 12.795008600000015 ], [ -16.233438299999953, 12.794677500000015 ], [ -16.234086199999954, 12.794402200000036 ], [ -16.234164099999955, 12.7943667 ], [ -16.23470169999996, 12.7941413 ], [ -16.235144399999939, 12.7939516 ], [ -16.23548549999996, 12.793794400000035 ], [ -16.235724399999956, 12.793692700000012 ], [ -16.236313799999966, 12.7934416 ], [ -16.236544399999968, 12.7933358 ], [ -16.236887799999941, 12.793175599999989 ], [ -16.237164899999957, 12.793042100000019 ], [ -16.238022299999958, 12.7925992 ], [ -16.238166499999959, 12.7925543 ], [ -16.23842439999995, 12.792411100000011 ], [ -16.238630499999953, 12.7922875 ], [ -16.238854499999945, 12.7921325 ], [ -16.239195799999965, 12.7918592 ], [ -16.239235499999964, 12.79176330000003 ], [ -16.239411899999954, 12.7916158 ], [ -16.239736299999951, 12.7913116 ], [ -16.240157199999949, 12.790933099999974 ], [ -16.240591899999963, 12.790505900000024 ], [ -16.240726199999965, 12.790352800000019 ], [ -16.240836599999977, 12.790237700000011 ], [ -16.241079499999955, 12.789978200000011 ], [ -16.241481699999955, 12.7894823 ], [ -16.241826699999962, 12.7890247 ], [ -16.241941, 12.7888422 ], [ -16.242367, 12.78816260000001 ], [ -16.242477699999956, 12.787956800000023 ], [ -16.242538099999955, 12.78786220000001 ], [ -16.242612899999958, 12.787675400000012 ], [ -16.242701899999943, 12.7874669 ], [ -16.242742199999956, 12.787375600000036 ], [ -16.242872299999959, 12.7870802 ], [ -16.243031299999942, 12.7866121 ], [ -16.243140299999943, 12.786196900000025 ], [ -16.243236499999963, 12.78583 ], [ -16.243269499999965, 12.78568030000001 ], [ -16.243311699999953, 12.78548830000001 ], [ -16.243372, 12.785106800000026 ], [ -16.243429399999954, 12.784453 ], [ -16.243486699999949, 12.7835564 ], [ -16.243481199999962, 12.783251400000013 ], [ -16.243475199999963, 12.782612700000035 ], [ -16.24343719999996, 12.781982 ], [ -16.243364899999943, 12.7813838 ], [ -16.243293299999962, 12.780940400000013 ], [ -16.243281699999965, 12.780877200000031 ], [ -16.243239699999961, 12.7806489 ], [ -16.243149, 12.78023 ], [ -16.243047399999959, 12.779843900000035 ], [ -16.242961599999948, 12.7794751 ], [ -16.242854399999956, 12.7790596 ], [ -16.242704099999958, 12.7785387 ], [ -16.242486799999959, 12.7777435 ], [ -16.242237399999958, 12.776807 ], [ -16.241880699999957, 12.7755645 ], [ -16.241647299999961, 12.7747876 ], [ -16.241427399999957, 12.773968900000021 ], [ -16.241191299999958, 12.773066400000015 ], [ -16.241022399999949, 12.7724779 ], [ -16.240571699999943, 12.770950200000012 ], [ -16.240335699999957, 12.7701498 ], [ -16.238366899999956, 12.763215 ], [ -16.237637299999946, 12.760742100000032 ], [ -16.237460799999962, 12.7601104 ], [ -16.237359699999963, 12.7596369 ], [ -16.237115399999951, 12.758494800000017 ], [ -16.236423399999953, 12.75364260000001 ], [ -16.235755, 12.7490844 ], [ -16.234850599999966, 12.742937600000026 ], [ -16.234383, 12.7397246 ], [ -16.234095299999968, 12.737890500000024 ], [ -16.232984799999958, 12.7302239 ], [ -16.232192, 12.7251168 ], [ -16.231578299999963, 12.721142100000018 ], [ -16.230684599999954, 12.714903500000018 ], [ -16.229837, 12.709109600000025 ], [ -16.228777, 12.7019131 ], [ -16.228041, 12.696625500000014 ], [ -16.226869399999956, 12.688191500000016 ], [ -16.225523199999962, 12.678227900000012 ], [ -16.225533599999949, 12.677823300000021 ], [ -16.225567399999949, 12.677519700000015 ], [ -16.225637399999957, 12.677196500000024 ], [ -16.225708699999966, 12.67697250000001 ], [ -16.225795599999948, 12.6767043 ], [ -16.225971599999959, 12.676265500000012 ], [ -16.226111899999957, 12.675976 ], [ -16.226308799999948, 12.675656800000022 ], [ -16.226468599999968, 12.6754317 ], [ -16.226635699999967, 12.675238600000029 ], [ -16.226902099999968, 12.674961 ], [ -16.227148299999957, 12.6747249 ], [ -16.227740499999967, 12.674198700000037 ], [ -16.228162399999945, 12.673832800000039 ], [ -16.228575199999966, 12.673522 ], [ -16.228743399999953, 12.673412800000012 ], [ -16.229187799999959, 12.673192500000024 ], [ -16.229515299999953, 12.6730549 ], [ -16.229871799999955, 12.6729423 ], [ -16.230236599999959, 12.672863 ], [ -16.23058849999995, 12.672814600000018 ], [ -16.232786299999955, 12.6724914 ], [ -16.235189, 12.672166699999984 ], [ -16.237647299999956, 12.671805300000015 ], [ -16.243722299999956, 12.670857800000027 ], [ -16.250588099999955, 12.669873500000016 ], [ -16.25554969999995, 12.669111800000016 ], [ -16.258736399999954, 12.6686836 ], [ -16.259168499999952, 12.668602200000036 ], [ -16.259554499999947, 12.6685028 ], [ -16.259929199999952, 12.668345499999981 ], [ -16.260194199999962, 12.6682055 ], [ -16.260460499999951, 12.66803280000004 ], [ -16.26068049999995, 12.66786530000002 ], [ -16.260914099999962, 12.6676558 ], [ -16.261137199999958, 12.667422300000014 ], [ -16.261286899999963, 12.6672192 ], [ -16.261404, 12.667045400000015 ], [ -16.261552499999947, 12.6667984 ], [ -16.261692499999949, 12.666534300000011 ], [ -16.261815799999951, 12.6662308 ], [ -16.261897599999948, 12.665933200000016 ], [ -16.26196239999997, 12.665570600000015 ], [ -16.261995799999966, 12.6652314 ], [ -16.262185499999948, 12.66283120000001 ], [ -16.262329299999955, 12.661728900000021 ], [ -16.262588399999945, 12.6599776 ], [ -16.262888199999953, 12.657893900000026 ], [ -16.263262899999955, 12.655451800000028 ], [ -16.263504499999961, 12.654515100000024 ], [ -16.263757199999958, 12.653846200000039 ], [ -16.264091399999948, 12.653069 ], [ -16.264371399999948, 12.652411 ], [ -16.264718, 12.6515087 ], [ -16.265015699999957, 12.6507256 ], [ -16.265539299999947, 12.648959100000015 ], [ -16.265808, 12.647979199999986 ], [ -16.265990399999954, 12.6472611 ], [ -16.266164199999956, 12.646776900000022 ], [ -16.266216499999953, 12.6466606 ], [ -16.266323299999957, 12.646485 ], [ -16.266427299999943, 12.646350600000021 ], [ -16.266592299999953, 12.646166100000016 ], [ -16.266707699999952, 12.646049500000023 ], [ -16.266938799999949, 12.645863 ], [ -16.267355599999949, 12.645583500000017 ], [ -16.267848099999938, 12.6452286 ], [ -16.268402799999958, 12.644812500000018 ], [ -16.269119499999935, 12.6442582 ], [ -16.269562599999958, 12.643942600000026 ], [ -16.269917499999941, 12.643725 ], [ -16.270657699999955, 12.643306600000018 ], [ -16.271033299999953, 12.643094300000016 ], [ -16.271185899999942, 12.642996 ], [ -16.27131609999995, 12.642894299999988 ], [ -16.271426899999955, 12.6427937 ], [ -16.271523299999952, 12.64269140000002 ], [ -16.27161189999994, 12.6425696 ], [ -16.271885899999955, 12.642171200000023 ], [ -16.272312399999961, 12.641477200000036 ], [ -16.272645, 12.640935399999979 ], [ -16.273110099999961, 12.640202600000025 ], [ -16.273668, 12.639315900000017 ], [ -16.274008099999957, 12.638824 ], [ -16.274192399999961, 12.638574900000012 ], [ -16.274414099999937, 12.638300400000018 ], [ -16.275532599999945, 12.636875100000013 ], [ -16.276178, 12.636058 ], [ -16.276755699999946, 12.6352943 ], [ -16.277979299999942, 12.6337543 ], [ -16.278642899999952, 12.632914100000026 ], [ -16.279348299999945, 12.632016900000012 ], [ -16.280104699999956, 12.6310532 ], [ -16.280439199999954, 12.630618600000025 ], [ -16.280534099999944, 12.63046260000001 ], [ -16.28062, 12.630292699999979 ], [ -16.280676199999949, 12.6301356 ], [ -16.280735599999954, 12.629926300000015 ], [ -16.280776899999953, 12.629754900000037 ], [ -16.280795399999942, 12.6295596 ], [ -16.280787099999948, 12.6293242 ], [ -16.28076, 12.629067 ], [ -16.280727, 12.628753700000017 ], [ -16.280655099999933, 12.628103 ], [ -16.280553199999943, 12.6271293 ], [ -16.28041, 12.625873 ], [ -16.280262399999959, 12.624260200000016 ], [ -16.280104199999954, 12.622845800000038 ], [ -16.279909499999956, 12.6209293 ], [ -16.279824699999956, 12.6194683 ], [ -16.279711499999955, 12.618147 ], [ -16.279572, 12.617299 ], [ -16.279387, 12.616428400000034 ], [ -16.279208899999951, 12.6157285 ], [ -16.278830099999944, 12.6144166 ], [ -16.277990599999956, 12.611852 ], [ -16.277286799999953, 12.609906700000034 ], [ -16.276643099999951, 12.6080582 ], [ -16.275251499999957, 12.6042209 ], [ -16.273790299999948, 12.6002741 ], [ -16.273677899999942, 12.5999483 ], [ -16.273615199999949, 12.5998156 ], [ -16.27356359999995, 12.5997168 ], [ -16.273492699999959, 12.599589300000019 ], [ -16.273432899999946, 12.599497 ], [ -16.273375699999946, 12.599409899999985 ], [ -16.273312799999953, 12.5993294 ], [ -16.273258499999958, 12.59926 ], [ -16.273185599999945, 12.5991861 ], [ -16.273062099999944, 12.5990691 ], [ -16.272975699999954, 12.598992600000017 ], [ -16.272855499999942, 12.5988935 ], [ -16.272750699999964, 12.598823300000024 ], [ -16.272619499999951, 12.5987383 ], [ -16.272445399999949, 12.598644700000015 ], [ -16.271166399999938, 12.5980186 ], [ -16.270133699999935, 12.5975226 ], [ -16.269411799999951, 12.597175500000013 ], [ -16.267616699999952, 12.5962878 ], [ -16.266077799999955, 12.5955403 ], [ -16.264813499999956, 12.594921900000013 ], [ -16.263553899999952, 12.594306400000017 ], [ -16.263383299999962, 12.5941936 ], [ -16.263249599999952, 12.594088600000038 ], [ -16.263051199999946, 12.5938985 ], [ -16.26291559999995, 12.593715400000018 ], [ -16.262847499999946, 12.593596700000012 ], [ -16.262776099999954, 12.593437 ], [ -16.262719699999952, 12.5932677 ], [ -16.262687199999956, 12.59313870000001 ], [ -16.26266779999996, 12.593039800000019 ], [ -16.262657199999953, 12.592943100000015 ], [ -16.262649899999946, 12.5927565 ], [ -16.262646899999961, 12.59245710000002 ], [ -16.262645899999963, 12.591746400000014 ], [ -16.262600699999954, 12.5900936 ], [ -16.262600699999961, 12.5891277 ], [ -16.262632899999954, 12.587434 ], [ -16.262657299999955, 12.586544 ], [ -16.262658499999947, 12.5861768 ], [ -16.262668, 12.586002400000021 ], [ -16.262694899999946, 12.585771 ], [ -16.262736299999947, 12.585605200000014 ], [ -16.262815199999945, 12.5853597 ], [ -16.263308899999956, 12.584037800000019 ], [ -16.263557799999951, 12.58332680000002 ], [ -16.263988299999955, 12.582167700000035 ], [ -16.264027399999943, 12.582054800000037 ], [ -16.264077899999965, 12.5819465 ], [ -16.264108099999962, 12.5818885 ], [ -16.264164, 12.581782100000011 ], [ -16.264177599999943, 12.581773399999978 ], [ -16.264190199999948, 12.581763300000025 ], [ -16.264219799999946, 12.581726600000044 ], [ -16.264236, 12.581682500000015 ], [ -16.264237099999946, 12.5816358 ], [ -16.264222899999947, 12.5815911 ], [ -16.264218, 12.581582399999983 ], [ -16.264190099999958, 12.5815487 ], [ -16.264215399999959, 12.5814482 ], [ -16.264236199999953, 12.581379 ], [ -16.264316599999958, 12.581131800000039 ], [ -16.264640499999949, 12.58041830000001 ], [ -16.26478339999996, 12.5801134 ], [ -16.264892, 12.579925500000034 ], [ -16.265018699999949, 12.5797364 ], [ -16.265156899999958, 12.579581300000019 ], [ -16.265295699999957, 12.5794465 ], [ -16.265475399999943, 12.5792816 ], [ -16.265762399999939, 12.5790466 ], [ -16.266053399999954, 12.578794600000036 ], [ -16.266760199999961, 12.578188 ], [ -16.267293199999951, 12.5777495 ], [ -16.267840399999944, 12.57729 ], [ -16.268529099999945, 12.5767023 ], [ -16.26922109999995, 12.576105500000015 ], [ -16.269901, 12.5755087 ], [ -16.270519899999947, 12.5750112 ], [ -16.270865199999953, 12.5747109 ], [ -16.271066699999942, 12.574504 ], [ -16.271223399999947, 12.574308900000013 ], [ -16.271304199999946, 12.5741793 ], [ -16.271415299999948, 12.573972100000011 ], [ -16.271491599999948, 12.5738135 ], [ -16.271580799999953, 12.573530400000013 ], [ -16.271640399999942, 12.573284400000036 ], [ -16.271682299999959, 12.5730384 ], [ -16.271704899999943, 12.572753500000022 ], [ -16.271702799999947, 12.5725012 ], [ -16.271661699999957, 12.572192200000035 ], [ -16.271597699999958, 12.5719557 ], [ -16.271556299999958, 12.5718315 ], [ -16.271543599999951, 12.5718022 ], [ -16.271423, 12.571511 ], [ -16.271320099999958, 12.571277300000011 ], [ -16.271107, 12.570808 ], [ -16.270898799999955, 12.5703426 ], [ -16.270727, 12.5699784 ], [ -16.270547499999942, 12.569624900000017 ], [ -16.27039909999996, 12.569382099999988 ], [ -16.270155199999959, 12.569026700000036 ], [ -16.269895299999945, 12.568637 ], [ -16.269533599999946, 12.5680962 ], [ -16.269208099999954, 12.567589700000017 ], [ -16.26906519999995, 12.5673972 ], [ -16.26886669999995, 12.567099400000023 ], [ -16.268648899999935, 12.5667848 ], [ -16.268518399999955, 12.5665999 ], [ -16.267985599999943, 12.565781 ], [ -16.267929299999938, 12.565659500000031 ], [ -16.267669, 12.5651026 ], [ -16.267400699999957, 12.5645407 ], [ -16.267203799999951, 12.5640947 ], [ -16.267118499999945, 12.563901 ], [ -16.266986699999936, 12.5636208 ], [ -16.266891399999945, 12.5634147 ], [ -16.266787899999958, 12.5631974 ], [ -16.266693399999955, 12.5629814 ], [ -16.266551299999946, 12.562668900000041 ], [ -16.266278499999949, 12.562017500000023 ], [ -16.26613409999997, 12.561569600000025 ], [ -16.266107099999946, 12.5614488 ], [ -16.266086699999963, 12.5612996 ], [ -16.266076299999959, 12.5611943 ], [ -16.266068, 12.5610732 ], [ -16.266061499999946, 12.560664800000039 ], [ -16.266062499999958, 12.560604400000022 ], [ -16.266224, 12.559612200000011 ], [ -16.266279899999951, 12.559191600000025 ], [ -16.266339199999951, 12.5587802 ], [ -16.266441099999952, 12.558010400000011 ], [ -16.266459, 12.5578611 ], [ -16.266509299999953, 12.557434 ], [ -16.266530199999949, 12.557113500000037 ], [ -16.266531699999955, 12.5567921 ], [ -16.26651879999994, 12.55590450000004 ], [ -16.266503299999943, 12.554801800000019 ], [ -16.266499599999968, 12.554462700000013 ], [ -16.266491299999956, 12.554206200000012 ], [ -16.266480499999957, 12.5535684 ], [ -16.266462399999963, 12.552763500000019 ], [ -16.266462099999956, 12.552574 ], [ -16.266447, 12.5508787 ], [ -16.266424299999947, 12.549143900000017 ], [ -16.266398599999953, 12.548033 ], [ -16.266397199999947, 12.5472453 ], [ -16.266390099999953, 12.547048900000018 ], [ -16.266373299999959, 12.5465831 ], [ -16.266384699999957, 12.5461436 ], [ -16.266410799999942, 12.5458524 ], [ -16.266426899999967, 12.5457149 ], [ -16.266450499999955, 12.545576 ], [ -16.266479799999939, 12.5454354 ], [ -16.266605899999949, 12.544968400000041 ], [ -16.266773899999958, 12.544539900000023 ], [ -16.266947199999958, 12.54417940000001 ], [ -16.267147499999954, 12.5438386 ], [ -16.26723829999996, 12.543707500000039 ], [ -16.267302599999944, 12.5436145 ], [ -16.267452799999958, 12.5434202 ], [ -16.267481299999961, 12.543384799999979 ], [ -16.267586599999937, 12.543254 ], [ -16.267769299999959, 12.543065700000023 ], [ -16.26795339999995, 12.5428987 ], [ -16.268155, 12.5427158 ], [ -16.269377899999952, 12.5415583 ], [ -16.269909699999946, 12.541038200000017 ], [ -16.270281399999934, 12.54067990000001 ], [ -16.271055, 12.5399569 ], [ -16.271303099999948, 12.539714700000014 ], [ -16.272777, 12.5383139 ], [ -16.273659499999955, 12.537483900000014 ], [ -16.274502699999957, 12.536667300000021 ], [ -16.275054099999952, 12.5361445 ], [ -16.276096099999954, 12.535153600000021 ], [ -16.276525399999944, 12.534749200000014 ], [ -16.277614399999951, 12.533722800000019 ], [ -16.278555499999957, 12.5328299 ], [ -16.278692599999946, 12.532693800000025 ], [ -16.278887, 12.532493500000021 ], [ -16.279035699999945, 12.532302100000035 ], [ -16.279186899999949, 12.532091500000011 ], [ -16.27933929999994, 12.5318541 ], [ -16.279463499999952, 12.531623899999987 ], [ -16.279571, 12.53139690000001 ], [ -16.279676399999953, 12.531123100000018 ], [ -16.279742399999957, 12.5309246 ], [ -16.279787, 12.5307654 ], [ -16.279826899999964, 12.530593100000033 ], [ -16.279867399999937, 12.5303989 ], [ -16.279891599999939, 12.5302613 ], [ -16.27991809999995, 12.530034699999989 ], [ -16.279946499999948, 12.52976630000002 ], [ -16.279944899999951, 12.5295301 ], [ -16.279921599999952, 12.529277900000022 ], [ -16.279877299999942, 12.529031300000012 ], [ -16.279846, 12.5288148 ], [ -16.279256599999947, 12.5261613 ], [ -16.278794199999954, 12.52395150000002 ], [ -16.278667399999946, 12.523517800000018 ], [ -16.278560099999964, 12.5232028 ], [ -16.278430499999931, 12.5229362 ], [ -16.276929799999941, 12.519956 ], [ -16.27678069999995, 12.5196122 ], [ -16.276721199999955, 12.519444200000034 ], [ -16.276628899999949, 12.5190083 ], [ -16.276587299999949, 12.518714300000015 ], [ -16.276581099999955, 12.5184472 ], [ -16.276598399999955, 12.518298100000019 ], [ -16.276624299999959, 12.517963800000027 ], [ -16.276667299999957, 12.517728200000018 ], [ -16.276720599999948, 12.517425800000035 ], [ -16.277436799999954, 12.515081700000017 ], [ -16.277659899999954, 12.514275 ], [ -16.277724299999957, 12.5139749 ], [ -16.277763499999942, 12.5137531 ], [ -16.277782199999947, 12.513447 ], [ -16.277791399999948, 12.513171 ], [ -16.27775539999995, 12.5127499 ], [ -16.277713299999949, 12.51242 ], [ -16.277662899999942, 12.5121849 ], [ -16.277593399999951, 12.5119597 ], [ -16.277498699999953, 12.511676600000019 ], [ -16.276382699999953, 12.50897770000004 ], [ -16.276116, 12.508263100000031 ], [ -16.275982499999948, 12.507863 ], [ -16.275849399999949, 12.507380700000022 ], [ -16.275296099999956, 12.5052295 ], [ -16.274872299999949, 12.5036424 ], [ -16.274791, 12.503396 ], [ -16.274687799999942, 12.503146700000014 ], [ -16.274581, 12.502921700000021 ], [ -16.274450699999946, 12.502705400000021 ], [ -16.274287299999944, 12.502432600000024 ], [ -16.274122099999953, 12.5022024 ], [ -16.273919, 12.501972 ], [ -16.273685399999948, 12.5017135 ], [ -16.27342469999995, 12.5014689 ], [ -16.273094799999953, 12.501207100000016 ], [ -16.267918499999954, 12.4971608 ], [ -16.267482799999957, 12.496791300000021 ], [ -16.267028, 12.4963283 ], [ -16.266717499999942, 12.4959404 ], [ -16.26534319999995, 12.493857600000011 ], [ -16.264691299999949, 12.4928369 ], [ -16.263788, 12.491422600000021 ], [ -16.262355599999953, 12.4893593 ], [ -16.26163119999995, 12.488447900000025 ], [ -16.260859699999948, 12.487586400000014 ], [ -16.259156, 12.48580740000002 ], [ -16.258297799999948, 12.48492610000001 ], [ -16.257586699999955, 12.484194400000021 ], [ -16.257134299999947, 12.483664600000022 ], [ -16.256692199999939, 12.483090900000024 ], [ -16.256118099999949, 12.482310100000015 ], [ -16.255451299999951, 12.4813912 ], [ -16.254637399999954, 12.4804966 ], [ -16.253011699999956, 12.4787185 ], [ -16.251656399999952, 12.4772559 ], [ -16.251435299999958, 12.4770122 ], [ -16.251331399999952, 12.4768978 ], [ -16.250027899999949, 12.4754603 ], [ -16.249178599999958, 12.474635900000042 ], [ -16.248954899999962, 12.474418800000036 ], [ -16.24872279999995, 12.4741935 ], [ -16.247957199999952, 12.473503699999986 ], [ -16.247339699999959, 12.472930300000018 ], [ -16.247197799999956, 12.4727985 ], [ -16.246433699999951, 12.472088900000022 ], [ -16.245809199999957, 12.4715067 ], [ -16.244327099999953, 12.470124800000022 ], [ -16.243553799999965, 12.469292 ], [ -16.237725499999943, 12.462363800000018 ], [ -16.237121699999964, 12.4616663 ], [ -16.236956699999947, 12.46149410000001 ], [ -16.235424099999953, 12.4600853 ], [ -16.233979599999948, 12.458794099999976 ], [ -16.233571099999956, 12.45842890000004 ], [ -16.231315, 12.456059500000022 ], [ -16.231059599999963, 12.4557912 ], [ -16.229982799999952, 12.454608100000012 ], [ -16.229808099999957, 12.454379800000032 ], [ -16.229443399999951, 12.453975600000019 ], [ -16.22925449999995, 12.453837400000038 ], [ -16.228476599999961, 12.452998 ], [ -16.227843099999951, 12.452314300000022 ], [ -16.227321489476594, 12.451751439236327 ] ], [ [ -16.174077299999968, 12.824337400000028 ], [ -16.174770399999968, 12.823839200000041 ], [ -16.175152, 12.823571799999986 ], [ -16.175505799999961, 12.823333400000037 ], [ -16.176719799999958, 12.8224656 ], [ -16.177192799999965, 12.822127500000025 ], [ -16.177979699999963, 12.821563200000019 ], [ -16.178752699999968, 12.821003700000039 ], [ -16.179884099999956, 12.820211100000037 ], [ -16.179989699999965, 12.8201353 ], [ -16.18025259999996, 12.819946700000031 ], [ -16.181010899999958, 12.8194026 ], [ -16.181457499999961, 12.819092100000018 ], [ -16.182064699999959, 12.8186628 ], [ -16.18236389999997, 12.818447900000026 ], [ -16.183180699999973, 12.817861200000012 ], [ -16.183801399999961, 12.8174284 ], [ -16.184437699999979, 12.8169735 ], [ -16.185037899999951, 12.8165417 ], [ -16.185877499999965, 12.815976800000021 ], [ -16.186482299999973, 12.81553080000001 ], [ -16.186625799999966, 12.815425 ], [ -16.18730349999997, 12.81494760000002 ], [ -16.187937399999949, 12.814546200000022 ], [ -16.188570399999968, 12.814169600000014 ], [ -16.189163199999957, 12.8138374 ], [ -16.189766, 12.813533900000015 ], [ -16.190566099999959, 12.8131914 ], [ -16.191275399999952, 12.812886700000023 ], [ -16.191724899999958, 12.8126907 ], [ -16.192526099999959, 12.8123414 ], [ -16.192747899999961, 12.812244800000023 ], [ -16.193076399999967, 12.8121007 ], [ -16.193705499999965, 12.8118249 ], [ -16.193953099999963, 12.811719400000015 ], [ -16.194015299999958, 12.811692900000024 ], [ -16.194617499999946, 12.811436500000019 ], [ -16.195071299999952, 12.811238800000018 ], [ -16.195165, 12.811198 ], [ -16.196134, 12.8107759 ], [ -16.196435899999955, 12.8106444 ], [ -16.197164, 12.8103348 ], [ -16.197545299999948, 12.8101727 ], [ -16.198074799999969, 12.809939100000022 ], [ -16.19843159999996, 12.8097744 ], [ -16.19885, 12.809596500000021 ], [ -16.199260399999964, 12.8094252 ], [ -16.19942789999995, 12.8093512 ], [ -16.199527599999968, 12.8093089 ], [ -16.200038199999955, 12.809094300000011 ], [ -16.200657799999952, 12.8088315 ], [ -16.200891099999957, 12.80872030000004 ], [ -16.201474599999962, 12.808468 ], [ -16.201734699999957, 12.80835680000002 ], [ -16.202171299999961, 12.8081659 ], [ -16.202259099999957, 12.80813450000001 ], [ -16.203014099999955, 12.807794500000016 ], [ -16.203637, 12.8075337 ], [ -16.203870499999958, 12.807435 ], [ -16.204404799999953, 12.807208600000022 ], [ -16.204865499999958, 12.8069954 ], [ -16.205618799999964, 12.8066689 ], [ -16.206014199999959, 12.806498500000023 ], [ -16.206264899999958, 12.806390600000015 ], [ -16.206627, 12.80623560000001 ], [ -16.206867899999963, 12.8061305 ], [ -16.207548399999961, 12.805831500000041 ], [ -16.207909099999963, 12.805672599999975 ], [ -16.208360299999953, 12.805468200000023 ], [ -16.209890299999952, 12.80480760000002 ], [ -16.210653, 12.8044806 ], [ -16.21142809999996, 12.8041393 ] ], [ [ -15.967355742340526, 12.965560217566177 ], [ -15.967810699999969, 12.9654663 ], [ -15.97374169999997, 12.9642887 ], [ -15.986465299999976, 12.9617281 ], [ -15.990519899999983, 12.9609109 ], [ -15.99501279999998, 12.9600055 ], [ -15.996983699999967, 12.959622 ], [ -15.99873589999997, 12.959266400000022 ], [ -15.999367899999969, 12.959095100000024 ], [ -15.999991399999981, 12.958886 ], [ -16.000543899999975, 12.95869 ], [ -16.001571199999987, 12.9582158 ], [ -16.002375499999975, 12.9578124 ], [ -16.00306489999998, 12.9573219 ] ] ] } },
{ "type": "Feature", "properties": { "Code": "N6", "Parcours": "CF N7 (Tambacounda) - Vélingara - Kounkané - Kolda - Tanaff - CF N4 (Ziguinchor) - Oussouye - Cap Skiring - Diembéring - Nyikine", "X_deb": 306621.76646200003, "Y_deb": 1378688.1817600001, "X_fin": 309421.0, "Y_fin": 1386698.0, "Lineaire": 488.69448493499999 }, "geometry": { "type": "MultiLineString", "coordinates": [ [ [ -16.779260031824691, 12.465602480309487 ], [ -16.779257599999667, 12.4656011 ], [ -16.779200199999668, 12.465544500000014 ], [ -16.778658399999678, 12.4641198 ], [ -16.778475999999653, 12.4636431 ], [ -16.778094299999673, 12.4626531 ], [ -16.778024599999668, 12.462516099999986 ], [ -16.777956199999668, 12.462397199999977 ], [ -16.777807799999664, 12.462179599999985 ], [ -16.774410799999664, 12.4580473 ], [ -16.774003399999685, 12.457576600000015 ], [ -16.773679899999678, 12.457180600000012 ], [ -16.773323399999676, 12.456795899999987 ], [ -16.772273399999673, 12.455664500000026 ], [ -16.772002699999664, 12.4553426 ], [ -16.771862399999684, 12.4551354 ], [ -16.771740899999671, 12.454924300000011 ], [ -16.77126809999967, 12.4538803 ], [ -16.771170999999679, 12.453594899999986 ], [ -16.771122199999688, 12.453353100000029 ], [ -16.771077599999686, 12.4530488 ], [ -16.771060699999673, 12.452773199999967 ], [ -16.771199399999677, 12.4502455 ], [ -16.771203199999668, 12.4500054 ], [ -16.771195599999672, 12.449720099999984 ], [ -16.771176099999671, 12.4494676 ], [ -16.77101299999967, 12.448105399999983 ], [ -16.770916199999675, 12.447491 ], [ -16.770834399999668, 12.4471659 ], [ -16.770755999999672, 12.446890699999981 ], [ -16.770671799999675, 12.446667 ], [ -16.770606399999675, 12.446535 ], [ -16.770453499999682, 12.446259199999981 ], [ -16.770163499999668, 12.445816 ], [ -16.76831579999968, 12.4429566 ], [ -16.768313599999683, 12.4429532 ], [ -16.767946999999673, 12.4424244 ], [ -16.767670199999689, 12.44203 ], [ -16.766256899999664, 12.440105099999977 ], [ -16.765417399999684, 12.43896 ], [ -16.765248099999681, 12.438696499999985 ], [ -16.765109199999667, 12.4384694 ], [ -16.765008599999703, 12.4382517 ], [ -16.764546499999678, 12.4371812 ], [ -16.764420899999688, 12.4369156 ], [ -16.764300499999671, 12.436706400000016 ], [ -16.764153199999683, 12.4364811 ], [ -16.763163199999688, 12.435187199999978 ], [ -16.762957199999686, 12.434962199999987 ], [ -16.762748299999675, 12.4347778 ], [ -16.762550899999692, 12.4346012 ], [ -16.761161199999687, 12.4335158 ], [ -16.760958699999687, 12.4333385 ], [ -16.760762899999683, 12.433138099999985 ], [ -16.760462299999698, 12.4328175 ], [ -16.760125599999697, 12.432452400000013 ], [ -16.759786899999686, 12.431993200000013 ], [ -16.759580299999698, 12.4317157 ], [ -16.759201299999688, 12.4312066 ], [ -16.759024899999694, 12.4309486 ], [ -16.758883199999683, 12.4307231 ], [ -16.758758199999694, 12.430462199999981 ], [ -16.758267199999679, 12.4289318 ], [ -16.757280099999701, 12.427402099999986 ], [ -16.755565699999696, 12.425114799999974 ], [ -16.754655199999696, 12.423820799999989 ], [ -16.75419019999968, 12.423232 ], [ -16.753632299999701, 12.422477600000011 ], [ -16.75232559999969, 12.421301 ], [ -16.750708199999703, 12.4199029 ], [ -16.749916499999703, 12.419039899999987 ], [ -16.749448499999698, 12.418553 ], [ -16.749019599999698, 12.4175637 ], [ -16.748661099999698, 12.4169596 ], [ -16.746571699999702, 12.410803299999982 ], [ -16.742984299999716, 12.3995435 ], [ -16.741905599999711, 12.39627360000001 ], [ -16.741035499999704, 12.393614 ], [ -16.740766999999703, 12.392764 ], [ -16.740675899999712, 12.392474900000011 ], [ -16.740331299999706, 12.391533600000013 ], [ -16.740200799999716, 12.3911969 ], [ -16.740144099999718, 12.3909974 ], [ -16.740052599999721, 12.3906843 ], [ -16.740036699999706, 12.390649800000013 ], [ -16.739895099999707, 12.3902283 ], [ -16.73985229999969, 12.390108699999983 ], [ -16.739721099999702, 12.389718 ], [ -16.739620999999708, 12.389445599999986 ], [ -16.739485999999705, 12.3891225 ], [ -16.739362799999725, 12.3888514 ], [ -16.739220699999716, 12.388535400000011 ], [ -16.738962599999724, 12.388089 ], [ -16.738852099999715, 12.387858299999984 ], [ -16.738811899999714, 12.387860599999986 ], [ -16.738779899999717, 12.387847 ], [ -16.738759999999719, 12.3878273 ], [ -16.738745499999709, 12.3877864 ], [ -16.738751999999717, 12.38775 ], [ -16.738510199999705, 12.3876073 ], [ -16.737651499999718, 12.386754299999982 ], [ -16.737507499999708, 12.386614400000013 ], [ -16.73716809999971, 12.3862846 ], [ -16.736442699999721, 12.385577200000013 ], [ -16.735780799999713, 12.384931600000021 ], [ -16.735420899999724, 12.384585399999985 ], [ -16.735265099999705, 12.38442950000001 ], [ -16.732460899999701, 12.3817021 ], [ -16.732083899999715, 12.3812947 ], [ -16.731740599999711, 12.3806856 ], [ -16.731659299999713, 12.3805223 ], [ -16.730599799999712, 12.378394600000016 ], [ -16.727801399999716, 12.378025 ], [ -16.726426899999719, 12.3778473 ], [ -16.726185199999705, 12.3778216 ], [ -16.725001499999724, 12.377644800000017 ], [ -16.724303899999736, 12.3777702 ], [ -16.721056299999727, 12.3793971 ], [ -16.718184999999739, 12.3808336 ], [ -16.710503799999742, 12.3847596 ], [ -16.710438499999746, 12.384792900000024 ], [ -16.69643229999976, 12.391962 ], [ -16.695604499999742, 12.392482099999988 ], [ -16.694952599999759, 12.393182500000016 ], [ -16.694341399999761, 12.3941814 ], [ -16.691475099999746, 12.3996879 ], [ -16.690960299999762, 12.4010034 ], [ -16.690406199999757, 12.403781 ], [ -16.690101799999756, 12.404687100000015 ], [ -16.688718299999767, 12.4077896 ], [ -16.688409599999765, 12.4089622 ], [ -16.686768399999767, 12.4179993 ], [ -16.686347899999767, 12.419897300000013 ], [ -16.685581899999772, 12.4210353 ], [ -16.684571399999761, 12.4218312 ], [ -16.683063999999764, 12.422539600000031 ], [ -16.674276399999773, 12.426304 ], [ -16.672401299999784, 12.426958300000027 ], [ -16.669633399999785, 12.427406400000029 ], [ -16.669308699999771, 12.4274585 ], [ -16.667299099999784, 12.427725 ], [ -16.658423299999782, 12.4289964 ], [ -16.654616899999795, 12.429458 ], [ -16.650892399999805, 12.42998640000002 ], [ -16.650313599999798, 12.430079800000026 ], [ -16.649773399999802, 12.430201299999988 ], [ -16.649344199999813, 12.43032759999998 ], [ -16.648832999999794, 12.4304868 ], [ -16.648371699999799, 12.4306854 ], [ -16.647125299999793, 12.4313273 ], [ -16.646438199999782, 12.4316595 ], [ -16.643206899999807, 12.4331827 ], [ -16.6421987999998, 12.433657899999973 ], [ -16.641715499999808, 12.4338542 ], [ -16.641235399999797, 12.4340082 ], [ -16.640746699999802, 12.4341324 ], [ -16.640216099999812, 12.4342445 ], [ -16.639611599999807, 12.4343388 ], [ -16.639011799999796, 12.4343985 ], [ -16.634808499999799, 12.434761399999989 ], [ -16.626454399999805, 12.4354936 ], [ -16.624085699999807, 12.4357012 ], [ -16.622679899999824, 12.43582770000002 ], [ -16.621546199999809, 12.436091 ], [ -16.619585199999808, 12.436880900000013 ], [ -16.616889799999818, 12.438072300000012 ], [ -16.61518529999983, 12.4386582 ], [ -16.613522499999821, 12.4388804 ], [ -16.604201899999833, 12.439633800000014 ], [ -16.602665699999811, 12.439765300000021 ], [ -16.601470799999834, 12.43999270000001 ], [ -16.600692499999838, 12.440375700000017 ], [ -16.599939699999826, 12.4409486 ], [ -16.594245499999825, 12.4453768 ], [ -16.593671499999836, 12.445806799999989 ], [ -16.591393199999843, 12.448154100000014 ], [ -16.590631999999836, 12.448778500000014 ], [ -16.590243499999843, 12.4489746 ], [ -16.589953399999832, 12.449121100000013 ], [ -16.587750799999824, 12.4499948 ], [ -16.585417799999831, 12.451243600000018 ], [ -16.583563299999842, 12.452965400000011 ], [ -16.574062999999843, 12.4624755 ], [ -16.564997199999851, 12.4711417 ], [ -16.563570099999868, 12.4722602 ], [ -16.561970599999853, 12.473217600000011 ], [ -16.559125799999858, 12.474856800000012 ], [ -16.558208199999861, 12.4755681 ], [ -16.556187099999853, 12.477235600000011 ], [ -16.556016099999866, 12.477453199999989 ], [ -16.554997799999857, 12.478598500000032 ], [ -16.553843599999855, 12.479659 ], [ -16.551399599999865, 12.481794900000011 ], [ -16.549594399999862, 12.483141 ], [ -16.549434499999869, 12.483265 ], [ -16.547855799999859, 12.4844656 ], [ -16.547592399999854, 12.484654700000013 ], [ -16.546379099999861, 12.485377200000029 ], [ -16.546376299999864, 12.48537720000002 ], [ -16.545958499999873, 12.48565009999998 ], [ -16.545831399999852, 12.4857797 ], [ -16.545715699999871, 12.4860553 ], [ -16.545562099999866, 12.4866149 ], [ -16.545444499999871, 12.486817300000013 ], [ -16.545077599999857, 12.487083 ], [ -16.544803699999861, 12.4872546 ], [ -16.544827899999859, 12.4872765 ], [ -16.544844099999867, 12.4873247 ], [ -16.544839199999863, 12.487353200000037 ], [ -16.544800399999879, 12.4873979 ], [ -16.544742899999854, 12.4874069 ], [ -16.544686399999865, 12.4873685 ], [ -16.544674199999864, 12.487305700000011 ], [ -16.544590399999858, 12.4871906 ], [ -16.54412989999987, 12.486656700000017 ], [ -16.543989299999858, 12.4865574 ], [ -16.543870799999866, 12.4865159 ], [ -16.543594799999862, 12.486477699999986 ], [ -16.542923599999867, 12.4864201 ], [ -16.542236199999863, 12.486376400000022 ], [ -16.541894499999859, 12.4863305 ], [ -16.541760699999877, 12.4863121 ], [ -16.541460199999868, 12.4862164 ], [ -16.540998099999864, 12.485996 ], [ -16.540706799999864, 12.4858454 ], [ -16.540398499999867, 12.485718900000029 ], [ -16.540182999999868, 12.485700900000023 ], [ -16.53997159999987, 12.485713600000032 ], [ -16.539635499999871, 12.485759700000017 ], [ -16.538100099999866, 12.4860123 ], [ -16.534488199999867, 12.486649699999989 ], [ -16.534128299999868, 12.48668010000001 ], [ -16.533834799999877, 12.4866601 ], [ -16.533535399999867, 12.4866065 ], [ -16.53320239999988, 12.486483100000013 ], [ -16.532898199999874, 12.486302399999989 ], [ -16.532256599999865, 12.485911100000017 ], [ -16.532079599999875, 12.4857893 ], [ -16.530922499999857, 12.4849489 ], [ -16.526777999999879, 12.481286100000011 ], [ -16.523671699999866, 12.4785253 ], [ -16.523358699999878, 12.478203500000012 ], [ -16.523123199999869, 12.47792380000001 ], [ -16.522684499999869, 12.4772869 ], [ -16.522314599999877, 12.476727400000014 ], [ -16.52206959999987, 12.4763026 ], [ -16.521853999999877, 12.475823 ], [ -16.521256599999873, 12.4743243 ], [ -16.520273799999874, 12.4714259 ], [ -16.517300299999867, 12.4627808 ], [ -16.517173199999881, 12.4625575 ], [ -16.514776199999869, 12.4587558 ], [ -16.514005399999881, 12.4576117 ], [ -16.513454799999881, 12.456746 ], [ -16.513166899999877, 12.456415100000035 ], [ -16.512737699999878, 12.456023700000012 ], [ -16.511608399999876, 12.4552545 ], [ -16.510199499999882, 12.454339200000016 ], [ -16.509699699999874, 12.454011100000038 ], [ -16.50862969999989, 12.4533439 ], [ -16.507325299999888, 12.4525902 ], [ -16.505942899999891, 12.451813900000023 ], [ -16.505481599999886, 12.451615300000025 ], [ -16.504956499999871, 12.4514196 ], [ -16.504348599999894, 12.4512607 ], [ -16.503406399999868, 12.4510694 ], [ -16.502579699999874, 12.450965 ], [ -16.500136999999878, 12.45062 ], [ -16.499132499999899, 12.4504393 ], [ -16.49889549999989, 12.450367500000022 ], [ -16.498454199999877, 12.4502341 ], [ -16.498218599999888, 12.4501553 ], [ -16.497977699999886, 12.4500748 ], [ -16.495865199999894, 12.4493684 ], [ -16.495155599999872, 12.449150500000028 ], [ -16.494727299999884, 12.4490265 ], [ -16.494171099999878, 12.4489245 ], [ -16.489224599999886, 12.4484007 ], [ -16.488798199999902, 12.448329 ], [ -16.487730999999883, 12.448025700000013 ], [ -16.486547999999885, 12.447661800000024 ], [ -16.485094, 12.447195800000017 ], [ -16.484365499999875, 12.4469449 ], [ -16.480522899999887, 12.4454948 ], [ -16.480136099999886, 12.445398300000011 ], [ -16.480136099999903, 12.4453955 ], [ -16.478984199999903, 12.4452356 ], [ -16.477764499999896, 12.445061900000013 ], [ -16.476981799999901, 12.444987300000026 ], [ -16.47570339999989, 12.444874400000014 ], [ -16.472368999999897, 12.444662100000039 ], [ -16.471812799999899, 12.4446759 ], [ -16.470339899999892, 12.444748699999987 ], [ -16.4697610999999, 12.4448421 ], [ -16.467558899999887, 12.445589 ], [ -16.4638021999999, 12.446979 ], [ -16.463221799999896, 12.4472026 ], [ -16.462671899999894, 12.447434700000027 ], [ -16.461177899999889, 12.4481502 ], [ -16.458283799999908, 12.449584 ], [ -16.458017699999903, 12.449721300000011 ], [ -16.457194899999902, 12.4501256 ], [ -16.456569299999913, 12.4504368 ], [ -16.456231399999897, 12.450590200000011 ], [ -16.455877899999898, 12.450718600000036 ], [ -16.455551699999909, 12.4508071 ], [ -16.4548802999999, 12.450952500000026 ], [ -16.444948499999906, 12.452958800000021 ], [ -16.439717, 12.4541965 ], [ -16.435727699999894, 12.4552057 ], [ -16.432241099999917, 12.4560806 ], [ -16.431583, 12.456286800000012 ], [ -16.430916699999909, 12.4564869 ], [ -16.430474099999905, 12.4566487 ], [ -16.430019799999894, 12.4568174 ], [ -16.427657299999922, 12.457816300000021 ], [ -16.419920099999896, 12.461164300000034 ], [ -16.415502399999919, 12.463115100000021 ], [ -16.414152, 12.463923200000021 ], [ -16.411902699999921, 12.465502 ], [ -16.409567299999917, 12.467060100000024 ], [ -16.403063399999919, 12.4715478 ], [ -16.401517499999922, 12.4724868 ], [ -16.400818, 12.472903200000017 ], [ -16.400045, 12.473284 ], [ -16.399311199999929, 12.4736339 ], [ -16.398420099999921, 12.4739728 ], [ -16.397536499999912, 12.474281800000021 ], [ -16.396250799999915, 12.4746463 ], [ -16.395606499999928, 12.474786200000013 ], [ -16.394961199999916, 12.474904 ], [ -16.39440219999992, 12.4749575 ], [ -16.393169799999921, 12.475031 ], [ -16.391743599999931, 12.475048100000013 ], [ -16.391176399999924, 12.475022 ], [ -16.390929699999926, 12.4750207 ], [ -16.390488399999917, 12.4749866 ], [ -16.388221899999927, 12.4746207 ], [ -16.385060899999928, 12.474141700000015 ], [ -16.378756, 12.4731177 ], [ -16.376634399999933, 12.472767200000018 ], [ -16.376108099999932, 12.47272250000001 ], [ -16.375484, 12.4727145 ], [ -16.374963199999925, 12.4728234 ], [ -16.374481199999927, 12.473001 ], [ -16.374018899999935, 12.473245400000012 ], [ -16.373370599999937, 12.4737222 ], [ -16.371563799999926, 12.4750822 ], [ -16.371268799999918, 12.475253800000027 ], [ -16.370832499999931, 12.4754518 ], [ -16.368756699999924, 12.4763242 ], [ -16.367748899999935, 12.4767706 ], [ -16.366743499999913, 12.4772002 ], [ -16.365952, 12.4776347 ], [ -16.364600099999929, 12.4785131 ], [ -16.364334599999939, 12.4786475 ], [ -16.364059299999926, 12.4787411 ], [ -16.363462, 12.4788659 ], [ -16.362520499999928, 12.479067500000024 ], [ -16.361199899999932, 12.4793388 ], [ -16.359950199999926, 12.4795916 ], [ -16.359745899999936, 12.4796646 ], [ -16.359529899999934, 12.479796800000015 ], [ -16.359341299999919, 12.479942800000016 ], [ -16.359102699999941, 12.48015640000002 ], [ -16.358579699999929, 12.480690100000039 ], [ -16.358372599999935, 12.4809478 ], [ -16.358176299999922, 12.4812396 ], [ -16.358007799999935, 12.4815978 ], [ -16.357640399999937, 12.482784700000016 ], [ -16.357327099999925, 12.483678499999984 ], [ -16.355189699999936, 12.488188 ] ], [ [ -16.241256599999947, 12.5635066 ], [ -16.239655, 12.562854300000037 ], [ -16.236980099999961, 12.561763600000017 ], [ -16.23453669999995, 12.560799500000018 ], [ -16.233892499999971, 12.56053160000004 ], [ -16.233470599999961, 12.5603677 ], [ -16.233332499999964, 12.560315400000034 ], [ -16.233156799999946, 12.560250400000013 ], [ -16.232995499999955, 12.56020740000001 ], [ -16.232850199999948, 12.5601686 ], [ -16.232446, 12.560051 ], [ -16.231898799999971, 12.5599239 ], [ -16.231690899999965, 12.5598978 ], [ -16.231450899999952, 12.5598664 ], [ -16.231282199999963, 12.559839400000023 ], [ -16.231055299999948, 12.5598167 ], [ -16.230835399999961, 12.559803600000016 ], [ -16.230553699999952, 12.55979180000001 ], [ -16.23020759999995, 12.55977870000001 ], [ -16.229849499999968, 12.5597774 ], [ -16.229456599999942, 12.5597944 ], [ -16.229097299999943, 12.559835 ], [ -16.228632499999964, 12.5599198 ], [ -16.227763199999952, 12.560102800000022 ], [ -16.227379499999966, 12.5602097 ], [ -16.226707799999954, 12.5604475 ], [ -16.226195699999959, 12.560670400000019 ], [ -16.225757799999961, 12.5608913 ], [ -16.225564699999957, 12.5609887 ], [ -16.225137399999959, 12.5612689 ], [ -16.224730499999968, 12.5615503 ], [ -16.224353, 12.5618275 ], [ -16.224074599999959, 12.562030800000032 ], [ -16.223748099999963, 12.562266800000025 ], [ -16.222662799999963, 12.5630846 ], [ -16.222361399999969, 12.563311699999987 ], [ -16.220449699999961, 12.5647522 ], [ -16.218949799999969, 12.565905400000013 ], [ -16.218005399999949, 12.5666022 ], [ -16.217437699999977, 12.56703310000001 ], [ -16.21323059999996, 12.570219099999978 ], [ -16.21307369999996, 12.570345800000023 ], [ -16.211289899999962, 12.5716692 ], [ -16.210712499999964, 12.572111 ], [ -16.210339199999954, 12.572383400000016 ], [ -16.20983989999996, 12.5726739 ], [ -16.209426, 12.572854500000032 ], [ -16.208887799999957, 12.5730426 ], [ -16.208559, 12.573129500000015 ], [ -16.208225599999949, 12.573190500000015 ], [ -16.207909299999965, 12.5732313 ], [ -16.207546399999963, 12.573257200000011 ], [ -16.207201799999954, 12.573260900000012 ], [ -16.20679979999996, 12.5732273 ], [ -16.206450199999942, 12.57318240000002 ], [ -16.206124899999963, 12.573119 ], [ -16.205778899999956, 12.573019 ], [ -16.205093499999961, 12.5727766 ], [ -16.204177199999961, 12.572425500000026 ], [ -16.203731399999949, 12.572254600000031 ], [ -16.20174529999996, 12.5715336 ], [ -16.201010699999973, 12.571333300000015 ], [ -16.200573199999951, 12.5712701 ], [ -16.19979539999996, 12.571243700000023 ], [ -16.195802299999951, 12.5711642 ], [ -16.195150399999964, 12.5711225 ], [ -16.194577799999951, 12.571059200000017 ], [ -16.191189699999963, 12.570444 ], [ -16.190571499999958, 12.57038769999998 ], [ -16.190377799999951, 12.57037610000004 ], [ -16.190197299999969, 12.570365300000024 ], [ -16.189150799999965, 12.5703271 ], [ -16.188607, 12.570309400000017 ], [ -16.188152099999964, 12.5702908 ], [ -16.181757299999948, 12.570071200000015 ], [ -16.180232299999972, 12.570017800000024 ], [ -16.179416199999956, 12.569933600000038 ], [ -16.179227299999958, 12.5698642 ], [ -16.178354, 12.569543 ], [ -16.178015399999961, 12.569347700000021 ], [ -16.177555699999971, 12.56908 ], [ -16.177154899999948, 12.5688465 ], [ -16.176566899999969, 12.5685041 ], [ -16.176310499999968, 12.5683551 ], [ -16.176164799999967, 12.568270299999989 ], [ -16.175808799999967, 12.568136 ], [ -16.175520199999969, 12.568015800000033 ], [ -16.175142699999959, 12.56791330000004 ], [ -16.174865199999964, 12.5678516 ], [ -16.174532699999958, 12.567804100000021 ], [ -16.174383699999964, 12.5678012 ], [ -16.173888399999957, 12.5677913 ], [ -16.173572499999956, 12.5678224 ], [ -16.173408699999968, 12.5678385 ], [ -16.172487899999958, 12.5680518 ], [ -16.172280599999961, 12.5680975 ], [ -16.17169949999996, 12.568225700000026 ], [ -16.17087619999997, 12.5684074 ], [ -16.170032799999976, 12.568593399999989 ], [ -16.169804899999967, 12.5686423 ], [ -16.169061399999954, 12.5688019 ], [ -16.167195, 12.569224100000032 ], [ -16.166022199999954, 12.569485700000014 ], [ -16.164876499999981, 12.569735400000029 ], [ -16.16430259999996, 12.569864 ], [ -16.16323519999996, 12.570103100000022 ], [ -16.16257339999996, 12.5702513 ], [ -16.161895, 12.5703482 ], [ -16.161257499999966, 12.570436300000036 ], [ -16.160085099999957, 12.570598300000015 ], [ -16.158675, 12.570793100000039 ], [ -16.157466, 12.570926800000018 ], [ -16.156122699999962, 12.571177200000028 ], [ -16.155489699999972, 12.57137730000003 ], [ -16.154832399999968, 12.571697800000022 ], [ -16.154415699999973, 12.5718981 ], [ -16.154028899999961, 12.572094900000033 ], [ -16.153659499999971, 12.572281900000018 ], [ -16.152961599999973, 12.5726481 ], [ -16.152693099999954, 12.572800700000023 ], [ -16.152453599999951, 12.572951299999977 ], [ -16.152252499999967, 12.5730832 ], [ -16.150054099999952, 12.574767200000013 ], [ -16.149454799999958, 12.5751824 ], [ -16.149136499999972, 12.5753691 ], [ -16.148834, 12.5754958 ], [ -16.148449899999971, 12.57557440000001 ], [ -16.141319799999962, 12.577094100000041 ], [ -16.133942799999961, 12.578702100000012 ], [ -16.131467599999972, 12.579211 ], [ -16.130882399999965, 12.579331300000019 ], [ -16.130335299999967, 12.579443700000015 ], [ -16.130016399999974, 12.579509300000021 ], [ -16.122668099999959, 12.581085500000032 ], [ -16.122239, 12.581177500000019 ], [ -16.121829899999984, 12.5812653 ], [ -16.120112399999975, 12.58163370000001 ], [ -16.119598399999969, 12.581743900000019 ], [ -16.118733399999975, 12.5819295 ], [ -16.117985799999975, 12.5820934 ], [ -16.117785599999976, 12.582135 ], [ -16.117091499999965, 12.5822791 ], [ -16.116928899999966, 12.5823128 ], [ -16.116064699999971, 12.5824922 ], [ -16.115821099999966, 12.5825428 ], [ -16.11466769999997, 12.5827823 ], [ -16.11192, 12.583352700000013 ], [ -16.111379299999967, 12.5835119 ], [ -16.110914199999975, 12.583699900000019 ], [ -16.11064079999997, 12.5838352 ], [ -16.110221899999949, 12.584079 ], [ -16.109019199999967, 12.5850031 ], [ -16.108613899999977, 12.585269 ], [ -16.108258399999976, 12.5854441 ], [ -16.107763399999957, 12.5856349 ], [ -16.104687, 12.5868582 ], [ -16.102286699999979, 12.58782 ], [ -16.101869099999973, 12.588007 ], [ -16.101546899999974, 12.5881905 ], [ -16.100479099999976, 12.5888869 ], [ -16.099374899999976, 12.5895939 ], [ -16.099012599999956, 12.589802200000021 ], [ -16.09873269999996, 12.589916 ], [ -16.098378, 12.590022700000022 ], [ -16.09780109999997, 12.5901484 ], [ -16.095230299999965, 12.590755100000022 ], [ -16.089553599999974, 12.592007100000011 ], [ -16.089191299999975, 12.5920758 ], [ -16.088848, 12.5921214 ], [ -16.08851239999996, 12.5921506 ], [ -16.08814049999997, 12.5921482 ], [ -16.087508499999956, 12.592091 ], [ -16.086322499999987, 12.591982 ], [ -16.085825399999969, 12.591925300000028 ], [ -16.084190099999983, 12.59177770000003 ], [ -16.084060799999971, 12.591771700000045 ], [ -16.08321, 12.591761500000011 ], [ -16.080491599999963, 12.591854800000041 ], [ -16.080316699999965, 12.5918622 ], [ -16.079917599999973, 12.5918847 ], [ -16.079618299999957, 12.5919103 ], [ -16.079303, 12.591969 ], [ -16.076928199999966, 12.5925361 ], [ -16.075265799999965, 12.5929754 ], [ -16.07492359999998, 12.5930856 ], [ -16.07464389999998, 12.5932052 ], [ -16.074415299999963, 12.593325600000025 ], [ -16.074162799999964, 12.5934909 ], [ -16.072084399999969, 12.594822300000011 ], [ -16.070878099999977, 12.59561820000002 ], [ -16.070220499999969, 12.596084500000039 ], [ -16.069501699999961, 12.5966394 ], [ -16.067331, 12.5983176 ], [ -16.066786, 12.59875320000002 ], [ -16.066491299999974, 12.5989552 ], [ -16.066156399999969, 12.599161300000011 ], [ -16.065759899999971, 12.5993401 ], [ -16.065371699999979, 12.599486900000025 ], [ -16.064701199999973, 12.599671800000035 ], [ -16.059859, 12.600968400000021 ], [ -16.052860099999954, 12.602842400000021 ], [ -16.051987299999965, 12.603072200000041 ], [ -16.05171929999997, 12.603156 ], [ -16.051515499999976, 12.603226400000043 ], [ -16.051292, 12.603311 ], [ -16.050956799999977, 12.603446 ], [ -16.045368399999976, 12.6057746 ], [ -16.045065799999971, 12.605878 ], [ -16.044828699999975, 12.6059518 ], [ -16.044582199999972, 12.606012 ], [ -16.044301899999976, 12.606070099999982 ], [ -16.043974199999973, 12.6061128 ], [ -16.043696599999972, 12.606160200000032 ], [ -16.043394299999967, 12.606206800000024 ], [ -16.040901499999958, 12.606518 ], [ -16.040348099999967, 12.606582900000014 ], [ -16.040069099999975, 12.6066269 ], [ -16.039814899999978, 12.6066829 ], [ -16.03955119999997, 12.6067706 ], [ -16.039304699999953, 12.6068609 ], [ -16.039021199999969, 12.6069894 ], [ -16.038743299999958, 12.6071365 ], [ -16.038505399999963, 12.607277400000015 ], [ -16.038278, 12.6074341 ], [ -16.038056899999965, 12.607609800000034 ], [ -16.037039899999961, 12.608501300000016 ], [ -16.036148, 12.609291799999983 ], [ -16.034402199999978, 12.6108495 ], [ -16.034200499999979, 12.6110887 ], [ -16.033979499999969, 12.611399500000021 ], [ -16.033802399999974, 12.611721600000015 ], [ -16.033056799999969, 12.613084300000024 ], [ -16.032857199999963, 12.6134696 ], [ -16.032631399999964, 12.613825 ], [ -16.032393699999968, 12.61415070000001 ], [ -16.032123399999978, 12.6144574 ], [ -16.031735, 12.614835900000026 ], [ -16.028530299999968, 12.618290900000019 ], [ -16.027994899999975, 12.618822800000043 ], [ -16.027643, 12.619207 ], [ -16.027223, 12.61969390000001 ], [ -16.026873199999969, 12.620184900000021 ], [ -16.026483199999973, 12.620761200000041 ], [ -16.023763499999987, 12.625394200000022 ], [ -16.023258499999969, 12.626043800000012 ], [ -16.022590799999968, 12.626642 ], [ -16.022343499999963, 12.626821 ], [ -16.021802799999975, 12.627115700000022 ], [ -16.021477699999963, 12.627254900000011 ], [ -16.021149399999956, 12.627368 ], [ -16.020842, 12.627442300000041 ], [ -16.020135399999983, 12.627515400000014 ], [ -16.019167899999967, 12.6276371 ], [ -16.018001499999976, 12.627680700000022 ], [ -16.017613899999979, 12.627699700000012 ], [ -16.017327199999972, 12.6276772 ], [ -16.01695739999996, 12.627590800000041 ], [ -16.016075099999963, 12.627215100000036 ], [ -16.015376899999968, 12.626877300000015 ], [ -16.013971699999964, 12.626170300000037 ], [ -16.013505399999968, 12.625935700000035 ], [ -16.013080699999986, 12.6257221 ], [ -16.012912599999964, 12.625637400000013 ], [ -16.012324699999986, 12.625341599999981 ], [ -16.012264599999977, 12.6253113 ], [ -16.011488299999979, 12.624920800000025 ], [ -16.008123699999985, 12.623224099999987 ], [ -16.002370199999984, 12.6203304 ], [ -15.999882199999959, 12.619079 ], [ -15.99866159999997, 12.618485599999987 ], [ -15.997308699999971, 12.618090700000012 ], [ -15.99670429999996, 12.617919800000019 ], [ -15.995456399999972, 12.6175668 ], [ -15.994222399999988, 12.617218500000018 ], [ -15.992820899999977, 12.616822400000022 ], [ -15.991367199999985, 12.6164115 ], [ -15.988664699999983, 12.615647700000039 ], [ -15.987556199999982, 12.6151395 ], [ -15.986750199999973, 12.614499 ], [ -15.986145699999984, 12.6137405 ], [ -15.985806, 12.61313370000002 ], [ -15.985593899999982, 12.612467200000033 ], [ -15.983468, 12.605935100000021 ], [ -15.981316699999986, 12.5993035 ], [ -15.980927, 12.5984687 ], [ -15.980373399999982, 12.5977298 ], [ -15.979567299999982, 12.597070200000021 ], [ -15.978769399999972, 12.596665 ], [ -15.976839699999971, 12.596021400000023 ], [ -15.97583829999996, 12.5956717 ], [ -15.9752757, 12.5953621 ], [ -15.972329, 12.593740800000015 ], [ -15.966995, 12.5907991 ], [ -15.965669699999964, 12.59007060000004 ], [ -15.965477699999985, 12.5899647 ], [ -15.965265299999976, 12.589834800000041 ], [ -15.965019499999972, 12.589699700000017 ], [ -15.962865599999979, 12.5885155 ], [ -15.962690199999971, 12.588419 ], [ -15.962472899999964, 12.5882982 ], [ -15.962226399999963, 12.588161100000022 ], [ -15.96141369999998, 12.587707400000022 ], [ -15.960211550149872, 12.587047275420648 ] ], [ [ -16.241336899999958, 12.5635386 ], [ -16.242439199999961, 12.563998100000022 ], [ -16.243288799999949, 12.564348400000018 ], [ -16.243704599999955, 12.564516 ], [ -16.244151499999962, 12.56469990000002 ], [ -16.244599099999949, 12.564884400000013 ], [ -16.244874, 12.564997700000028 ], [ -16.245271, 12.565170500000018 ], [ -16.245605499999957, 12.5653426 ], [ -16.245930699999956, 12.5655287 ], [ -16.246118499999962, 12.565659600000016 ], [ -16.246328799999954, 12.5658314 ], [ -16.246498499999955, 12.565992499999988 ], [ -16.246718899999955, 12.5662227 ], [ -16.246983099999959, 12.5665387 ], [ -16.247911099999957, 12.567648800000015 ], [ -16.248336499999958, 12.5681577 ], [ -16.249178899999951, 12.5692466 ], [ -16.249835599999962, 12.5700756 ], [ -16.249961499999937, 12.570232100000039 ], [ -16.250370099999955, 12.5707253 ], [ -16.251155099999938, 12.571691900000014 ], [ -16.251219799999973, 12.571769600000021 ], [ -16.251623099999939, 12.5723145 ], [ -16.251888199999961, 12.5726526 ], [ -16.252006899999962, 12.572806099999978 ], [ -16.252741, 12.573877300000017 ], [ -16.253020599999957, 12.574206 ], [ -16.253295699999946, 12.574497300000022 ], [ -16.253796, 12.5750271 ], [ -16.254231799999936, 12.575382500000021 ], [ -16.254802099999946, 12.5758455 ], [ -16.255332099999951, 12.5762477 ], [ -16.256188199999944, 12.576865400000015 ], [ -16.256872699999949, 12.5771651 ], [ -16.257344599999946, 12.577371800000034 ], [ -16.257789199999952, 12.5775665 ], [ -16.259771299999954, 12.5787754 ], [ -16.260131199999972, 12.579014799999976 ], [ -16.26093319999994, 12.579498200000028 ], [ -16.261252899999942, 12.579701800000015 ], [ -16.261983799999935, 12.5801611 ], [ -16.26270859999995, 12.580624300000013 ], [ -16.263013799999953, 12.580819200000027 ], [ -16.263314, 12.581009800000022 ], [ -16.263481399999954, 12.5811131 ], [ -16.263757799999944, 12.581308 ], [ -16.263859299999954, 12.581442600000017 ], [ -16.263887399999955, 12.58149 ], [ -16.263951099999957, 12.5816008 ], [ -16.263948499999941, 12.58170440000004 ], [ -16.263975299999938, 12.581750100000024 ], [ -16.264063699999959, 12.581799500000036 ], [ -16.264115399999948, 12.5817994 ], [ -16.264190199999948, 12.581763300000025 ], [ -16.264305499999949, 12.5817511 ], [ -16.264383899999949, 12.581751 ], [ -16.264531299999966, 12.5817583 ], [ -16.264607799999943, 12.581793300000014 ], [ -16.264773099999946, 12.5818487 ], [ -16.265064, 12.581931900000017 ], [ -16.265841799999958, 12.5821348 ], [ -16.266348299999962, 12.582284299999989 ], [ -16.266629899999959, 12.5823606 ], [ -16.267352199999959, 12.5825494 ], [ -16.267548799999958, 12.582605500000021 ], [ -16.267862099999942, 12.5826852 ], [ -16.268359499999956, 12.582829300000016 ], [ -16.269101699999958, 12.583060100000029 ], [ -16.269529799999955, 12.5831784 ], [ -16.26966859999995, 12.583214600000035 ], [ -16.269874499999954, 12.5832763 ], [ -16.270308, 12.583393899999987 ], [ -16.270996699999952, 12.5835903 ], [ -16.271155399999941, 12.583621300000017 ], [ -16.271476599999943, 12.583716800000015 ], [ -16.271507199999949, 12.583721200000035 ], [ -16.271533399999935, 12.583719700000017 ], [ -16.271561899999945, 12.58374530000002 ], [ -16.271651799999947, 12.583781600000016 ], [ -16.271773599999957, 12.583814200000015 ], [ -16.272511699999953, 12.584017300000019 ], [ -16.273539599999946, 12.584295800000024 ], [ -16.274109, 12.584460900000019 ], [ -16.274880299999939, 12.5846899 ], [ -16.275071799999953, 12.5847518 ], [ -16.275224899999944, 12.5847991 ], [ -16.275303799999957, 12.584822600000017 ], [ -16.275355899999941, 12.584722200000016 ], [ -16.275590799999943, 12.584315800000017 ], [ -16.275747299999956, 12.5840607 ], [ -16.276059599999932, 12.5836236 ], [ -16.276114199999945, 12.5835468 ], [ -16.276134599999953, 12.583518399999983 ], [ -16.276262099999951, 12.58332650000002 ], [ -16.276368199999954, 12.583223300000027 ], [ -16.276473399999947, 12.583100500000016 ], [ -16.276665699999956, 12.582869600000024 ], [ -16.277036799999948, 12.5824621 ], [ -16.277144299999954, 12.582358900000013 ], [ -16.27730179999995, 12.5821973 ], [ -16.277451199999952, 12.58208 ], [ -16.278325099999943, 12.581401400000013 ], [ -16.278981399999957, 12.5808766 ], [ -16.279024299999953, 12.5808404 ], [ -16.279068399999961, 12.5808024 ], [ -16.279147, 12.5807353 ], [ -16.279297599999953, 12.5806145 ], [ -16.279416799999957, 12.5805231 ], [ -16.27959, 12.5804036 ], [ -16.279789299999937, 12.5802813 ], [ -16.279972699999945, 12.580166300000037 ], [ -16.280181199999941, 12.5800627 ], [ -16.280245599999954, 12.580038100000026 ], [ -16.280316499999948, 12.5800084 ], [ -16.280446499999943, 12.5799617 ], [ -16.280599, 12.5799018 ], [ -16.280817899999946, 12.57980190000001 ], [ -16.280995099999956, 12.579717400000023 ], [ -16.281264599999954, 12.579586200000035 ], [ -16.281491899999956, 12.579475600000041 ], [ -16.281779, 12.5793261 ], [ -16.282015899999958, 12.579215100000017 ], [ -16.282299599999938, 12.579083700000012 ], [ -16.28258819999995, 12.578961400000024 ], [ -16.282892399999955, 12.578795500000023 ], [ -16.283075799999946, 12.578694900000015 ], [ -16.28346479999994, 12.5784807 ], [ -16.283776199999949, 12.5782977 ], [ -16.284064899999944, 12.5781341 ], [ -16.284389299999944, 12.5779613 ], [ -16.284544499999942, 12.577878800000033 ], [ -16.284659299999962, 12.5778178 ], [ -16.284936, 12.57769090000002 ], [ -16.285221699999948, 12.577575200000037 ], [ -16.285486899999938, 12.577483100000027 ], [ -16.286059399999939, 12.5772915 ], [ -16.286359499999953, 12.5771805 ], [ -16.286577299999937, 12.577087800000022 ], [ -16.286731299999936, 12.577009500000013 ], [ -16.286878399999946, 12.576927500000016 ], [ -16.287017099999961, 12.5768161 ], [ -16.287119, 12.576727200000018 ], [ -16.28745849999995, 12.576420500000022 ], [ -16.287781899999956, 12.5761249 ], [ -16.287845699999941, 12.5760471 ], [ -16.288136699999949, 12.5757645 ], [ -16.288385, 12.575534100000013 ], [ -16.288649299999935, 12.5753061 ], [ -16.288798499999952, 12.5752021 ], [ -16.288882099999935, 12.575127500000033 ], [ -16.289224099999931, 12.5748984 ], [ -16.289452299999947, 12.5747599 ], [ -16.289619099999946, 12.5746425 ], [ -16.289772899999956, 12.5745423 ], [ -16.290001099999941, 12.5743804 ], [ -16.290397499999955, 12.5741124 ], [ -16.290826699999954, 12.5738278 ], [ -16.29088449999993, 12.5737927 ], [ -16.290920199999952, 12.5737675 ], [ -16.291304199999942, 12.573533100000025 ], [ -16.291966599999952, 12.573128500000017 ], [ -16.292160699999943, 12.5730091 ], [ -16.292362, 12.572899200000021 ], [ -16.293091699999948, 12.57243890000003 ], [ -16.294223399999954, 12.57172120000002 ], [ -16.294476299999939, 12.5715607 ], [ -16.295123199999939, 12.571131799999989 ], [ -16.295445799999946, 12.5709159 ], [ -16.296116399999949, 12.570481900000024 ], [ -16.296829699999947, 12.570001200000021 ], [ -16.29715, 12.569799100000015 ], [ -16.297261, 12.569726900000031 ], [ -16.299117499999944, 12.5685166 ], [ -16.299324299999938, 12.5683739 ], [ -16.299484799999949, 12.568256 ], [ -16.300143199999948, 12.5677213 ], [ -16.30024649999995, 12.56764 ], [ -16.300414699999944, 12.567523600000021 ], [ -16.300550299999955, 12.5674281 ], [ -16.300715199999949, 12.5672926 ], [ -16.300863399999944, 12.5672055 ], [ -16.301099399999956, 12.567078500000035 ], [ -16.301484399999953, 12.5669287 ], [ -16.301810599999953, 12.566773899999989 ], [ -16.302169699999951, 12.5665956 ], [ -16.302365099999935, 12.566494100000021 ], [ -16.302572499999943, 12.566392 ], [ -16.302637699999945, 12.566357900000037 ], [ -16.302860299999953, 12.5662558 ], [ -16.303611, 12.5658721 ], [ -16.303853099999952, 12.5657543 ], [ -16.304239399999965, 12.5655696 ], [ -16.304351299999954, 12.565521900000016 ], [ -16.304423699999937, 12.5654957 ], [ -16.304573299999948, 12.56545580000004 ], [ -16.304842799999946, 12.5653864 ], [ -16.305151299999959, 12.565301300000034 ], [ -16.305408799999935, 12.5652333 ], [ -16.30561659999994, 12.5651718 ], [ -16.305736099999955, 12.565129900000029 ], [ -16.305969399999949, 12.5650513 ], [ -16.306254699999954, 12.564938100000029 ], [ -16.306283199999942, 12.5649257 ], [ -16.306741799999951, 12.564745 ], [ -16.307500899999948, 12.5644413 ], [ -16.308359199999941, 12.564094500000024 ], [ -16.309330199999955, 12.5637136 ], [ -16.309670799999939, 12.5635709 ], [ -16.309818299999929, 12.563496300000017 ], [ -16.309941799999944, 12.5634347 ], [ -16.310070499999949, 12.56336270000002 ], [ -16.310204599999938, 12.5632829 ], [ -16.310408599999931, 12.563154 ], [ -16.310950199999933, 12.562814300000014 ], [ -16.311865, 12.562231 ], [ -16.312811499999949, 12.5616298 ], [ -16.313896599999943, 12.5609437 ], [ -16.315620899999942, 12.559851700000012 ], [ -16.317010599999939, 12.558989400000018 ], [ -16.319169899999942, 12.557636800000026 ], [ -16.319873199999932, 12.557191 ], [ -16.321417299999947, 12.5561756 ], [ -16.32255059999995, 12.5554834 ], [ -16.323261499999948, 12.55502440000002 ], [ -16.323485599999945, 12.5548025 ], [ -16.324486899999936, 12.5537699 ], [ -16.325004799999931, 12.5532813 ], [ -16.325853, 12.55272139999998 ], [ -16.32653439999995, 12.5522565 ], [ -16.326743, 12.5520903 ], [ -16.327669099999945, 12.551272600000017 ], [ -16.32789359999995, 12.5510995 ], [ -16.32823429999992, 12.550926400000026 ], [ -16.329019499999944, 12.550603700000032 ], [ -16.329816, 12.5503292 ], [ -16.330472399999948, 12.550044800000027 ], [ -16.332882, 12.548541 ], [ -16.333306099999941, 12.548351 ], [ -16.335451, 12.5475129 ], [ -16.336920599999935, 12.546916600000014 ], [ -16.338002499999938, 12.546352400000014 ], [ -16.338725599999933, 12.5458943 ], [ -16.33970239999994, 12.545266500000022 ], [ -16.34204539999994, 12.543702200000014 ], [ -16.343617599999938, 12.5426978 ], [ -16.34434319999994, 12.5423178 ], [ -16.34581369999994, 12.5416323 ], [ -16.347534399999937, 12.540855300000029 ], [ -16.34865769999994, 12.540460700000031 ], [ -16.348730499999938, 12.5404425 ], [ -16.350419699999918, 12.539986600000011 ], [ -16.352029199999937, 12.5395726 ], [ -16.352502, 12.5394233 ], [ -16.352797499999934, 12.539318100000015 ], [ -16.353301499999926, 12.53905 ], [ -16.354410399999935, 12.538391700000023 ], [ -16.35525169999994, 12.537882700000026 ], [ -16.355498499999943, 12.537740200000025 ], [ -16.355661899999934, 12.53760450000004 ], [ -16.355783599999938, 12.537421200000034 ], [ -16.355846099999923, 12.5372176 ], [ -16.35585309999993, 12.536919 ], [ -16.355710599999938, 12.536352300000019 ], [ -16.355401199999935, 12.535208700000013 ], [ -16.35522739999994, 12.534730300000017 ], [ -16.355119599999941, 12.534502899999987 ], [ -16.354695499999924, 12.5338107 ], [ -16.353890199999938, 12.532508 ], [ -16.353195899999928, 12.5314671 ], [ -16.352807899999927, 12.530664899999987 ], [ -16.352609699999928, 12.530098200000014 ], [ -16.352474199999943, 12.529650300000014 ], [ -16.35200859999993, 12.52795090000002 ], [ -16.350934, 12.5252902 ], [ -16.35000809999994, 12.5229966 ], [ -16.349221499999942, 12.521220900000015 ], [ -16.34854309999994, 12.519982700000034 ], [ -16.347892, 12.519003900000019 ], [ -16.346290699999933, 12.516694300000029 ], [ -16.345870799999943, 12.5160907 ], [ -16.345676599999944, 12.5157034 ], [ -16.345588099999937, 12.5153103 ], [ -16.345574099999926, 12.514285 ], [ -16.345570899999924, 12.514033 ], [ -16.345607499999936, 12.51315720000002 ], [ -16.345881099999932, 12.511969 ], [ -16.346426699999927, 12.510807 ], [ -16.347470399999942, 12.508654100000014 ], [ -16.34815579999993, 12.5072028 ] ], [ [ -16.353096, 12.491531 ], [ -16.352796599999945, 12.4919789 ], [ -16.35234989999994, 12.4926068 ], [ -16.351962299999943, 12.493227900000024 ], [ -16.35185629999993, 12.493389100000032 ], [ -16.351348799999933, 12.49432920000001 ], [ -16.351081099999931, 12.494879 ], [ -16.350638499999935, 12.495979300000021 ], [ -16.350217299999926, 12.4970375 ], [ -16.349807499999937, 12.4981506 ], [ -16.349676, 12.498623400000016 ], [ -16.349613299999938, 12.499128500000024 ], [ -16.349603499999933, 12.499754900000022 ], [ -16.349719699999927, 12.5010434 ], [ -16.349766599999942, 12.5020759 ], [ -16.349729799999942, 12.502801400000013 ], [ -16.349519299999937, 12.50387420000003 ], [ -16.349188799999929, 12.505024800000013 ], [ -16.348195399999934, 12.5071164 ] ], [ [ -16.35515779999994, 12.4882566 ], [ -16.355031599999933, 12.488519100000016 ], [ -16.354562599999927, 12.489357100000035 ], [ -16.353117099999942, 12.4914997 ] ], [ [ -16.779259234999603, 12.465603836000039 ], [ -16.779478734999611, 12.465583551000076 ], [ -16.779607840999642, 12.46555019000006 ], [ -16.779822144999638, 12.46547153800006 ], [ -16.78005352699962, 12.465411755000048 ], [ -16.780236509999618, 12.465425233000099 ], [ -16.780476542999629, 12.465388599000057 ], [ -16.780651771999601, 12.465451058000042 ], [ -16.780813491999591, 12.465524306000061 ], [ -16.781184007999624, 12.46557095000002 ], [ -16.781561558999627, 12.465644277000035 ], [ -16.781747089999627, 12.465682503000023 ], [ -16.781992321999635, 12.46569246000008 ], [ -16.782167052999633, 12.465739465000061 ], [ -16.782453334999605, 12.465871158000018 ], [ -16.7827448679996, 12.466073491000019 ], [ -16.78297675899961, 12.466191330000061 ], [ -16.783213395999624, 12.466316598000059 ], [ -16.783451254999594, 12.466453378000034 ], [ -16.783614803999637, 12.466546634000055 ], [ -16.783817411999628, 12.466745798000039 ], [ -16.783795401999598, 12.466735541000061 ], [ -16.783944328999613, 12.46683545200003 ], [ -16.784135618999585, 12.466956594000051 ], [ -16.784275515999649, 12.467030275000052 ], [ -16.784303150999627, 12.46703329800004 ], [ -16.784543089999595, 12.467149683000068 ], [ -16.784691417999632, 12.467214079000014 ], [ -16.784770281999617, 12.467161373000062 ], [ -16.784870649999618, 12.467103191000026 ], [ -16.784886998999635, 12.467091916000081 ], [ -16.785007452999583, 12.467072782000072 ], [ -16.785214686999595, 12.467183651000042 ], [ -16.785417575999585, 12.467361048000059 ], [ -16.785424584999586, 12.467371128000016 ], [ -16.785561273999637, 12.467549758000056 ], [ -16.785686488999605, 12.46766794400002 ], [ -16.785894848999583, 12.467815794000058 ], [ -16.786190201999602, 12.46795848300008 ], [ -16.786261704999621, 12.468021518000072 ], [ -16.786289428999609, 12.46812507200007 ], [ -16.786318300999614, 12.468288459000087 ], [ -16.786292373999629, 12.46856631900005 ], [ -16.786205347999612, 12.468816858 ], [ -16.785877021999625, 12.469201120000026 ], [ -16.785647602999628, 12.469553946000055 ], [ -16.785450006999614, 12.469973709000058 ], [ -16.785249705999608, 12.470254664000043 ], [ -16.785221811999637, 12.470273836000073 ], [ -16.785019360999627, 12.470533592000031 ], [ -16.784839562999601, 12.47077125500004 ], [ -16.784563074999589, 12.471027321000053 ], [ -16.784547353999589, 12.471018614000061 ], [ -16.784268091999603, 12.471195891000043 ], [ -16.783858536999613, 12.47143689300006 ], [ -16.783496201999636, 12.471585116 ], [ -16.78296653999962, 12.471681191000084 ], [ -16.782598181999621, 12.47161384500003 ], [ -16.782260279999598, 12.471672268000066 ], [ -16.782011097999607, 12.47181472300001 ], [ -16.781918496999594, 12.471929474000028 ] ], [ [ -16.781901581663515, 12.471937366337396 ], [ -16.78193231213589, 12.47200096739534 ], [ -16.782388530838695, 12.474149256471277 ], [ -16.784109242269828, 12.476921919991 ], [ -16.783849946742261, 12.479355145105705 ], [ -16.783861956943102, 12.481108645524346 ], [ -16.782430469341648, 12.483463688479292 ], [ -16.779669380701822, 12.485447987901267 ], [ -16.778506160019298, 12.486557278520211 ], [ -16.77533003085599, 12.491216426843765 ], [ -16.772118144414108, 12.49899469600448 ], [ -16.770093726459336, 12.504716046302205 ], [ -16.768552930166582, 12.50919461406478 ], [ -16.762197713903163, 12.517606550252113 ], [ -16.760277649912624, 12.520728591306908 ], [ -16.75964014682344, 12.523046787003398 ], [ -16.758369964932875, 12.527041365450616 ], [ -16.757656140162482, 12.528962335977852 ], [ -16.756221344997741, 12.533111652837286 ], [ -16.754001387110701, 12.538170012331939 ] ] ] } },
{ "type": "Feature", "properties": { "Code": "N12", "Parcours": "CF N4 - Ndieba -  Marsassoum  - Kamoya - Sédhiou - Diendé - Sitaba  - Mankonon Ba  - Diana  Malary - CF N6B3 (Kolda) - Pata - Frontière Gambie", "X_deb": 507498.24799200002, "Y_deb": 1427140.45738, "X_fin": 381394.26654600003, "Y_fin": 1421648.09246, "Lineaire": 219.71175332499999 }, "geometry": { "type": "MultiLineString", "coordinates": [ [ [ -15.987912837863028, 12.838009848135458 ], [ -15.991153, 12.8389288 ], [ -15.995789699999969, 12.8402729 ], [ -15.996253199999966, 12.8404057 ], [ -15.996704899999973, 12.840514 ], [ -16.003290699999972, 12.841977 ], [ -16.007823199999958, 12.842944499999978 ], [ -16.008463199999966, 12.8430705 ], [ -16.009154599999974, 12.8432027 ], [ -16.009697399999968, 12.8432903 ], [ -16.012687, 12.8437155 ], [ -16.013001899999974, 12.843742200000019 ], [ -16.013253299999967, 12.843745600000037 ], [ -16.013493599999979, 12.843743 ], [ -16.013695, 12.8437283 ], [ -16.01454709999997, 12.843592600000035 ], [ -16.014774599999967, 12.843563800000021 ], [ -16.015014199999975, 12.84355069999998 ], [ -16.01520559999997, 12.843560700000014 ], [ -16.015389599999967, 12.843583200000017 ], [ -16.016210399999977, 12.843730400000023 ], [ -16.019265299999962, 12.8442833 ], [ -16.020429299999975, 12.8445777 ], [ -16.021783899999974, 12.844980500000032 ], [ -16.024663399999966, 12.846014700000039 ], [ -16.027922099999977, 12.847228 ], [ -16.0282601, 12.847361300000028 ], [ -16.0286, 12.8475182 ], [ -16.028879899999982, 12.8476672 ], [ -16.029153399999981, 12.8478402 ], [ -16.029738599999984, 12.848225100000029 ], [ -16.029765899999962, 12.848243 ], [ -16.032418299999986, 12.850075100000026 ], [ -16.033968, 12.8510903 ], [ -16.036291499999969, 12.852643800000036 ], [ -16.037621399999974, 12.853590499999989 ], [ -16.03949279999998, 12.8548404 ], [ -16.039869899999982, 12.855086500000024 ], [ -16.040170799999963, 12.855267200000027 ], [ -16.040475499999964, 12.855424100000036 ], [ -16.040771599999974, 12.8555462 ], [ -16.041079299999975, 12.8556461 ], [ -16.04138, 12.8557246 ], [ -16.041672599999966, 12.855779 ], [ -16.042042699999957, 12.8558205 ], [ -16.042665299999967, 12.855855600000035 ], [ -16.045001199999973, 12.855956800000024 ], [ -16.049541, 12.8561356 ], [ -16.051882, 12.8562183 ], [ -16.054092099999981, 12.8563239 ], [ -16.056605899999969, 12.8564243 ], [ -16.060677499999983, 12.856595899999983 ], [ -16.069415099999969, 12.8569724 ], [ -16.072515699999979, 12.857071800000018 ], [ -16.077074399999969, 12.8572423 ], [ -16.080138499999968, 12.857329100000031 ], [ -16.082316499999976, 12.8573887 ], [ -16.087467899999961, 12.8576118 ], [ -16.088882499999972, 12.857636600000017 ], [ -16.089448499999978, 12.857656800000012 ], [ -16.093051799999969, 12.8576722 ] ] ] } },
{ "type": "Feature", "properties": { "Code": "N5", "Parcours": "CF N4 (Kaolack après Pont Serigne Bassirou MBACKE) - Passy - Sokone - Karang (frontière Gambie) - Séléty (frontière Gambie) - Diouloulou - Baila - CF N4 (Bignona)", "X_deb": 326749.726265, "Y_deb": 1442399.38148, "X_fin": 346145.28970099997, "Y_fin": 1503020.82596, "Lineaire": 151.680697732 }, "geometry": { "type": "MultiLineString", "coordinates": [ [ [ -16.224933568231933, 12.798272559403099 ], [ -16.229383166758964, 12.808236459570056 ], [ -16.231263466165597, 12.811347559635003 ], [ -16.233028353598538, 12.815283619021201 ], [ -16.237170164426349, 12.816444659815206 ], [ -16.245994661932968, 12.820118360065146 ], [ -16.253667659630505, 12.82817246030916 ], [ -16.266422399999922, 12.835849500000059 ], [ -16.283913370010602, 12.842431505288051 ], [ -16.290570057912479, 12.845871458532301 ], [ -16.296190747530833, 12.847795561554006 ], [ -16.307534844302825, 12.85281926189138 ], [ -16.315288641968941, 12.860633562146452 ], [ -16.324287343561171, 12.877319368398805 ], [ -16.329946537255953, 12.885494062685103 ], [ -16.33254723644831, 12.888867362775645 ], [ -16.34616623252159, 12.89605286319766 ], [ -16.349659931547588, 12.89674546330051 ], [ -16.353935430386084, 12.896560463421359 ], [ -16.360485537341575, 12.898417912957425 ], [ -16.377093272111736, 12.90332110555268 ], [ -16.396116918520637, 12.908090964703803 ], [ -16.410271866207445, 12.907792413742742 ], [ -16.416932312845152, 12.907734665318836 ], [ -16.431652808651506, 12.913231465789405 ], [ -16.434940807664951, 12.916030665903355 ], [ -16.442742705089028, 12.930059066213555 ], [ -16.453568901775984, 12.941063966601728 ], [ -16.464606198347642, 12.953695267007484 ], [ -16.478130494352605, 12.962558067473452 ], [ -16.486552491840502, 12.968741267769001 ], [ -16.499401988243175, 12.970873368184392 ], [ -16.512605884545476, 12.973063168614949 ], [ -16.519814682466336, 12.976055268861026 ], [ -16.540318076392261, 12.989170069591122 ], [ -16.54967907363373, 12.994612069924539 ], [ -16.552362072741541, 12.999144970036108 ], [ -16.555388971607439, 13.007982670181931 ], [ -16.571693066633031, 13.022063970793342 ], [ -16.578702664499634, 13.027876671056804 ], [ -16.582539863357418, 13.030297371197385 ], [ -16.588520561631913, 13.032473771408698 ], [ -16.593284260115389, 13.038265671598969 ], [ -16.597725858737686, 13.042598471771226 ], [ -16.596172058680576, 13.056493971792586 ], [ -16.595524058377755, 13.070272471843829 ], [ -16.59345865867606, 13.078094671816039 ], [ -16.582746461197566, 13.090905571525646 ], [ -16.577732161661817, 13.117658671500939 ], [ -16.575948061746935, 13.129533571505027 ], [ -16.57541166152885, 13.140159671543797 ], [ -16.578340160286356, 13.15251147170703 ], [ -16.576532160366593, 13.164750771712168 ] ], [ [ -16.22605309999993, 12.800847600000033 ], [ -16.226024899999949, 12.800784300000016 ], [ -16.225617399999958, 12.799871800000071 ], [ -16.225345899999965, 12.799263800000029 ], [ -16.225194099999943, 12.798924 ], [ -16.224933899999936, 12.7983413 ] ] ] } }
]
}
