{
"type": "FeatureCollection",
"name": "Zig_geo",
"crs": { "type": "name", "properties": { "name": "urn:ogc:def:crs:OGC:1.3:CRS84" } },
"features": [
{ "type": "Feature", "properties": { "NOM": "ZIGUINCHOR" }, "geometry": { "type": "MultiPolygon", "coordinates": [ [ [ [ -16.379087405853156, 12.36750786089563 ], [ -16.381001683024166, 12.362525740269275 ], [ -16.385850957010103, 12.363070657247315 ], [ -16.398798646682351, 12.36469502551574 ], [ -16.409472014874858, 12.365770031658197 ], [ -16.415718507047998, 12.366189633961563 ], [ -16.418312401665087, 12.366293653061629 ], [ -16.424342493900802, 12.365810123173585 ], [ -16.429194248116168, 12.365106639073247 ], [ -16.437805822102035, 12.364157217739592 ], [ -16.443080487860804, 12.36345125801807 ], [ -16.446097291307122, 12.363543730300712 ], [ -16.448355711116907, 12.362853682043252 ], [ -16.451884019267879, 12.362319573861724 ], [ -16.44942931097841, 12.36576804877364 ], [ -16.448340486043467, 12.366768302332682 ], [ -16.447571916275152, 12.367477552230797 ], [ -16.446865483241261, 12.369452141190918 ], [ -16.446378303034304, 12.371163388491381 ], [ -16.446297031214044, 12.371435035970517 ], [ -16.445594509678845, 12.374123802782789 ], [ -16.444735541447592, 12.375122824374806 ], [ -16.443883378355565, 12.375687862977411 ], [ -16.442302428109738, 12.375840902461199 ], [ -16.441434861062344, 12.375275950287728 ], [ -16.440857757905597, 12.374013335272867 ], [ -16.439839991123275, 12.372888659776587 ], [ -16.436951916980238, 12.374495070967091 ], [ -16.436264279427544, 12.374878406826543 ], [ -16.43575596174367, 12.376101565025197 ], [ -16.4352658348616, 12.37728846444468 ], [ -16.435860617727215, 12.38010597308373 ], [ -16.43715275928605, 12.380948954381175 ], [ -16.439322433281102, 12.382492443633311 ], [ -16.441043704954591, 12.382763577636011 ], [ -16.444053922253413, 12.38161753403064 ], [ -16.446064844719313, 12.381046330135435 ], [ -16.44851496508743, 12.38173844127212 ], [ -16.450529112447384, 12.383418269454394 ], [ -16.4514170166253, 12.387653514441849 ], [ -16.451731659513847, 12.391331307906801 ], [ -16.451459220714888, 12.395283452741488 ], [ -16.452001745239407, 12.396925917863399 ], [ -16.452488094515669, 12.398387872213391 ], [ -16.452658735079758, 12.402626938690807 ], [ -16.452339691587245, 12.403143953262109 ], [ -16.451380801995651, 12.404378588352664 ], [ -16.450617596817484, 12.406073238667894 ], [ -16.449805045342618, 12.407162439661914 ], [ -16.449180333293793, 12.408955792392852 ], [ -16.448313633032779, 12.41023512967997 ], [ -16.447794927972449, 12.411241392735876 ], [ -16.447305060340149, 12.412473513235435 ], [ -16.446588047169708, 12.414213112336316 ], [ -16.446296222547588, 12.414666693509574 ], [ -16.445867232179481, 12.415265653844711 ], [ -16.445432834779314, 12.416551719376081 ], [ -16.444814181286372, 12.417784523947352 ], [ -16.444285255255298, 12.418610027490194 ], [ -16.443994170274031, 12.419199210365848 ], [ -16.443611904430924, 12.41993352663296 ], [ -16.443130454822548, 12.421029990424238 ], [ -16.44275638551682, 12.421583452442553 ], [ -16.442557272559327, 12.422172144588583 ], [ -16.440855685020903, 12.423853691088588 ], [ -16.439922574368875, 12.424780783439045 ], [ -16.439722070902491, 12.428461332366785 ], [ -16.439663854065895, 12.429582663611194 ], [ -16.440971011936497, 12.433101502590343 ], [ -16.444732663193861, 12.436336025090014 ], [ -16.453969865451533, 12.439975058353552 ], [ -16.456053336437073, 12.440795574105749 ], [ -16.457418109007016, 12.443048332157657 ], [ -16.458866501444202, 12.445445276129723 ], [ -16.460753528564279, 12.448960850702992 ], [ -16.46263985076056, 12.452340803670012 ], [ -16.464979990135731, 12.459533321394062 ], [ -16.466878403733158, 12.465037651277688 ], [ -16.468916102893473, 12.469121861926405 ], [ -16.470100102658684, 12.473527113151107 ], [ -16.470838572916204, 12.478856898781626 ], [ -16.468844535624363, 12.482538148527729 ], [ -16.466984963146846, 12.483967606624455 ], [ -16.46483691602462, 12.484820037417579 ], [ -16.460239326347359, 12.485269871081865 ], [ -16.457072156552378, 12.484862104681678 ], [ -16.455204562090273, 12.484872189428422 ], [ -16.453336209107935, 12.48474665913041 ], [ -16.45141502501404, 12.485046299795332 ], [ -16.450042828889629, 12.486454947865671 ], [ -16.448608632044166, 12.488297864082432 ], [ -16.449642700394847, 12.492252011191386 ], [ -16.45198445753773, 12.49806143054275 ], [ -16.454881854803308, 12.502846249955633 ], [ -16.458058778719771, 12.504953558277389 ], [ -16.463475131046717, 12.506054219026144 ], [ -16.467961224301028, 12.506979032982954 ], [ -16.472438908826089, 12.508039419585863 ], [ -16.478555338210221, 12.510880711400528 ], [ -16.479580179040731, 12.51149885998187 ], [ -16.484224300277525, 12.514293855512282 ], [ -16.488611040919491, 12.52032659763738 ], [ -16.491047319631434, 12.526370069144859 ], [ -16.492885307645484, 12.530762465035298 ], [ -16.493587663663014, 12.534483138954791 ], [ -16.493839943838154, 12.538341914993206 ], [ -16.493007341415186, 12.540769326808881 ], [ -16.489059797126551, 12.545600655638536 ], [ -16.488941309120037, 12.547400321259749 ], [ -16.489348849037384, 12.549459234968181 ], [ -16.489504872096944, 12.552586291439965 ], [ -16.49238218944938, 12.555246208918275 ], [ -16.49556325355891, 12.556313317754626 ], [ -16.498164590938451, 12.557383624870303 ], [ -16.501996864343859, 12.558067325235333 ], [ -16.50524156741734, 12.557407281170651 ], [ -16.509188923286416, 12.555730748794094 ], [ -16.5136573643269, 12.553472654681167 ], [ -16.518644005317153, 12.551717808977438 ], [ -16.521174575447635, 12.551703474152518 ], [ -16.52462029759187, 12.552389045096621 ], [ -16.527614943059955, 12.55460491406172 ], [ -16.530306170323897, 12.558413528912743 ], [ -16.532998134594816, 12.563885474872519 ], [ -16.536778975950284, 12.577568537066815 ], [ -16.537458097266072, 12.583431623368602 ], [ -16.537486948004844, 12.588276915924432 ], [ -16.535849977091402, 12.596223468574372 ], [ -16.533642527600986, 12.601117759059887 ], [ -16.529817222398297, 12.607928756019044 ], [ -16.526866662068723, 12.613270228035926 ], [ -16.522383228910503, 12.619361709692212 ], [ -16.5199724051438, 12.622620834852691 ], [ -16.512347375880424, 12.617348564888252 ], [ -16.508731226107038, 12.614430981602355 ], [ -16.503108467114824, 12.611497518057682 ], [ -16.496922742742406, 12.608286830907142 ], [ -16.490991370010097, 12.606059945917787 ], [ -16.482062777264154, 12.604410048602684 ], [ -16.474869494055337, 12.603600055694693 ], [ -16.462215625425777, 12.602367775488155 ], [ -16.451699603077159, 12.599920916346944 ], [ -16.442599908351401, 12.59230392627329 ], [ -16.430603777905858, 12.580109522610734 ], [ -16.425267019368093, 12.577028066644464 ], [ -16.42065056139279, 12.576040061637904 ], [ -16.410728661491284, 12.574284403249868 ], [ -16.401654933554841, 12.572777062200014 ], [ -16.396907603273206, 12.571391530451946 ], [ -16.393154312296705, 12.568301114806559 ], [ -16.388371802746452, 12.563769474426605 ], [ -16.386068329383974, 12.561557405267843 ], [ -16.383749148273775, 12.559842626871307 ], [ -16.378851414806025, 12.556079830066263 ], [ -16.373365859103849, 12.55424559740322 ], [ -16.363589255056755, 12.555425553917722 ], [ -16.352166962675657, 12.567516573240429 ], [ -16.348317058648977, 12.57403625291705 ], [ -16.346214111019666, 12.578476788120323 ], [ -16.345669374059053, 12.579917002411513 ], [ -16.345605795167032, 12.580080055097932 ], [ -16.343989770049806, 12.584364439472063 ], [ -16.340539822270078, 12.593540012177026 ], [ -16.340004139905677, 12.594962092640213 ], [ -16.336854662553584, 12.598223482441123 ], [ -16.335422415875929, 12.598935817821802 ], [ -16.33441576725038, 12.60007093808332 ], [ -16.331841708321626, 12.602488616111083 ], [ -16.321868625641869, 12.607058515999531 ], [ -16.312660869065713, 12.606534332285854 ], [ -16.30402735395506, 12.604885960287397 ], [ -16.297318378593307, 12.601528280225891 ], [ -16.29249297278545, 12.599291429169051 ], [ -16.287293820995416, 12.595926167918298 ], [ -16.282106788204391, 12.593121271985877 ], [ -16.263112326498366, 12.592081509674328 ], [ -16.261392229800652, 12.592324691371768 ], [ -16.254270898706, 12.59297296342146 ], [ -16.251119204046187, 12.594117850896922 ], [ -16.249393503690374, 12.595111389768876 ], [ -16.245234036326764, 12.597255433128394 ], [ -16.239067404020766, 12.601235021328312 ], [ -16.234626411596587, 12.604221039923406 ], [ -16.232337334125511, 12.606781188557603 ], [ -16.229465520780899, 12.608765373512899 ], [ -16.22645226903434, 12.610054016051368 ], [ -16.217260331287576, 12.612925924754542 ], [ -16.208037006776401, 12.609152429503908 ], [ -16.200536593507362, 12.603671116039513 ], [ -16.19720699846517, 12.600295602657534 ], [ -16.19230474245515, 12.597207332900393 ], [ -16.185804451208515, 12.590880249255981 ], [ -16.182779494364873, 12.58962786468485 ], [ -16.179759026277342, 12.589351878705074 ], [ -16.177744514300645, 12.589650073002819 ], [ -16.160929648925784, 12.59226416057404 ], [ -16.156481454458071, 12.593838532602298 ], [ -16.152455338408597, 12.595121694172432 ], [ -16.147571256715608, 12.595992579295631 ], [ -16.13581808270283, 12.59852008601834 ], [ -16.133491316758576, 12.599018193256033 ], [ -16.125731978558388, 12.60131132207888 ], [ -16.116985035817429, 12.607288223678848 ], [ -16.110969298599084, 12.612674871610487 ], [ -16.10853091210085, 12.615090024496832 ], [ -16.101502302782855, 12.618364987502936 ], [ -16.085534047392827, 12.619424946775863 ], [ -16.082081764252464, 12.619438960293765 ], [ -16.061443938706716, 12.620082379459731 ], [ -16.056989332100912, 12.620389382529643 ], [ -16.049812512701795, 12.62366363137048 ], [ -16.04350145277435, 12.629339383291411 ], [ -16.042217697259623, 12.630619267859334 ], [ -16.032191004955266, 12.641960288044244 ], [ -16.029040177260185, 12.646068330291905 ], [ -16.021595954450994, 12.654153082086916 ], [ -16.017720987536055, 12.65684424806134 ], [ -16.016373658995693, 12.65841360105683 ], [ -16.011688583411289, 12.658847362144176 ], [ -16.009100681883503, 12.65872155868394 ], [ -16.003778617612536, 12.65874167784186 ], [ -15.99852732238023, 12.658020005665868 ], [ -15.995352644000391, 12.656169300732021 ], [ -15.993137768334016, 12.65487556341842 ], [ -15.989934775076302, 12.652825975531888 ], [ -15.987532639792791, 12.650710085388056 ], [ -15.984928015176916, 12.648603960834759 ], [ -15.984854147853516, 12.648549983441113 ], [ -15.984276983971879, 12.646906518860689 ], [ -15.983953756860423, 12.64665454374161 ], [ -15.982740055575977, 12.644687921319873 ], [ -15.980932729598122, 12.64157517407042 ], [ -15.97962414695809, 12.638858416341915 ], [ -15.97804055295334, 12.636450078545371 ], [ -15.976827223690703, 12.634555754008325 ], [ -15.975246871851857, 12.632988268503146 ], [ -15.972651189335167, 12.63073730042527 ], [ -15.971496070017009, 12.629611285947526 ], [ -15.970340415330774, 12.628340598965927 ], [ -15.968749607255132, 12.62642047683123 ], [ -15.967531505480338, 12.625674426495152 ], [ -15.968513384858385, 12.624811894331012 ], [ -15.968766712753149, 12.623626499479043 ], [ -15.968474404833186, 12.621792074980494 ], [ -15.968064117754512, 12.620410167510911 ], [ -15.967449358627961, 12.618513617047432 ], [ -15.96701190572216, 12.617249348784657 ], [ -15.966581628340666, 12.61544254492102 ], [ -15.96611443130444, 12.613608747809446 ], [ -15.965583747362329, 12.612028349415784 ], [ -15.964803320926281, 12.610132387705427 ], [ -15.963818176676966, 12.607649442789633 ], [ -15.963295443727972, 12.605725419410085 ], [ -15.962914319267954, 12.604741233917602 ], [ -15.96242178254316, 12.603504277613338 ], [ -15.962180976214327, 12.60064792682727 ], [ -15.962229667576233, 12.598893636708207 ], [ -15.960941890567087, 12.596701101791036 ], [ -15.96010310139941, 12.59641477537583 ], [ -15.959579221488875, 12.596642701365417 ], [ -15.958508109901281, 12.595769483579742 ], [ -15.957712468063818, 12.594705396106757 ], [ -15.959178301759733, 12.592801357463019 ], [ -15.959606220346545, 12.59152492339078 ], [ -15.959466559023005, 12.591100457697546 ], [ -15.959464475424733, 12.590539870971657 ], [ -15.958880839977649, 12.58954736026887 ], [ -15.958889004306089, 12.589267033843374 ], [ -15.959044857462271, 12.589094680304848 ], [ -15.960325268359009, 12.586847711810416 ], [ -15.96183035413809, 12.585612617270879 ], [ -15.962492935272223, 12.583087562598996 ], [ -15.964466605024418, 12.581624724389995 ], [ -15.965924398587747, 12.580064274157527 ], [ -15.965466798170556, 12.578311808365644 ], [ -15.964770586147322, 12.576750079285347 ], [ -15.964765050970296, 12.575267237659659 ], [ -15.964762924839892, 12.574697609429986 ], [ -15.965329403954225, 12.573565338945931 ], [ -15.965325723839689, 12.57257979171551 ], [ -15.96489913283671, 12.571731395252975 ], [ -15.963311168983207, 12.570462208586274 ], [ -15.962584789006383, 12.568204356634629 ], [ -15.958114285952878, 12.566529546892447 ], [ -15.958067057487307, 12.566204208690799 ], [ -15.957826835130628, 12.565960936869864 ], [ -15.957268907828055, 12.564434854793017 ], [ -15.956573923976871, 12.563180515940163 ], [ -15.957090584298601, 12.561017666103707 ], [ -15.95607235794829, 12.559466096576994 ], [ -15.955182770369644, 12.557850770992641 ], [ -15.954767544623332, 12.557571951191886 ], [ -15.954498220727404, 12.556921894638553 ], [ -15.95468787500103, 12.555935655261386 ], [ -15.95480619566627, 12.555573559125595 ], [ -15.955044670552004, 12.555346663384782 ], [ -15.955153319340711, 12.554858015302104 ], [ -15.955148249416464, 12.553483668160117 ], [ -15.954607778133603, 12.551686257728058 ], [ -15.954598913539568, 12.549281149184736 ], [ -15.955168861442923, 12.546593683053695 ], [ -15.955299118669531, 12.544477419283215 ], [ -15.953790562482624, 12.544717871432393 ], [ -15.954291210870345, 12.543206097675622 ], [ -15.953188449719372, 12.541166547594541 ], [ -15.951489861774993, 12.539780119188071 ], [ -15.951323665508118, 12.539636037571125 ], [ -15.949920804546451, 12.538574058602778 ], [ -15.948855111489442, 12.536588606681789 ], [ -15.94828999304131, 12.535577908706074 ], [ -15.947879983023133, 12.53419594386633 ], [ -15.947791766271443, 12.532722424143115 ], [ -15.947650015697581, 12.531710230288946 ], [ -15.946770614983134, 12.53032087534185 ], [ -15.945507059470961, 12.529583886149604 ], [ -15.943318550800939, 12.530106964908001 ], [ -15.941301483542848, 12.529689065862438 ], [ -15.938276652636977, 12.527999758220332 ], [ -15.936266298612789, 12.526885566941383 ], [ -15.935251892010784, 12.526319455355507 ], [ -15.934247213604772, 12.525897976927114 ], [ -15.930639137905771, 12.523225029482596 ], [ -15.927467229594651, 12.521545140476528 ], [ -15.924438069602632, 12.518589802561774 ], [ -15.924233352078902, 12.517957567874456 ], [ -15.92434011853468, 12.516926416145241 ], [ -15.923975705430207, 12.515381490188078 ], [ -15.923132720326704, 12.51382916335394 ], [ -15.922261399394142, 12.51206896456174 ], [ -15.921973066935125, 12.511210964085459 ], [ -15.922254980926567, 12.510260590169752 ], [ -15.921815432028254, 12.508281901209923 ], [ -15.922094200821354, 12.506445423664097 ], [ -15.921335555695519, 12.505308730162623 ], [ -15.921801388075693, 12.504321559360436 ], [ -15.922371135262624, 12.501498508619484 ], [ -15.923082403677101, 12.499660548754601 ], [ -15.923075889816056, 12.49782504748323 ], [ -15.923210393328356, 12.496829967885086 ], [ -15.923067869239505, 12.495564577589683 ], [ -15.922627834279167, 12.493441216396887 ], [ -15.922051123222214, 12.491698085013432 ], [ -15.92167862435522, 12.490451563419271 ], [ -15.920983902319447, 12.489160931865792 ], [ -15.920334237975252, 12.48759888410367 ], [ -15.920403441865975, 12.486350851614855 ], [ -15.921155655979726, 12.485688217119083 ], [ -15.921522447812448, 12.485325283996522 ], [ -15.922321913826373, 12.485015123088671 ], [ -15.922808646259554, 12.484742198152187 ], [ -15.923332056379701, 12.484432978849462 ], [ -15.924020583089611, 12.48397852104873 ], [ -15.925627446427642, 12.483005518137629 ], [ -15.927032955179362, 12.482340626083019 ], [ -15.928898118854175, 12.481556598953066 ], [ -15.92939078072385, 12.480370402048759 ], [ -15.928998703856699, 12.478798446716734 ], [ -15.928617863955795, 12.477796096961345 ], [ -15.927968639255049, 12.476360653848545 ], [ -15.927271806689424, 12.474473272409028 ], [ -15.926298752741912, 12.472532584222767 ], [ -15.925503362519903, 12.471386978368038 ], [ -15.924901173455343, 12.47023166583385 ], [ -15.924113331712206, 12.468615844682844 ], [ -15.923740864228817, 12.467369322209732 ], [ -15.923470765347309, 12.466447961165152 ], [ -15.923009621834515, 12.466142109271695 ], [ -15.922724387713354, 12.466143083932906 ], [ -15.920994101331859, 12.466013359750262 ], [ -15.91741114081016, 12.467580781988847 ], [ -15.915903451362764, 12.467956622752077 ], [ -15.914249013319429, 12.468468582683425 ], [ -15.913252384013832, 12.470271319125599 ], [ -15.911672737092474, 12.471126608733403 ], [ -15.910810278303925, 12.471834798427587 ], [ -15.909512890146855, 12.471839172500315 ], [ -15.908658174316114, 12.472131395961778 ], [ -15.906791778320367, 12.472562647716094 ], [ -15.904196489554092, 12.472426680409791 ], [ -15.902474862435154, 12.472152137866363 ], [ -15.900743037084728, 12.471588272301327 ], [ -15.899592400158545, 12.471456478040837 ], [ -15.89873617594918, 12.471314656799732 ], [ -15.897435860292996, 12.470469028292872 ], [ -15.894126787030663, 12.468789139536305 ], [ -15.891960622417907, 12.467666043750905 ], [ -15.89167053051456, 12.466247395123617 ], [ -15.891257490986888, 12.463852606571654 ], [ -15.890371808896603, 12.463159286770745 ], [ -15.889393319446384, 12.462231174977358 ], [ -15.889018992526017, 12.460387820665227 ], [ -15.888867495653537, 12.459131468376368 ], [ -15.888670858241969, 12.458128442843172 ], [ -15.88880339101838, 12.456518514394382 ], [ -15.888568722159647, 12.455153929709697 ], [ -15.888445511455927, 12.45409640951156 ], [ -15.88857946081057, 12.452902412541169 ], [ -15.888771013947567, 12.452413509673192 ], [ -15.888943426287861, 12.451707659317071 ], [ -15.888996321673648, 12.451029328150243 ], [ -15.889113067213881, 12.450188029268064 ], [ -15.890263360851444, 12.450247539185661 ], [ -15.893501205518938, 12.45001080738775 ], [ -15.895762631388138, 12.449442716381009 ], [ -15.901907053209356, 12.448970189578098 ], [ -15.915370673845885, 12.447225048164928 ], [ -15.939943623014535, 12.444202120662911 ], [ -15.95136623915708, 12.44303194621917 ], [ -15.953417060810764, 12.442798677933174 ], [ -15.982350896631488, 12.452306685627745 ], [ -15.992816347866544, 12.455885195799977 ], [ -15.997679418543546, 12.457223563964407 ], [ -16.001455957638562, 12.458330782259479 ], [ -16.001678576949125, 12.458800132007502 ], [ -16.006645978013118, 12.460924581908294 ], [ -16.014523561982067, 12.463725196243633 ], [ -16.027267353266286, 12.468541495899895 ], [ -16.032446738941665, 12.470664633838725 ], [ -16.03655442581702, 12.471670609178446 ], [ -16.038821001168603, 12.47244852637764 ], [ -16.050248624353106, 12.472404307532257 ], [ -16.061030298170298, 12.471910061609282 ], [ -16.068896145377497, 12.471652989772975 ], [ -16.084412606557663, 12.468082965627264 ], [ -16.094753899931391, 12.465780844449542 ], [ -16.105415577609943, 12.463142493059866 ], [ -16.118337848119008, 12.459924774495603 ], [ -16.12630573290123, 12.457857342163097 ], [ -16.138585841440058, 12.455201941228683 ], [ -16.149256177110214, 12.452670388943684 ], [ -16.157003242621393, 12.450720565363783 ], [ -16.159584871998486, 12.449913862412513 ], [ -16.16261060927064, 12.449674834726192 ], [ -16.171994862098586, 12.451786167454411 ], [ -16.180201609542944, 12.453893263337145 ], [ -16.186679944921099, 12.456242767048549 ], [ -16.192397248610142, 12.457121732647462 ], [ -16.200610015345475, 12.460475848012782 ], [ -16.202766456664406, 12.461252846632647 ], [ -16.212780877474334, 12.458269674637346 ], [ -16.224506410268884, 12.453361668906952 ], [ -16.231277687822832, 12.449488407878972 ], [ -16.234185919927977, 12.447775408071406 ], [ -16.234929455497184, 12.447428449065111 ], [ -16.240207396574579, 12.444927018609532 ], [ -16.245909947460554, 12.442749019824035 ], [ -16.250857020845878, 12.440357415491423 ], [ -16.26355542792356, 12.435325814290902 ], [ -16.27033970610421, 12.432464204373641 ], [ -16.278402849518585, 12.427797234255966 ], [ -16.285927378253316, 12.424027667971322 ], [ -16.293129732913822, 12.420259449417035 ], [ -16.302807544886502, 12.414906041117801 ], [ -16.311406328962718, 12.410904644501935 ], [ -16.321079956244958, 12.404872599373382 ], [ -16.329994268383334, 12.399739020170044 ], [ -16.336548015071433, 12.395303917380376 ], [ -16.342562925669608, 12.39165789570985 ], [ -16.345043233103912, 12.391076048668193 ], [ -16.354184319801718, 12.387305803002771 ], [ -16.363649674803597, 12.382276976890752 ], [ -16.370738119518617, 12.378290498257879 ], [ -16.375360783874967, 12.375898470882177 ], [ -16.379087405853156, 12.36750786089563 ] ] ] ] } },
{ "type": "Feature", "properties": { "NOM": "OUSSOUYE" }, "geometry": { "type": "MultiPolygon", "coordinates": [ [ [ [ -16.719445008730414, 12.338641253758206 ], [ -16.721371366690995, 12.337969219019401 ], [ -16.721833469303263, 12.338336917727208 ], [ -16.721927531838894, 12.338661743136729 ], [ -16.721643119174907, 12.338753933657785 ], [ -16.722569811012683, 12.339868968912947 ], [ -16.723336404003216, 12.341807599595908 ], [ -16.723776527957231, 12.344435287452118 ], [ -16.724325947082253, 12.345498462553648 ], [ -16.726044952409556, 12.346852529605581 ], [ -16.726781288413672, 12.348375523046526 ], [ -16.728585800956473, 12.3501448398801 ], [ -16.731098043346773, 12.351873486466898 ], [ -16.732129681742052, 12.352156187443338 ], [ -16.733365409584017, 12.354109869033435 ], [ -16.734067855991146, 12.354665837521432 ], [ -16.734748502481732, 12.356098760980791 ], [ -16.734760583656044, 12.35932573644272 ], [ -16.735276418817371, 12.359467078228853 ], [ -16.73555532134198, 12.364111529376634 ], [ -16.737036714649598, 12.369833022538533 ], [ -16.737064243895393, 12.371215866472435 ], [ -16.738476564541102, 12.374822576694438 ], [ -16.741290636787735, 12.379034971094899 ], [ -16.74136941047232, 12.379820887296406 ], [ -16.741880650622587, 12.380649228368762 ], [ -16.743546016001659, 12.382184270884917 ], [ -16.745045892281073, 12.382337350241093 ], [ -16.748187592184429, 12.381865191332325 ], [ -16.74941131376783, 12.381974826531444 ], [ -16.750091166016272, 12.383263065880515 ], [ -16.750443376610626, 12.385059613308439 ], [ -16.752047563991763, 12.388438998267217 ], [ -16.753429794006493, 12.390246969756113 ], [ -16.754970788735289, 12.391041509046671 ], [ -16.757723880737565, 12.391575095871348 ], [ -16.759669933220117, 12.393804221035438 ], [ -16.760211393594375, 12.395011967604871 ], [ -16.763089095796683, 12.397659861200948 ], [ -16.766264405526332, 12.398064058012876 ], [ -16.76837775536017, 12.401900990649148 ], [ -16.770825247026444, 12.404822759920776 ], [ -16.772318865635427, 12.405391512071848 ], [ -16.774563541824445, 12.405512423667913 ], [ -16.775959859773987, 12.410718874682095 ], [ -16.778572216520704, 12.416224662915759 ], [ -16.778825378072423, 12.418292962665598 ], [ -16.780604437357631, 12.422954504584206 ], [ -16.780811093129387, 12.424941752292174 ], [ -16.781740518206632, 12.426372858897849 ], [ -16.781959916923618, 12.427528421708335 ], [ -16.783244865719084, 12.429843013169188 ], [ -16.784126828724968, 12.439138434405656 ], [ -16.784929677787581, 12.442224507984518 ], [ -16.787253012444914, 12.44841901303354 ], [ -16.788365587122552, 12.449713282274896 ], [ -16.789313523319784, 12.452482002665626 ], [ -16.789535781565156, 12.454044288967895 ], [ -16.791264652078524, 12.458019057740335 ], [ -16.791579589412102, 12.459680154640575 ], [ -16.791559411545819, 12.466116090077998 ], [ -16.792090886565745, 12.472512204148067 ], [ -16.793552501425655, 12.480393567903747 ], [ -16.793999074589376, 12.486464822012499 ], [ -16.793468695233081, 12.48825807752692 ], [ -16.792131197420691, 12.490400183675934 ], [ -16.788339105730586, 12.499464414289587 ], [ -16.787447234428953, 12.503546942758376 ], [ -16.78616904686999, 12.504965516197384 ], [ -16.78269601628535, 12.514994773249876 ], [ -16.78247382816236, 12.517472946777806 ], [ -16.781538193915164, 12.517876864095825 ], [ -16.780003779116296, 12.520851836389962 ], [ -16.779445071732397, 12.521217096758141 ], [ -16.778766052064352, 12.522821504487554 ], [ -16.776532261292417, 12.525783012638797 ], [ -16.775283571796869, 12.528846471636614 ], [ -16.77277338021095, 12.531764589681872 ], [ -16.769576680595954, 12.536558308070726 ], [ -16.765331031554464, 12.540012072095251 ], [ -16.764665548169901, 12.54092035830908 ], [ -16.762403091175898, 12.542417635204053 ], [ -16.75975302003441, 12.545101564674402 ], [ -16.755359206293615, 12.548456743989584 ], [ -16.752249404699839, 12.549851021380166 ], [ -16.752751940326394, 12.554765045476239 ], [ -16.753087002141299, 12.55804407158112 ], [ -16.748530275062905, 12.559122366542779 ], [ -16.738617248004168, 12.561446630205744 ], [ -16.727565841120427, 12.564202733389278 ], [ -16.717667177190474, 12.567375870632958 ], [ -16.709208381719225, 12.571244558028191 ], [ -16.698878488117348, 12.574700031980671 ], [ -16.698667731511183, 12.5748369594998 ], [ -16.69636732284771, 12.576270724327015 ], [ -16.682549268234496, 12.583978152493074 ], [ -16.669508062372962, 12.590984073087125 ], [ -16.656894978134755, 12.597417294256505 ], [ -16.64285809648111, 12.605838419999984 ], [ -16.637700784085865, 12.609684796540567 ], [ -16.631980752725749, 12.614809118868315 ], [ -16.623833849593357, 12.621918764781823 ], [ -16.617534243262842, 12.627181958698586 ], [ -16.61377665979893, 12.631254500849231 ], [ -16.606924782254776, 12.636593150568377 ], [ -16.59807183598695, 12.642892835611629 ], [ -16.591994573532396, 12.647069429502327 ], [ -16.587586371152849, 12.648759057493837 ], [ -16.580911979737817, 12.65019992433905 ], [ -16.576044688864023, 12.650608442145527 ], [ -16.567008753434148, 12.649766808339642 ], [ -16.557451912241195, 12.646514248975711 ], [ -16.541420932300962, 12.638182212778178 ], [ -16.533277460571007, 12.632561080574913 ], [ -16.5199724051438, 12.622620834852691 ], [ -16.522383228910503, 12.619361709692212 ], [ -16.526866662068723, 12.613270228035926 ], [ -16.529817222398297, 12.607928756019044 ], [ -16.533642527600986, 12.601117759059887 ], [ -16.535849977091402, 12.596223468574372 ], [ -16.537486948004844, 12.588276915924432 ], [ -16.537458097266072, 12.583431623368602 ], [ -16.536778975950284, 12.577568537066815 ], [ -16.532998134594816, 12.563885474872519 ], [ -16.530306170323897, 12.558413528912743 ], [ -16.527614943059955, 12.55460491406172 ], [ -16.52462029759187, 12.552389045096621 ], [ -16.521174575447635, 12.551703474152518 ], [ -16.518644005317153, 12.551717808977438 ], [ -16.5136573643269, 12.553472654681167 ], [ -16.509188923286416, 12.555730748794094 ], [ -16.50524156741734, 12.557407281170651 ], [ -16.501996864343859, 12.558067325235333 ], [ -16.498164590938451, 12.557383624870303 ], [ -16.49556325355891, 12.556313317754626 ], [ -16.49238218944938, 12.555246208918275 ], [ -16.489504872096944, 12.552586291439965 ], [ -16.489348849037384, 12.549459234968181 ], [ -16.488941309120037, 12.547400321259749 ], [ -16.489059797126551, 12.545600655638536 ], [ -16.493007341415186, 12.540769326808881 ], [ -16.493839943838154, 12.538341914993206 ], [ -16.493587663663014, 12.534483138954791 ], [ -16.492885307645484, 12.530762465035298 ], [ -16.491047319631434, 12.526370069144859 ], [ -16.488611040919491, 12.52032659763738 ], [ -16.484224300277525, 12.514293855512282 ], [ -16.479580179040731, 12.51149885998187 ], [ -16.478555338210221, 12.510880711400528 ], [ -16.472438908826089, 12.508039419585863 ], [ -16.467961224301028, 12.506979032982954 ], [ -16.463475131046717, 12.506054219026144 ], [ -16.458058778719771, 12.504953558277389 ], [ -16.454881854803308, 12.502846249955633 ], [ -16.45198445753773, 12.49806143054275 ], [ -16.449642700394847, 12.492252011191386 ], [ -16.448608632044166, 12.488297864082432 ], [ -16.450042828889629, 12.486454947865671 ], [ -16.45141502501404, 12.485046299795332 ], [ -16.453336209107935, 12.48474665913041 ], [ -16.455204562090273, 12.484872189428422 ], [ -16.457072156552378, 12.484862104681678 ], [ -16.460239326347359, 12.485269871081865 ], [ -16.46483691602462, 12.484820037417579 ], [ -16.466984963146846, 12.483967606624455 ], [ -16.468844535624363, 12.482538148527729 ], [ -16.470838572916204, 12.478856898781626 ], [ -16.470100102658684, 12.473527113151107 ], [ -16.468916102893473, 12.469121861926405 ], [ -16.466878403733158, 12.465037651277688 ], [ -16.464979990135731, 12.459533321394062 ], [ -16.46263985076056, 12.452340803670012 ], [ -16.460753528564279, 12.448960850702992 ], [ -16.458866501444202, 12.445445276129723 ], [ -16.457418109007016, 12.443048332157657 ], [ -16.456053336437073, 12.440795574105749 ], [ -16.453969865451533, 12.439975058353552 ], [ -16.444732663193861, 12.436336025090014 ], [ -16.440971011936497, 12.433101502590343 ], [ -16.439663854065895, 12.429582663611194 ], [ -16.439722070902491, 12.428461332366785 ], [ -16.439922574368875, 12.424780783439045 ], [ -16.440855685020903, 12.423853691088588 ], [ -16.442557272559327, 12.422172144588583 ], [ -16.44275638551682, 12.421583452442553 ], [ -16.443130454822548, 12.421029990424238 ], [ -16.443611904430924, 12.41993352663296 ], [ -16.443994170274031, 12.419199210365848 ], [ -16.444285255255298, 12.418610027490194 ], [ -16.444814181286372, 12.417784523947352 ], [ -16.445432834779314, 12.416551719376081 ], [ -16.445867232179481, 12.415265653844711 ], [ -16.446296222547588, 12.414666693509574 ], [ -16.446588047169708, 12.414213112336316 ], [ -16.447305060340149, 12.412473513235435 ], [ -16.447794927972449, 12.411241392735876 ], [ -16.448313633032779, 12.41023512967997 ], [ -16.449180333293793, 12.408955792392852 ], [ -16.449805045342618, 12.407162439661914 ], [ -16.450617596817484, 12.406073238667894 ], [ -16.451380801995651, 12.404378588352664 ], [ -16.452339691587245, 12.403143953262109 ], [ -16.452658735079758, 12.402626938690807 ], [ -16.452488094515669, 12.398387872213391 ], [ -16.452001745239407, 12.396925917863399 ], [ -16.451459220714888, 12.395283452741488 ], [ -16.451731659513847, 12.391331307906801 ], [ -16.4514170166253, 12.387653514441849 ], [ -16.450529112447384, 12.383418269454394 ], [ -16.44851496508743, 12.38173844127212 ], [ -16.446064844719313, 12.381046330135435 ], [ -16.444053922253413, 12.38161753403064 ], [ -16.441043704954591, 12.382763577636011 ], [ -16.439322433281102, 12.382492443633311 ], [ -16.43715275928605, 12.380948954381175 ], [ -16.435860617727215, 12.38010597308373 ], [ -16.4352658348616, 12.37728846444468 ], [ -16.43575596174367, 12.376101565025197 ], [ -16.436264279427544, 12.374878406826543 ], [ -16.436951916980238, 12.374495070967091 ], [ -16.439839991123275, 12.372888659776587 ], [ -16.440857757905597, 12.374013335272867 ], [ -16.441434861062344, 12.375275950287728 ], [ -16.442302428109738, 12.375840902461199 ], [ -16.443883378355565, 12.375687862977411 ], [ -16.444735541447592, 12.375122824374806 ], [ -16.445594509678845, 12.374123802782789 ], [ -16.446297031214044, 12.371435035970517 ], [ -16.446378303034304, 12.371163388491381 ], [ -16.446865483241261, 12.369452141190918 ], [ -16.447571916275152, 12.367477552230797 ], [ -16.448340486043467, 12.366768302332682 ], [ -16.44942931097841, 12.36576804877364 ], [ -16.451884019267879, 12.362319573861724 ], [ -16.459877727159643, 12.361101552672867 ], [ -16.468499405833537, 12.360377141260717 ], [ -16.476468125647504, 12.359656003906229 ], [ -16.484865133540421, 12.358254273844892 ], [ -16.494652009197853, 12.355488616926491 ], [ -16.499389655029837, 12.354215006347308 ], [ -16.507890155427496, 12.351681990962714 ], [ -16.512518653289362, 12.350643817376721 ], [ -16.514347786077657, 12.350516131346547 ], [ -16.521153959658829, 12.353985823030234 ], [ -16.524938380746818, 12.354868680678175 ], [ -16.531091228013185, 12.356642195636102 ], [ -16.535621146389833, 12.357629185178642 ], [ -16.540798087797764, 12.359181964286609 ], [ -16.543496946416127, 12.359962208390172 ], [ -16.545228300889594, 12.360404392686348 ], [ -16.547490324406866, 12.360391541983326 ], [ -16.550181856497503, 12.359924220492834 ], [ -16.57223680875774, 12.354482182765921 ], [ -16.582678497666539, 12.352279216392377 ], [ -16.590750418547341, 12.350532676692691 ], [ -16.597089564694052, 12.348127117488941 ], [ -16.600323301969205, 12.347656145211536 ], [ -16.603051380220489, 12.347197151313633 ], [ -16.603115686727957, 12.347187733032484 ], [ -16.606028964269658, 12.346944578575169 ], [ -16.608936461916539, 12.347261901425687 ], [ -16.613261128623943, 12.349270302233204 ], [ -16.619950251012959, 12.351490570283458 ], [ -16.624163322928936, 12.353273446975102 ], [ -16.628164967790127, 12.355057515670781 ], [ -16.634433498873019, 12.357623421084101 ], [ -16.638104252054511, 12.359409313336457 ], [ -16.641120811275776, 12.359499620534473 ], [ -16.645865301735515, 12.359470974751607 ], [ -16.65233134851437, 12.359775310710122 ], [ -16.655136417877564, 12.359866745019147 ], [ -16.65815227973707, 12.359848389859186 ], [ -16.66654905323124, 12.358667152631796 ], [ -16.673441435589826, 12.358064413016464 ], [ -16.676136879119106, 12.35827382082203 ], [ -16.681527768426218, 12.358692554651959 ], [ -16.684433936203114, 12.358783062304253 ], [ -16.687672612164349, 12.359106506041838 ], [ -16.689723687502447, 12.359202256498691 ], [ -16.691546131992641, 12.358060994018587 ], [ -16.695620194189587, 12.355323789020218 ], [ -16.706556909329677, 12.347463423559846 ], [ -16.713103409649264, 12.343237067110801 ], [ -16.716534199053569, 12.340621157658106 ], [ -16.718552869692687, 12.338592642268829 ], [ -16.719445008730414, 12.338641253758206 ] ] ] ] } },
{ "type": "Feature", "properties": { "NOM": "BIGNONA" }, "geometry": { "type": "MultiPolygon", "coordinates": [ [ [ [ -16.363589255056755, 12.555425553917722 ], [ -16.373365859103849, 12.55424559740322 ], [ -16.378851414806025, 12.556079830066263 ], [ -16.383749148273775, 12.559842626871307 ], [ -16.386068329383974, 12.561557405267843 ], [ -16.388371802746452, 12.563769474426605 ], [ -16.393154312296705, 12.568301114806559 ], [ -16.396907603273206, 12.571391530451946 ], [ -16.401654933554841, 12.572777062200014 ], [ -16.410728661491284, 12.574284403249868 ], [ -16.42065056139279, 12.576040061637904 ], [ -16.425267019368093, 12.577028066644464 ], [ -16.430603777905858, 12.580109522610734 ], [ -16.442599908351401, 12.59230392627329 ], [ -16.451699603077159, 12.599920916346944 ], [ -16.462215625425777, 12.602367775488155 ], [ -16.474869494055337, 12.603600055694693 ], [ -16.482062777264154, 12.604410048602684 ], [ -16.490991370010097, 12.606059945917787 ], [ -16.496922742742406, 12.608286830907142 ], [ -16.503108467114824, 12.611497518057682 ], [ -16.508731226107038, 12.614430981602355 ], [ -16.512347375880424, 12.617348564888252 ], [ -16.5199724051438, 12.622620834852691 ], [ -16.533277460571007, 12.632561080574913 ], [ -16.541420932300962, 12.638182212778178 ], [ -16.557451912241195, 12.646514248975711 ], [ -16.567008753434148, 12.649766808339642 ], [ -16.576044688864023, 12.650608442145527 ], [ -16.580911979737817, 12.65019992433905 ], [ -16.587586371152849, 12.648759057493837 ], [ -16.591994573532396, 12.647069429502327 ], [ -16.59807183598695, 12.642892835611629 ], [ -16.606924782254776, 12.636593150568377 ], [ -16.61377665979893, 12.631254500849231 ], [ -16.617534243262842, 12.627181958698586 ], [ -16.623833849593357, 12.621918764781823 ], [ -16.631980752725749, 12.614809118868315 ], [ -16.637700784085865, 12.609684796540567 ], [ -16.64285809648111, 12.605838419999984 ], [ -16.656894978134755, 12.597417294256505 ], [ -16.669508062372962, 12.590984073087125 ], [ -16.682549268234496, 12.583978152493074 ], [ -16.69636732284771, 12.576270724327015 ], [ -16.698667731511183, 12.5748369594998 ], [ -16.698878488117348, 12.574700031980671 ], [ -16.709208381719225, 12.571244558028191 ], [ -16.717667177190474, 12.567375870632958 ], [ -16.727565841120427, 12.564202733389278 ], [ -16.738617248004168, 12.561446630205744 ], [ -16.748530275062905, 12.559122366542779 ], [ -16.753087002141299, 12.55804407158112 ], [ -16.753855618648352, 12.565550583778265 ], [ -16.757690312782394, 12.566537845976029 ], [ -16.761894851642356, 12.569131580662733 ], [ -16.765811006345672, 12.572603931504439 ], [ -16.7669607408254, 12.576564510376251 ], [ -16.767058119126684, 12.582728524487077 ], [ -16.766509185992284, 12.58723361214369 ], [ -16.765990906006142, 12.588149980835775 ], [ -16.764856688825681, 12.589160803517206 ], [ -16.764145707188245, 12.590159792740495 ], [ -16.764005080533725, 12.591127902966988 ], [ -16.76390027432231, 12.591951151501599 ], [ -16.763565778302596, 12.592830149129615 ], [ -16.764829722402229, 12.593291844982229 ], [ -16.765198386988075, 12.59471758764448 ], [ -16.765882434335957, 12.597849632871149 ], [ -16.766325522550854, 12.602076994069881 ], [ -16.766566137435184, 12.607643472750084 ], [ -16.767198510370967, 12.611282034883516 ], [ -16.767691557778512, 12.614731694398047 ], [ -16.769196891179512, 12.622178944036323 ], [ -16.771117252832358, 12.629731883506141 ], [ -16.773093312426226, 12.634663103387796 ], [ -16.774852961085717, 12.638899734314535 ], [ -16.775209738895789, 12.64124750188464 ], [ -16.774917365191381, 12.642894549530311 ], [ -16.774451074574266, 12.643349605583238 ], [ -16.774720901819212, 12.645101377095799 ], [ -16.774665025544632, 12.646340093898496 ], [ -16.774179730694396, 12.648042660603009 ], [ -16.773333150520592, 12.649413189131536 ], [ -16.775051640426671, 12.651670533062875 ], [ -16.778194174293517, 12.652200946978638 ], [ -16.780576130395239, 12.653224513857317 ], [ -16.781689699746806, 12.654518677713591 ], [ -16.781965225929703, 12.655755173209966 ], [ -16.781531686894844, 12.656951219347539 ], [ -16.779406249077141, 12.659740402718567 ], [ -16.77750807015493, 12.663450033277757 ], [ -16.775984430624334, 12.666750401260922 ], [ -16.775597183487399, 12.669320060653281 ], [ -16.775479761617895, 12.672303712188945 ], [ -16.775699493802943, 12.674787967230591 ], [ -16.775273481707806, 12.675748945339969 ], [ -16.7745671755331, 12.676115220881004 ], [ -16.775221442747473, 12.676210281385099 ], [ -16.775730742094154, 12.676640751208051 ], [ -16.77581985354491, 12.677544054662173 ], [ -16.774395201616635, 12.68052739746736 ], [ -16.772535334642782, 12.68580954545825 ], [ -16.771040124756603, 12.691911805285224 ], [ -16.76940356552559, 12.698882749772322 ], [ -16.777590841970738, 12.704558740306432 ], [ -16.779098480061144, 12.704232269989349 ], [ -16.781445775541325, 12.704171322856741 ], [ -16.783126617315684, 12.704919301018018 ], [ -16.78361947074924, 12.706940709054404 ], [ -16.783596771874212, 12.708965582891036 ], [ -16.782818696866599, 12.710932264033655 ], [ -16.781856784962159, 12.718224113676873 ], [ -16.78168488178639, 12.721298507413541 ], [ -16.78204880900055, 12.721992057684412 ], [ -16.780984709893417, 12.725198996359413 ], [ -16.780116648962494, 12.731432659216072 ], [ -16.780127437469474, 12.735617612955984 ], [ -16.782559706037329, 12.739768185077622 ], [ -16.784917035996138, 12.742409732003576 ], [ -16.784850559810703, 12.744751257280862 ], [ -16.783513936442933, 12.751123666060048 ], [ -16.780943952787592, 12.754955414706984 ], [ -16.782436337943832, 12.764246389802331 ], [ -16.783452414876834, 12.76600211608757 ], [ -16.786459841590286, 12.769380409266232 ], [ -16.787090728733769, 12.771355654358617 ], [ -16.786810534448975, 12.776039690423199 ], [ -16.786185347192511, 12.777499182523812 ], [ -16.786394616629526, 12.77975748528697 ], [ -16.784567464553639, 12.788411022987333 ], [ -16.784253274381602, 12.796123313249296 ], [ -16.783394874351366, 12.797168595506546 ], [ -16.783049542591122, 12.799141408664127 ], [ -16.779888485918036, 12.822474073833337 ], [ -16.779015313557579, 12.825363385297839 ], [ -16.778357590344037, 12.830077092674369 ], [ -16.775638952421478, 12.839080129489021 ], [ -16.774449428230309, 12.845469625027354 ], [ -16.772464171633121, 12.851367356014517 ], [ -16.772036365016366, 12.856043353717226 ], [ -16.769988583605436, 12.863550425357079 ], [ -16.764004975716254, 12.880014463381436 ], [ -16.763228059681509, 12.88748583908766 ], [ -16.761901955483047, 12.892845807251843 ], [ -16.761700545993065, 12.898297628968203 ], [ -16.7600711267614, 12.906407468809576 ], [ -16.758474099784639, 12.91125403930193 ], [ -16.75827902331725, 12.916299068441209 ], [ -16.756474847848395, 12.927112717099662 ], [ -16.755563883168591, 12.92861930662138 ], [ -16.754349217180877, 12.932821535496984 ], [ -16.750316042955895, 12.94251124804709 ], [ -16.74982975583006, 12.948100574337827 ], [ -16.749008690172204, 12.950618910030848 ], [ -16.747950056902184, 12.957396178294047 ], [ -16.746840730142466, 12.960874573810431 ], [ -16.747126014037359, 12.964777480352591 ], [ -16.746487569286046, 12.967059576745759 ], [ -16.746257012983389, 12.971002099979978 ], [ -16.745499381553994, 12.972055700339089 ], [ -16.744817099216966, 12.974663491452489 ], [ -16.744217702658258, 12.982549466178865 ], [ -16.743627244402422, 12.985111446451743 ], [ -16.743943416593574, 12.990794815219216 ], [ -16.743185573636243, 12.995789392457498 ], [ -16.742719891298464, 13.000384295580401 ], [ -16.742611239358169, 13.000665231705391 ], [ -16.742161088582041, 13.003524555421752 ], [ -16.741934304001727, 13.005370019597329 ], [ -16.74119385746377, 13.007580487844287 ], [ -16.740739525760258, 13.009843269536125 ], [ -16.740523840594353, 13.011959827168329 ], [ -16.740484932541424, 13.01431021094451 ], [ -16.740273472742828, 13.017032348537933 ], [ -16.74027410357305, 13.017122733625744 ], [ -16.740287604481058, 13.019056974346956 ], [ -16.740250027067983, 13.021597165907322 ], [ -16.740408559157796, 13.024497597532662 ], [ -16.740521639273428, 13.027488722546057 ], [ -16.74049000862388, 13.029558848562072 ], [ -16.740976572165962, 13.031905699103453 ], [ -16.740797136877564, 13.033931622908879 ], [ -16.741330758618783, 13.036413738122684 ], [ -16.741445834350131, 13.039685051147526 ], [ -16.741556427434716, 13.042314630532326 ], [ -16.741938089476978, 13.044155999974411 ], [ -16.742474669974687, 13.047053876732138 ], [ -16.742728866564427, 13.049122073577442 ], [ -16.743639059532484, 13.05270438343735 ], [ -16.744173788406037, 13.055331096119751 ], [ -16.74451862441558, 13.057172703747913 ], [ -16.744900979707396, 13.059104445733643 ], [ -16.745572005560913, 13.061440986928199 ], [ -16.746521166479905, 13.062681941345158 ], [ -16.747005285077034, 13.064658183298375 ], [ -16.748458056834306, 13.066709221097694 ], [ -16.748538432646434, 13.067648719190593 ], [ -16.747646663868316, 13.069326942342192 ], [ -16.747040128305855, 13.070921885147238 ], [ -16.746058111083379, 13.072880920408068 ], [ -16.744942678499836, 13.074226211375107 ], [ -16.743453351877957, 13.074850912609111 ], [ -16.741715011222567, 13.075468246657577 ], [ -16.739849132436316, 13.07499272270746 ], [ -16.738295791835249, 13.074379497582985 ], [ -16.736138549933216, 13.074430162677688 ], [ -16.735242502466701, 13.075511815293101 ], [ -16.733759135503828, 13.076995121911812 ], [ -16.732022451214366, 13.077856435148989 ], [ -16.731403170555836, 13.0789633378568 ], [ -16.730935445564107, 13.080647715288675 ], [ -16.73008596026326, 13.081801354130086 ], [ -16.730653623833188, 13.083867464560443 ], [ -16.731783813786375, 13.085938837100715 ], [ -16.733058647630543, 13.087593440467375 ], [ -16.73423207218789, 13.089248716958785 ], [ -16.734896414414763, 13.09062720387521 ], [ -16.736115803690971, 13.093574722138429 ], [ -16.734249107194749, 13.094319431444218 ], [ -16.73289213642634, 13.095431299649814 ], [ -16.731645613663602, 13.095195621432966 ], [ -16.730156061294238, 13.095811226405241 ], [ -16.728912942900543, 13.096063614336092 ], [ -16.727621636993728, 13.096018034472936 ], [ -16.728419301013162, 13.096681570714384 ], [ -16.728519077115514, 13.097765573801194 ], [ -16.729506730673904, 13.097903574173225 ], [ -16.730534109826991, 13.098448055542885 ], [ -16.731617198225315, 13.099046391630784 ], [ -16.732794461674008, 13.099924295876002 ], [ -16.734113213059455, 13.101253187297052 ], [ -16.736039305340917, 13.102397202624061 ], [ -16.737121887506998, 13.104233843239921 ], [ -16.738012385413267, 13.104978067489929 ], [ -16.738251989141315, 13.106269012103027 ], [ -16.738704828527975, 13.107721217218346 ], [ -16.739092299282827, 13.1090563565682 ], [ -16.739105191044075, 13.110891161849118 ], [ -16.738242043971827, 13.112731880062706 ], [ -16.737887721654829, 13.114804174651061 ], [ -16.736520559571183, 13.115789596104662 ], [ -16.733536176506224, 13.116297803008353 ], [ -16.732294672327239, 13.116794258165344 ], [ -16.730666536882854, 13.116073053810908 ], [ -16.729532460353507, 13.114788107734844 ], [ -16.728638156405712, 13.113501546085542 ], [ -16.728771368141601, 13.111448816897134 ], [ -16.727406031701797, 13.110056941929011 ], [ -16.725144636142009, 13.109764770430445 ], [ -16.723839062484714, 13.109005198882945 ], [ -16.722330523059338, 13.109557624415478 ], [ -16.720691618615238, 13.109930133436311 ], [ -16.719707433465935, 13.110298263119361 ], [ -16.720313552045656, 13.111261385097665 ], [ -16.720881846663286, 13.112089173387103 ], [ -16.721774220983768, 13.113104611843834 ], [ -16.723747105253381, 13.114338790696896 ], [ -16.724683276389449, 13.115019482752711 ], [ -16.726684484672315, 13.116343834995309 ], [ -16.727322666173659, 13.117930405894118 ], [ -16.728699421097865, 13.119629521993065 ], [ -16.728220204052022, 13.12231729793565 ], [ -16.726867294386942, 13.124034733986047 ], [ -16.72524851736317, 13.124660237079743 ], [ -16.723252218918859, 13.124049924649311 ], [ -16.722167392075768, 13.123216564006658 ], [ -16.720708978050922, 13.121707774227303 ], [ -16.718634362417188, 13.121766828134787 ], [ -16.717640090232731, 13.122017516295875 ], [ -16.71664926674935, 13.122765321019035 ], [ -16.714776329606043, 13.122651259320339 ], [ -16.713652940387856, 13.122902793042664 ], [ -16.712664604047845, 13.124012126940169 ], [ -16.711676196405531, 13.125112419471296 ], [ -16.711182396006549, 13.125721315403672 ], [ -16.711368754326895, 13.127329015846295 ], [ -16.711698853390768, 13.128384381435611 ], [ -16.712835988458774, 13.130112298089159 ], [ -16.712856288537758, 13.133040791555832 ], [ -16.71186785086428, 13.134141088426761 ], [ -16.709639502075092, 13.135990825010795 ], [ -16.709636999749666, 13.135629282117776 ], [ -16.708891667237118, 13.135878288672979 ], [ -16.707759711915628, 13.13490055749976 ], [ -16.707293966375008, 13.134234763805514 ], [ -16.705879736095337, 13.132445385563695 ], [ -16.704660074665313, 13.132119027733074 ], [ -16.703492634530665, 13.132678141541984 ], [ -16.702270725921274, 13.133364157411981 ], [ -16.701990559298345, 13.134197601459979 ], [ -16.702410989022692, 13.134981213656838 ], [ -16.702928694471165, 13.135158566557244 ], [ -16.704248203325687, 13.136587028748723 ], [ -16.70490843149512, 13.137369045999069 ], [ -16.704907133147231, 13.138517008487247 ], [ -16.704811362562946, 13.139340193115993 ], [ -16.704670788695253, 13.140353493949778 ], [ -16.70439505557334, 13.141828680274342 ], [ -16.704301529681555, 13.142977254211988 ], [ -16.705148793530249, 13.144128627293631 ], [ -16.705903837058099, 13.145280608731692 ], [ -16.706655013040418, 13.145872195079487 ], [ -16.708208333800432, 13.146422291923411 ], [ -16.708958266514323, 13.146833099023413 ], [ -16.710223479311832, 13.148397463839274 ], [ -16.710461696745117, 13.149498633229856 ], [ -16.711556273602064, 13.151723969394689 ], [ -16.71218864817185, 13.153798717471783 ], [ -16.71133521858042, 13.155756822577791 ], [ -16.709850330909934, 13.157104481645399 ], [ -16.707734045754222, 13.157850722378468 ], [ -16.706480453518093, 13.156638793445724 ], [ -16.704268343585106, 13.155532648584193 ], [ -16.703975866102379, 13.154585494391576 ], [ -16.70187726266931, 13.15254755422662 ], [ -16.70098417530647, 13.152779445248784 ], [ -16.700277480666809, 13.153290309100949 ], [ -16.700135578876992, 13.154113798958772 ], [ -16.700421497724115, 13.15544968039285 ], [ -16.700886774944529, 13.15604317407656 ], [ -16.701687336604174, 13.157104473444861 ], [ -16.702396233508132, 13.158247728254956 ], [ -16.703152565578989, 13.159580484597297 ], [ -16.704270433063389, 13.161172968576052 ], [ -16.703168758043066, 13.163259249880822 ], [ -16.70191604110115, 13.163511612469529 ], [ -16.700671671283121, 13.163637367800771 ], [ -16.699549760868514, 13.162795131938134 ], [ -16.697612266920871, 13.161388826846748 ], [ -16.696619629491106, 13.160563798823107 ], [ -16.695052011472789, 13.160628388370828 ], [ -16.69417826508084, 13.160995717521876 ], [ -16.693561159801057, 13.161126335939809 ], [ -16.693067249484709, 13.161735209684501 ], [ -16.693070601796069, 13.162223295816496 ], [ -16.69244426904115, 13.162353972817122 ], [ -16.692082834465925, 13.163450080098384 ], [ -16.691786500438511, 13.163280291632848 ], [ -16.691837333661379, 13.163966924042761 ], [ -16.691794069563947, 13.164383005318676 ], [ -16.692212794844757, 13.164913548385179 ], [ -16.692289091575866, 13.166621424307785 ], [ -16.691799388606775, 13.167844924192277 ], [ -16.690565901497187, 13.169561434162139 ], [ -16.685335174339819, 13.1694783403956 ], [ -16.684956130605201, 13.169354283054593 ], [ -16.681222130329626, 13.169622834053936 ], [ -16.6703749646807, 13.168355894803621 ], [ -16.660163239601609, 13.168295622737563 ], [ -16.650815313440333, 13.167750308807735 ], [ -16.645965135816049, 13.168025526227527 ], [ -16.640976575779419, 13.168301538105165 ], [ -16.636368079435435, 13.167472239281887 ], [ -16.632137485324776, 13.167987305011682 ], [ -16.609702520391597, 13.16642058684385 ], [ -16.601856793207968, 13.167084360593284 ], [ -16.595878710206321, 13.166995056296148 ], [ -16.573200866323727, 13.166402886953991 ], [ -16.565729200877318, 13.166448582122113 ], [ -16.552278594817231, 13.166286225673785 ], [ -16.535963697535625, 13.166872533684865 ], [ -16.50817799411303, 13.166793263548895 ], [ -16.49099032723484, 13.166523066826125 ], [ -16.468811310087094, 13.166162810647693 ], [ -16.460474360522106, 13.166581027951541 ], [ -16.438178020839285, 13.166706946968496 ], [ -16.432438739599881, 13.166494964853747 ], [ -16.414374256714492, 13.166224513689 ], [ -16.393200907855768, 13.165978721365009 ], [ -16.371401422646183, 13.165969569929368 ], [ -16.355703655647936, 13.166667712445934 ], [ -16.337388281449432, 13.166149065528888 ], [ -16.318954280243766, 13.16588284536058 ], [ -16.304995096339077, 13.165710109482889 ], [ -16.302502966982697, 13.165478675477136 ], [ -16.284819222415564, 13.165811902160719 ], [ -16.264751380557236, 13.165423383534327 ], [ -16.250801204013491, 13.165247647848041 ], [ -16.243696916455562, 13.16515560055274 ], [ -16.233603581895714, 13.165086779814802 ], [ -16.215914465924321, 13.164429843467623 ], [ -16.194235406516871, 13.16477572312523 ], [ -16.170323486449114, 13.165129965906175 ], [ -16.146034766294179, 13.165854347423556 ], [ -16.125849575336836, 13.166187790088022 ], [ -16.107159341997811, 13.166630737890994 ], [ -16.092214206556108, 13.166938883603164 ], [ -16.088061623222245, 13.166766658315181 ], [ -16.076517379554513, 13.16627287012315 ], [ -16.06106203588066, 13.16597558103383 ], [ -16.039623924081504, 13.16471616301663 ], [ -16.025054752924675, 13.164530640836752 ], [ -16.000440644626263, 13.164998446855865 ], [ -16.000521699584922, 13.164509897618537 ], [ -15.976315171443943, 13.167767600721893 ], [ -15.963257788117589, 13.169688520904829 ], [ -15.951524326478877, 13.170446574444567 ], [ -15.930384987547528, 13.170243807422787 ], [ -15.911883301551139, 13.169731564507652 ], [ -15.895001862270796, 13.168208718526975 ], [ -15.894998710075733, 13.167340735519721 ], [ -15.894989320502697, 13.164754869125591 ], [ -15.895563400881388, 13.162772755295221 ], [ -15.896289729768652, 13.16206497544291 ], [ -15.895855720655213, 13.159426340904968 ], [ -15.896278385531483, 13.156404968951504 ], [ -15.896563701822965, 13.153673407138577 ], [ -15.896410334942871, 13.15209166036666 ], [ -15.896994001385666, 13.150218009819612 ], [ -15.896626434811482, 13.148085471901414 ], [ -15.89670296500821, 13.146294965223138 ], [ -15.897261208268644, 13.14504527432517 ], [ -15.897857335671075, 13.144066698555719 ], [ -15.899182780470774, 13.145752847053487 ], [ -15.901820842592699, 13.145598939447616 ], [ -15.904020265129056, 13.146594831053054 ], [ -15.906956471886124, 13.144721918969832 ], [ -15.908418614620247, 13.143423808711377 ], [ -15.910465126736296, 13.142982573009084 ], [ -15.913105984742256, 13.141101599867584 ], [ -15.917494854820186, 13.137921426225509 ], [ -15.920563302749818, 13.134456582352744 ], [ -15.923635956675126, 13.132139969899063 ], [ -15.926563118208097, 13.130402507598884 ], [ -15.927872072468986, 13.127667241005534 ], [ -15.929629747624785, 13.126512620947278 ], [ -15.930509397666151, 13.124927170718465 ], [ -15.932696248152745, 13.122613661619376 ], [ -15.934740893707524, 13.119297040700996 ], [ -15.93575725071925, 13.117286126535626 ], [ -15.936044813627767, 13.115268816860482 ], [ -15.935553308454601, 13.112142226502929 ], [ -15.935205751154742, 13.110488884381528 ], [ -15.934156634989222, 13.108702461913296 ], [ -15.932563161898591, 13.104431574734306 ], [ -15.931455110232232, 13.101677903181379 ], [ -15.930543403929937, 13.099619717260181 ], [ -15.928306826927635, 13.096002105866887 ], [ -15.924905811988198, 13.094242172160012 ], [ -15.921444294956679, 13.096044794709508 ], [ -15.91850099804185, 13.0933337700479 ], [ -15.916606168762513, 13.094769082630433 ], [ -15.914259910225024, 13.096359690309919 ], [ -15.913085835105434, 13.095649561673037 ], [ -15.909417325621185, 13.096376809068873 ], [ -15.907209650294289, 13.095525628669492 ], [ -15.905159291030737, 13.094809500915666 ], [ -15.903544048267372, 13.09452583103451 ], [ -15.901924630665546, 13.093093877194905 ], [ -15.901442654925193, 13.092453605115121 ], [ -15.900812344886264, 13.091605892058448 ], [ -15.896194907946608, 13.090093931189546 ], [ -15.893983677229878, 13.088229977307845 ], [ -15.897937014388733, 13.087212629994623 ], [ -15.898816228190913, 13.085482614407866 ], [ -15.899033334664798, 13.084306443640706 ], [ -15.899241379790425, 13.08317551253602 ], [ -15.899825946126629, 13.081591186801845 ], [ -15.899378386562068, 13.077713876227337 ], [ -15.899516572356303, 13.077668186732634 ], [ -15.900288650107232, 13.074383375910461 ], [ -15.900684761936738, 13.071705664983989 ], [ -15.902309527191559, 13.069575207706597 ], [ -15.905576602977954, 13.067619825849892 ], [ -15.907766673982662, 13.063724235940677 ], [ -15.908784614471301, 13.062138371984419 ], [ -15.910607032533298, 13.061128338180222 ], [ -15.912214660250365, 13.059395718976045 ], [ -15.914413571640916, 13.0579503335994 ], [ -15.915427219080062, 13.055216174494472 ], [ -15.916886151165881, 13.053194723778342 ], [ -15.917911646506635, 13.051183845490231 ], [ -15.919368932151935, 13.048728390497706 ], [ -15.920904785727487, 13.047574643614301 ], [ -15.922215541587034, 13.045409028354946 ], [ -15.923302835144462, 13.042674582115064 ], [ -15.923089657316122, 13.042386010154752 ], [ -15.924981345914297, 13.040218311638045 ], [ -15.924974425903558, 13.038355761815199 ], [ -15.925557663000379, 13.036482062142515 ], [ -15.926137126702844, 13.033595712959805 ], [ -15.925512929870218, 13.031889075862123 ], [ -15.925821153271322, 13.030459397662064 ], [ -15.926168289239804, 13.027094671546044 ], [ -15.926291574574838, 13.025530029077984 ], [ -15.926665177212973, 13.02432615714687 ], [ -15.926924188688558, 13.022064823667721 ], [ -15.927472144803584, 13.020634286768221 ], [ -15.927882283791144, 13.019339866505844 ], [ -15.927774359815402, 13.017595217686555 ], [ -15.929446281901978, 13.015898447671304 ], [ -15.930462285181353, 13.013878522594489 ], [ -15.931183747630639, 13.012004317434776 ], [ -15.932065194487054, 13.010997532382977 ], [ -15.932641776314206, 13.009838132797787 ], [ -15.93366536258141, 13.007393213860139 ], [ -15.933807514202707, 13.005955084052466 ], [ -15.9342338764533, 13.004081933545464 ], [ -15.934966673891152, 13.002786343394693 ], [ -15.935403327716436, 13.00120248640088 ], [ -15.936066178371261, 13.000928849290952 ], [ -15.936349026562802, 13.000132166736874 ], [ -15.9366332972505, 12.999715227016415 ], [ -15.937816268393551, 12.997993050099794 ], [ -15.939091323615536, 12.996243410909713 ], [ -15.940217784720755, 12.994214013961299 ], [ -15.942250193645211, 12.990373006397537 ], [ -15.943457263585366, 12.987728475809275 ], [ -15.944106239925409, 12.986234253127838 ], [ -15.945575937581113, 12.984782253709954 ], [ -15.947001094749599, 12.983746323228788 ], [ -15.947808179592771, 12.982622223065075 ], [ -15.949234378749681, 12.981866567576802 ], [ -15.950135601206044, 12.981257488941713 ], [ -15.951035822207613, 12.980386204622192 ], [ -15.951743493056778, 12.979795911839561 ], [ -15.952747734937672, 12.979611403144975 ], [ -15.953557985823076, 12.979328144360645 ], [ -15.954084395381162, 12.979561295460792 ], [ -15.954748374268634, 12.979604066987239 ], [ -15.955124787089542, 12.979186771678636 ], [ -15.955843011097274, 12.978949051901953 ], [ -15.956219040919351, 12.978432299070771 ], [ -15.956697762639097, 12.978249706985146 ], [ -15.957166883621806, 12.977967691900011 ], [ -15.95788652119596, 12.978100666733967 ], [ -15.958531364365133, 12.977962667549274 ], [ -15.958807982880925, 12.977970689685991 ], [ -15.959001695554116, 12.977997100358825 ], [ -15.959602486511649, 12.978392714434339 ], [ -15.961114549609887, 12.97840521505057 ], [ -15.961814256090559, 12.978149464551086 ], [ -15.962338200248526, 12.977740655727489 ], [ -15.962691079109254, 12.976003367155947 ], [ -15.963175634292053, 12.974943709145903 ], [ -15.963182208823032, 12.974256524892141 ], [ -15.962912204802484, 12.973570364243937 ], [ -15.962919649949017, 12.973109216147789 ], [ -15.963251369725896, 12.973062780529848 ], [ -15.963528678769954, 12.97325162700059 ], [ -15.964044992979229, 12.973258756240986 ], [ -15.964422112181657, 12.973031319414215 ], [ -15.964715560369148, 12.972623360778874 ], [ -15.964987431976832, 12.97140174009046 ], [ -15.965644099505534, 12.969554823137537 ], [ -15.966467504057739, 12.967915242149699 ], [ -15.967290339618568, 12.966130996012062 ], [ -15.967673831039026, 12.962784188583488 ], [ -15.967456803284851, 12.961492049603327 ], [ -15.967071711231902, 12.959648997960732 ], [ -15.967021360138991, 12.958546112258494 ], [ -15.96733891953806, 12.957224862631024 ], [ -15.967704210055665, 12.956328389660602 ], [ -15.968612347661809, 12.955158651429491 ], [ -15.969887819572271, 12.953625880465372 ], [ -15.970978591420748, 12.952012418180766 ], [ -15.971886348268963, 12.950752255922147 ], [ -15.973441453422421, 12.950023126856262 ], [ -15.976094625011497, 12.949570167946128 ], [ -15.978290642222133, 12.950086345495578 ], [ -15.980112771386981, 12.949283843365262 ], [ -15.980757348413331, 12.949100587845983 ], [ -15.982035900097182, 12.94838149171529 ], [ -15.983761883908365, 12.946575716132399 ], [ -15.985177784627362, 12.943279247424107 ], [ -15.986764303421406, 12.941184652614176 ], [ -15.987467296014273, 12.939455057461849 ], [ -15.986738838806255, 12.937052763158803 ], [ -15.985867727628403, 12.933529852263131 ], [ -15.986986138758411, 12.927268872252872 ], [ -15.987074086229564, 12.926192595077499 ], [ -15.987615820423729, 12.925657094957145 ], [ -15.99090185156458, 12.924478285876434 ], [ -15.992088754822895, 12.923931286733433 ], [ -15.993098414464107, 12.92285150578908 ], [ -15.993449705692939, 12.920779657167614 ], [ -15.99444801970087, 12.919166464400622 ], [ -15.99387344294003, 12.918382037080756 ], [ -15.993439663966122, 12.91823902233676 ], [ -15.992286410976783, 12.917963117421086 ], [ -15.990555258139121, 12.91839463983675 ], [ -15.989073069817341, 12.918852333320967 ], [ -15.988501780785805, 12.918899703471713 ], [ -15.987958640599954, 12.919073547699787 ], [ -15.987275891731326, 12.918904339375191 ], [ -15.986442546029165, 12.917940040710508 ], [ -15.985533945557846, 12.916587235579506 ], [ -15.984764886280903, 12.915559396976452 ], [ -15.982664191627222, 12.911055561328808 ], [ -15.982223440125894, 12.909122320933175 ], [ -15.981423735048399, 12.907317008824606 ], [ -15.980503907531384, 12.905430769463518 ], [ -15.979877866414187, 12.903245052743697 ], [ -15.981115841752041, 12.901631009671849 ], [ -15.981573850991758, 12.900905964652026 ], [ -15.983063792384868, 12.900095668669792 ], [ -15.983164362126823, 12.899887334373007 ], [ -15.983849948326288, 12.898438104223892 ], [ -15.983228243061323, 12.897364493400515 ], [ -15.980395952121141, 12.899011649091804 ], [ -15.978229546199021, 12.898884135060809 ], [ -15.977074746080898, 12.89818320620172 ], [ -15.976354738467251, 12.897896563091141 ], [ -15.974765689437604, 12.896916953771731 ], [ -15.973756726768173, 12.895790510120884 ], [ -15.975045948295634, 12.893127478022194 ], [ -15.974454828679947, 12.890417197741446 ], [ -15.977497350760746, 12.885957386250672 ], [ -15.977763247730024, 12.885603771038559 ], [ -15.977772323444011, 12.885567570741333 ], [ -15.979632492263512, 12.882811972377748 ], [ -15.980285350758146, 12.880060883607985 ], [ -15.980658276181307, 12.878793663929168 ], [ -15.980980969965568, 12.876459723109114 ], [ -15.980152214553859, 12.871887772768819 ], [ -15.979436618721811, 12.870344332694819 ], [ -15.978617699473689, 12.868294945332853 ], [ -15.978134890340597, 12.867365460810715 ], [ -15.977178638593955, 12.865542619745753 ], [ -15.976149203938213, 12.863855670704195 ], [ -15.974991364078369, 12.859935912301498 ], [ -15.974384535107374, 12.857903800451988 ], [ -15.975795890457368, 12.853504324741943 ], [ -15.978348738212969, 12.848820301914762 ], [ -15.979052315304113, 12.847280603169629 ], [ -15.980098996051929, 12.846300203319261 ], [ -15.983277042532945, 12.84366625434718 ], [ -15.987394290796214, 12.838515175207112 ], [ -15.990570357869686, 12.8354200340486 ], [ -15.993466035539292, 12.833682158797467 ], [ -15.995415402103006, 12.83265308353487 ], [ -15.995544185272726, 12.832598346265309 ], [ -15.995654575880163, 12.832552720195519 ], [ -15.997933025669552, 12.830862344837968 ], [ -16.000591250995907, 12.829685876919433 ], [ -16.002560571510049, 12.826730820136353 ], [ -16.002660992569684, 12.826495356196823 ], [ -16.003290977435462, 12.825037259302729 ], [ -16.003428646201243, 12.82490111042052 ], [ -16.003528922535963, 12.824629480460807 ], [ -16.003634399892245, 12.823345173729559 ], [ -16.00378866768386, 12.822747840825 ], [ -16.00389503937815, 12.821689570054156 ], [ -16.004140187533569, 12.820775434879174 ], [ -16.00429190852984, 12.819536159268756 ], [ -16.004352210300397, 12.818478064133847 ], [ -16.00435870032565, 12.81779087917416 ], [ -16.004373293106759, 12.816823374210447 ], [ -16.004241582182168, 12.816136716556446 ], [ -16.004156082333456, 12.815486048782301 ], [ -16.003877102348778, 12.814836118932227 ], [ -16.003653439763884, 12.81419501931992 ], [ -16.003660469425707, 12.813643455771041 ], [ -16.003390169582119, 12.812857868179746 ], [ -16.003158012563155, 12.812397631985979 ], [ -16.003018346773661, 12.812027459027545 ], [ -16.002847751617711, 12.810825577514905 ], [ -16.002669053599021, 12.80990401585569 ], [ -16.00239822554391, 12.808982804658914 ], [ -16.002359550334337, 12.808521830658941 ], [ -15.999437222669629, 12.805748125258393 ], [ -15.998382308844807, 12.804576717543075 ], [ -15.997235132996019, 12.803369487670199 ], [ -15.997185941001563, 12.80257401225807 ], [ -15.996760121143559, 12.802060251922342 ], [ -15.996129276558484, 12.800950519553169 ], [ -15.994989675203737, 12.799318293036073 ], [ -15.993933003886672, 12.797685747606705 ], [ -15.993495438572706, 12.796521028237137 ], [ -15.992632432349122, 12.794932953884045 ], [ -15.992306525579503, 12.794048101534557 ], [ -15.991676040044181, 12.793019728414691 ], [ -15.990811435665858, 12.791015736955211 ], [ -15.990457938876011, 12.790140026579198 ], [ -15.990417140105217, 12.789127516694128 ], [ -15.990191035948518, 12.787844453438138 ], [ -15.990233327015034, 12.78687683947757 ], [ -15.990284830394719, 12.785909190876595 ], [ -15.990647225992523, 12.784343626723828 ], [ -15.990928047376226, 12.783121950869912 ], [ -15.991780799518791, 12.782097041505789 ], [ -15.992440230457841, 12.781109023545293 ], [ -15.994463969982119, 12.775640257752027 ], [ -15.995215401166913, 12.772273937956768 ], [ -15.998002277898724, 12.766467733676544 ], [ -15.998903562287722, 12.766093619930919 ], [ -16.000373581537801, 12.765111561040877 ], [ -16.001660070089358, 12.764311023110878 ], [ -16.005193300510143, 12.763284941832412 ], [ -16.008639225530914, 12.761156072336471 ], [ -16.010072832692732, 12.76030068522862 ], [ -16.011221452931736, 12.759591047269453 ], [ -16.016830221444152, 12.757028839025571 ], [ -16.019260450955098, 12.754334127917925 ], [ -16.021834597303162, 12.750788932844856 ], [ -16.023239994017466, 12.749816049476113 ], [ -16.023485748252561, 12.749082730627089 ], [ -16.022546233474305, 12.749086364846653 ], [ -16.022253332228818, 12.747252055929376 ], [ -16.020516203427661, 12.743587878852068 ], [ -16.02079268645171, 12.741326414779408 ], [ -16.020645315963204, 12.741326983233151 ], [ -16.021206905946322, 12.736659355528156 ], [ -16.020184885694679, 12.732142497941965 ], [ -16.019162722721273, 12.729886033645286 ], [ -16.017572395949589, 12.728346033982051 ], [ -16.015123819054722, 12.726375315977211 ], [ -16.012663272445039, 12.723699371505932 ], [ -16.010785223339006, 12.72158175992252 ], [ -16.01062559340858, 12.718481089450199 ], [ -16.011930205819983, 12.717671407106714 ], [ -16.011937947332079, 12.717300670766967 ], [ -16.01248885431027, 12.714549912078452 ], [ -16.013361908841841, 12.711752713595185 ], [ -16.013983822376741, 12.710656299427857 ], [ -16.01443486494346, 12.708276626460037 ], [ -16.01472720002528, 12.707678760870424 ], [ -16.014612381266019, 12.706594204574797 ], [ -16.01575289274798, 12.703904476946361 ], [ -16.015954312607604, 12.703605332112913 ], [ -16.016311320078202, 12.703061467369242 ], [ -16.017098609153884, 12.701873997999957 ], [ -16.01773487533444, 12.699764860062201 ], [ -16.018127955157652, 12.699030980939114 ], [ -16.01863985145091, 12.698070604831003 ], [ -16.019137962277796, 12.69596199456373 ], [ -16.019906476111284, 12.694693216221573 ], [ -16.019296695863517, 12.691883611999076 ], [ -16.019367702921784, 12.691214259057837 ], [ -16.019438961739116, 12.690608196518658 ], [ -16.019865582701673, 12.689051398892522 ], [ -16.019563594632885, 12.68721710749236 ], [ -16.020702288896587, 12.684102415219288 ], [ -16.020557424763769, 12.682412186891234 ], [ -16.020836117133136, 12.680711290120049 ], [ -16.020976140237259, 12.678875301264716 ], [ -16.020536612946099, 12.677186203590189 ], [ -16.020657855571368, 12.672945211512802 ], [ -16.020363982933219, 12.670830595987846 ], [ -16.017891865622222, 12.662783960079768 ], [ -16.017155487949758, 12.660526362230909 ], [ -16.016474907716397, 12.658404172858054 ], [ -16.016373658995693, 12.65841360105683 ], [ -16.017720987536055, 12.65684424806134 ], [ -16.021595954450994, 12.654153082086916 ], [ -16.029040177260185, 12.646068330291905 ], [ -16.032191004955266, 12.641960288044244 ], [ -16.042217697259623, 12.630619267859334 ], [ -16.04350145277435, 12.629339383291411 ], [ -16.049812512701795, 12.62366363137048 ], [ -16.056989332100912, 12.620389382529643 ], [ -16.061443938706716, 12.620082379459731 ], [ -16.082081764252464, 12.619438960293765 ], [ -16.085534047392827, 12.619424946775863 ], [ -16.101502302782855, 12.618364987502936 ], [ -16.10853091210085, 12.615090024496832 ], [ -16.110969298599084, 12.612674871610487 ], [ -16.116985035817429, 12.607288223678848 ], [ -16.125731978558388, 12.60131132207888 ], [ -16.133491316758576, 12.599018193256033 ], [ -16.13581808270283, 12.59852008601834 ], [ -16.147571256715608, 12.595992579295631 ], [ -16.152455338408597, 12.595121694172432 ], [ -16.156481454458071, 12.593838532602298 ], [ -16.160929648925784, 12.59226416057404 ], [ -16.177744514300645, 12.589650073002819 ], [ -16.179759026277342, 12.589351878705074 ], [ -16.182779494364873, 12.58962786468485 ], [ -16.185804451208515, 12.590880249255981 ], [ -16.19230474245515, 12.597207332900393 ], [ -16.19720699846517, 12.600295602657534 ], [ -16.200536593507362, 12.603671116039513 ], [ -16.208037006776401, 12.609152429503908 ], [ -16.217260331287576, 12.612925924754542 ], [ -16.22645226903434, 12.610054016051368 ], [ -16.229465520780899, 12.608765373512899 ], [ -16.232337334125511, 12.606781188557603 ], [ -16.234626411596587, 12.604221039923406 ], [ -16.239067404020766, 12.601235021328312 ], [ -16.245234036326764, 12.597255433128394 ], [ -16.249393503690374, 12.595111389768876 ], [ -16.251119204046187, 12.594117850896922 ], [ -16.254270898706, 12.59297296342146 ], [ -16.261392229800652, 12.592324691371768 ], [ -16.263112326498366, 12.592081509674328 ], [ -16.282106788204391, 12.593121271985877 ], [ -16.287293820995416, 12.595926167918298 ], [ -16.29249297278545, 12.599291429169051 ], [ -16.297318378593307, 12.601528280225891 ], [ -16.30402735395506, 12.604885960287397 ], [ -16.312660869065713, 12.606534332285854 ], [ -16.321868625641869, 12.607058515999531 ], [ -16.331841708321626, 12.602488616111083 ], [ -16.33441576725038, 12.60007093808332 ], [ -16.335422415875929, 12.598935817821802 ], [ -16.336854662553584, 12.598223482441123 ], [ -16.340004139905677, 12.594962092640213 ], [ -16.340539822270078, 12.593540012177026 ], [ -16.343989770049806, 12.584364439472063 ], [ -16.345605795167032, 12.580080055097932 ], [ -16.345669374059053, 12.579917002411513 ], [ -16.346214111019666, 12.578476788120323 ], [ -16.348317058648977, 12.57403625291705 ], [ -16.352166962675657, 12.567516573240429 ], [ -16.363589255056755, 12.555425553917722 ] ] ] ] } }
]
}
